{"buildings":{"type":"FeatureCollection","generator":"overpass-turbo","copyright":"The data included in this document is from www.openstreetmap.org. The data is made available under ODbL.","timestamp":"2016-06-23T14:47:03Z","features":[{"type":"Feature","id":"relation/2144719","properties":{"@id":"relation/2144719","abandoned_building":"yes","addr:housenumber":"22","addr:street":"Межигірська вулиця","building":"yes","building:levels":"3","note":"Визнаний непридатним для проживання. Загальна площа 2383,4 м2. Проживають 55 осіб","source:abandoned":"rda","type":"multipolygon","height":12},"geometry":{"type":"Polygon","coordinates":[[[30.5134762,50.4682254],[30.5137257,50.4680757],[30.5141587,50.4683682],[30.5140278,50.4684467],[30.5139092,50.4685178],[30.5137205,50.4683903],[30.5134762,50.4682254]],[[30.5136753,50.4682535],[30.5137078,50.4682755],[30.5136693,50.4682985],[30.5138939,50.4684503],[30.5140235,50.4683726],[30.5139914,50.4683509],[30.5140044,50.4683431],[30.5138334,50.4682275],[30.5138479,50.4682188],[30.513771,50.4681668],[30.5137228,50.4681957],[30.5137458,50.4682113],[30.5136753,50.4682535]]]}},{"type":"Feature","id":"relation/2145497","properties":{"@id":"relation/2145497","abandoned_building":"yes","addr:housenumber":"8","addr:street":"Житньоторзька вулиця","building":"yes","building:levels":"3","building:material":"brick","description":"Визнаний непридатним для проживання. Загальна площа 2135 м2. Проживає 6 осіб (у гуртожитку 1030)","source:abandoned":"rda","type":"multipolygon","height":12},"geometry":{"type":"Polygon","coordinates":[[[30.5103909,50.4655106],[30.5109255,50.4658507],[30.5107514,50.4659616],[30.510721,50.4659424],[30.5106604,50.465981],[30.5101562,50.4656601],[30.5103909,50.4655106]],[[30.5103219,50.4657444],[30.5103552,50.4657668],[30.5103799,50.4657519],[30.5105775,50.4658844],[30.510688,50.4658177],[30.5104936,50.4656872],[30.5105236,50.465669],[30.5104872,50.4656446],[30.5103219,50.4657444]]]}},{"type":"Feature","id":"relation/4138067","properties":{"@id":"relation/4138067","abandoned_landuse":"construction","disused":"yes","landuse":"construction","note":"Довгобуд, будівельна готовність 0%. Офісний комплекс з вбудовано-прибудованими приміщеннями, закладами громадського харчування, підземним паркінгом. ","source:abandoned":"rda","type":"multipolygon","height":5},"geometry":{"type":"Polygon","coordinates":[[[30.4522561,50.4450017],[30.452303,50.4450041],[30.4525541,50.4455843],[30.4514755,50.4454915],[30.4514063,50.4451965],[30.4513499,50.4449557],[30.4522561,50.4450017]]]}},{"type":"Feature","id":"relation/6235814","properties":{"@id":"relation/6235814","abandoned_building":"construction","addr:housenumber":"20","addr:street":"Генерала Жмаченка вулиця","amenity":"place_of_worship","building":"yes","denomination":"evangelical","description":"Помісна церква християн віри євангельської \"Християнська надія\" у Дніпровському районі м.Києва","name":"Євангельська церква \"Християнська надія\"","religion":"christian","source:abandoned":"rda","type":"multipolygon","website":"http://chc.org.ua/ua/main","height":5},"geometry":{"type":"Polygon","coordinates":[[[30.6103553,50.4664031],[30.6103131,50.4663207],[30.6104405,50.4662923],[30.6104561,50.4663206],[30.6108573,50.4662311],[30.6112505,50.4669454],[30.6104254,50.4671294],[30.6101154,50.4665663],[30.6102101,50.4665452],[30.6101842,50.4665376],[30.61014,50.4665189],[30.6101066,50.4664908],[30.610096,50.4664608],[30.6101076,50.4664258],[30.6101456,50.4663963],[30.6102051,50.4663814],[30.6102909,50.4663804],[30.6103553,50.4664031]]]}},{"type":"Feature","id":"relation/6240156","properties":{"@id":"relation/6240156","abandoned_building":"construction","addr:housenumber":"24","addr:street":"Солом’янська вулиця","building":"yes","description":"Довгобуд. Призначення — споруди архівів, будівельна готовність 80%","source:abandoned":"rda","type":"multipolygon","height":5},"geometry":{"type":"MultiPolygon","coordinates":[[[[30.4809873,50.4219026],[30.4806358,50.421574],[30.4813329,50.4212631],[30.4817089,50.4216054],[30.4809873,50.4219026]]],[[[30.4809044,50.4220298],[30.4818767,50.421634],[30.481809,50.4215653],[30.4820683,50.421452],[30.4822548,50.4216191],[30.4822442,50.4216408],[30.4822241,50.421667],[30.4809886,50.4221865],[30.4809409,50.4222016],[30.480873,50.4222011],[30.4808206,50.4221852],[30.4807818,50.4221608],[30.480651,50.4220362],[30.4808307,50.4219596],[30.4809044,50.4220298]]]]}},{"type":"Feature","id":"relation/6247313","properties":{"@id":"relation/6247313","abandoned_building":"construction","addr:housenumber":"32","addr:street":"Платона Майбороди вулиця","building":"construction","building:levels":"8;2","note":"Адміністративна будівля для Інституту нейрохірургії ім. ак. А. П. Ромоданова Академії медичних наук України","source:abandoned":"rda","type":"multipolygon","height":5},"geometry":{"type":"MultiPolygon","coordinates":[[[[30.4795167,50.4679508],[30.4797964,50.4678966],[30.4798739,50.4679515],[30.4796408,50.4680439],[30.4795167,50.4679508]]],[[[30.4794489,50.4679874],[30.4795167,50.4679508],[30.4796408,50.4680439],[30.4796083,50.4680615],[30.4798208,50.4682209],[30.4798616,50.4681988],[30.4799397,50.4682574],[30.4798538,50.4683038],[30.479553,50.4682937],[30.4794108,50.468187],[30.4794489,50.4679874]]],[[[30.4798616,50.4681988],[30.4800641,50.4681062],[30.4802103,50.4682183],[30.4799397,50.4682574],[30.4798616,50.4681988]]],[[[30.4797964,50.4678966],[30.4798616,50.4678663],[30.480191,50.4678764],[30.480323,50.4679829],[30.4802861,50.4681802],[30.4802103,50.4682183],[30.4800641,50.4681062],[30.4801046,50.4680838],[30.4799144,50.4679392],[30.4798739,50.4679515],[30.4797964,50.4678966]]]]}},{"type":"Feature","id":"way/24547050","properties":{"@id":"way/24547050","abandoned_building":"yes","addr:housenumber":"34","addr:street":"Оленівська вулиця","building":"yes","building:levels":"5","note":"Визнаний непридатним для проживання. Загальна площа 3501,1 м2. Проживає 168 осіб","source:abandoned":"rda","height":20},"geometry":{"type":"Polygon","coordinates":[[[30.5059252,50.4732978],[30.5060682,50.4732115],[30.5067095,50.4736422],[30.5065665,50.4737285],[30.5063591,50.4735892],[30.5059252,50.4732978]]]}},{"type":"Feature","id":"way/24547084","properties":{"@id":"way/24547084","abandoned_building":"yes","addr:housenumber":"34а","addr:street":"Оленівська вулиця","building":"yes","building:levels":"5","note":"Визнаний непридатним для проживання. Загальна площа 3620,5 м2. Проживає 170 осіб","source:abandoned":"rda","height":20},"geometry":{"type":"Polygon","coordinates":[[[30.506497,50.4730766],[30.5066498,50.4729883],[30.507275,50.4734264],[30.5071222,50.4735147],[30.506497,50.4730766]]]}},{"type":"Feature","id":"way/29097746","properties":{"@id":"way/29097746","abandoned_building":"construction","addr:housenumber":"6","addr:street":"Вишняківська вулиця","building":"yes","building:levels":"3","description":"Господарський блок на діл. 62 у 10-му мікрорайоні житлового масиву Осокорки під розміщення структурних підрозділів Пенсійного фонду України","source:abandoned":"rda","height":12},"geometry":{"type":"Polygon","coordinates":[[[30.6509613,50.3950318],[30.6509534,50.3945163],[30.6515238,50.3945127],[30.6515257,50.3946364],[30.6511813,50.3946386],[30.6511873,50.3950304],[30.6509613,50.3950318]]]}},{"type":"Feature","id":"way/30067544","properties":{"@id":"way/30067544","abandoned_building":"yes","addr:city":"Київ","addr:housenumber":"2/12","addr:street":"Печерський узвіз","building":"yes","building:levels":"6","note":"Незадовільний стан. Будівельні роботи не проводяться","source:abandoned":"rda","height":24},"geometry":{"type":"Polygon","coordinates":[[[30.5325451,50.4364732],[30.5325609,50.4364687],[30.5325781,50.4364685],[30.5325942,50.4364725],[30.5326066,50.4364801],[30.5326128,50.4364887],[30.5326142,50.436498],[30.5326106,50.4365071],[30.5326025,50.4365149],[30.5326206,50.4365281],[30.5325974,50.4365411],[30.5326329,50.4365668],[30.5325361,50.4366208],[30.5325007,50.4365951],[30.532453,50.4366216],[30.5323506,50.4365472],[30.5323647,50.4365394],[30.5321219,50.436448],[30.5322172,50.4360701],[30.5323911,50.4360884],[30.5323161,50.4363776],[30.5325183,50.4364537],[30.5325451,50.4364732]]]}},{"type":"Feature","id":"way/31317777","properties":{"@id":"way/31317777","abandoned_building":"yes","addr:housenumber":"20","addr:street":"Дружби Народів бульвар","building":"yes","building:levels":"5","note":"Незадовільний стан","source:abandoned":"rda","height":20},"geometry":{"type":"Polygon","coordinates":[[[30.5406138,50.4155055],[30.5407432,50.4154062],[30.5415312,50.4158232],[30.5414018,50.4159225],[30.5406138,50.4155055]]]}},{"type":"Feature","id":"way/31732094","properties":{"@id":"way/31732094","abandoned_building":"yes","addr:housenumber":"9","addr:postcode":"04114","addr:street":"Полупанова вулиця","building":"yes","building:levels":"3","note":"Непридатний для проживання. Мешкають 14 осіб. Підлягаю відселенню","source:abandoned":"rda","height":12},"geometry":{"type":"Polygon","coordinates":[[[30.4540014,50.5090497],[30.4540957,50.5087453],[30.4543726,50.50878],[30.4543362,50.5088975],[30.4542267,50.5088838],[30.4541688,50.5090707],[30.4540014,50.5090497]]]}},{"type":"Feature","id":"way/31732095","properties":{"@id":"way/31732095","abandoned_building":"yes","addr:housenumber":"11","addr:postcode":"04114","addr:street":"Полупанова вулиця","building":"yes","building:levels":"3","note":"Підлягає реконструкції. Мешкають 44 особи","source:abandoned":"rda","height":12},"geometry":{"type":"Polygon","coordinates":[[[30.4545301,50.508968],[30.4545664,50.5088509],[30.4550108,50.5089065],[30.4549745,50.5090236],[30.4545301,50.508968]]]}},{"type":"Feature","id":"way/31732096","properties":{"@id":"way/31732096","abandoned_building":"yes","addr:housenumber":"13","addr:postcode":"04114","addr:street":"Полупанова вулиця","building":"yes","building:levels":"3","note":"Підлягає реконструкції. Мешкають 54 особи","source:abandoned":"rda","height":12},"geometry":{"type":"Polygon","coordinates":[[[30.4553025,50.5090012],[30.4553396,50.5088813],[30.4559862,50.5089623],[30.4559491,50.5090822],[30.4553025,50.5090012]]]}},{"type":"Feature","id":"way/31732098","properties":{"@id":"way/31732098","abandoned_building":"yes","addr:housenumber":"15","addr:postcode":"04114","addr:street":"Полупанова вулиця","building":"yes","building:levels":"3","note":"Підлягає реконструкції. Мешкають 46 осіб","source:abandoned":"rda","height":12},"geometry":{"type":"Polygon","coordinates":[[[30.4562173,50.5091127],[30.4562537,50.5089953],[30.4567739,50.5090605],[30.4567218,50.5092285],[30.456593,50.5092124],[30.4566087,50.5091618],[30.4562173,50.5091127]]]}},{"type":"Feature","id":"way/31832193","properties":{"@id":"way/31832193","abandoned_building":"yes","addr:housenumber":"52","addr:street":"Сирецька вулиця","building":"yes","note":"Визнаний непридатним для проживання. Загальна площа 1218,1 м2. Проживає 40 осіб","source:abandoned":"rda","height":5},"geometry":{"type":"Polygon","coordinates":[[[30.4511032,50.4911463],[30.4511832,50.4909826],[30.4514529,50.4910359],[30.4513728,50.4911997],[30.4511032,50.4911463]]]}},{"type":"Feature","id":"way/31832194","properties":{"@id":"way/31832194","abandoned_building":"yes","addr:housenumber":"50","addr:street":"Сирецька вулиця","building":"yes","note":"Визнаний непридатним для проживання. Загальна площа 613,3 м2. Проживає 32 особи","source:abandoned":"rda","height":5},"geometry":{"type":"Polygon","coordinates":[[[30.4516061,50.4911825],[30.4516442,50.491088],[30.451999,50.4911459],[30.4519609,50.4912403],[30.4516061,50.4911825]]]}},{"type":"Feature","id":"way/31832195","properties":{"@id":"way/31832195","abandoned_building":"yes","addr:housenumber":"48а","addr:street":"Сирецька вулиця","building":"yes","note":"Визнаний непридатним для проживання. Загальна площа 622,7 м2. Проживає 24 особи","source:abandoned":"rda","height":5},"geometry":{"type":"Polygon","coordinates":[[[30.4522418,50.4912676],[30.4522769,50.4911818],[30.4526281,50.49124],[30.452593,50.4913258],[30.4522418,50.4912676]]]}},{"type":"Feature","id":"way/32035729","properties":{"@id":"way/32035729","abandoned_building":"yes","addr:housenumber":"46/1","addr:street":"Голосіївський проспект","building":"yes","building:levels":"5","note":"Візуально перебуває в аварійному стані, однак відсутні розпорядчі документи чи рішення щодо будинку. Проживає 98 осіб","phone":"+380 44 5298842","source:abandoned":"rda","height":20},"geometry":{"type":"Polygon","coordinates":[[[30.5150586,50.4026689],[30.5152368,50.4026037],[30.5152645,50.4026345],[30.5153007,50.4026762],[30.5154584,50.4028633],[30.5155826,50.4030077],[30.5152038,50.40314],[30.5151402,50.4031634],[30.5150316,50.4030436],[30.5153064,50.4029424],[30.5150854,50.4026987],[30.5150586,50.4026689]]]}},{"type":"Feature","id":"way/32559852","properties":{"@id":"way/32559852","abandoned_building":"yes","addr:housenumber":"11а","addr:street":"Микільсько-Ботанічна вулиця","building":"apartments","building:levels":"2","disused":"yes","note":"Визнаний непридатним для проживання. Мешканці відсутні. Власнику надано приписи щодо негайного вжиття заходів із недопущення руйнування будинку","roof:shape":"gabled","source:abandoned":"rda","height":8},"geometry":{"type":"Polygon","coordinates":[[[30.5051948,50.4386107],[30.5053817,50.4384643],[30.5055268,50.4385394],[30.5054348,50.4386115],[30.5053424,50.4386854],[30.5051948,50.4386107]]]}},{"type":"Feature","id":"way/32665989","properties":{"@id":"way/32665989","abandoned_building":"yes","addr:housenumber":"25","addr:street":"Коперника вулиця","building":"yes","note":"Будівля в аварійному стан. Потрібно вирішити питання знесень аварійних будівель гуртожитку","source:abandoned":"rda","height":5},"geometry":{"type":"Polygon","coordinates":[[[30.4777474,50.4570015],[30.4778672,50.4568774],[30.4783223,50.4570554],[30.4782025,50.4571795],[30.4777474,50.4570015]]]}},{"type":"Feature","id":"way/32980869","properties":{"@id":"way/32980869","abandoned_building":"yes","addr:housenumber":"13а","addr:street":"Старовокзальна вулиця","building":"yes","building:levels":"3","note":"Будівля в аварійному стані. Непридатний для проживання","source:abandoned":"rda","height":12},"geometry":{"type":"Polygon","coordinates":[[[30.4936008,50.4452257],[30.493458,50.4453582],[30.4931149,50.4452084],[30.4932571,50.4450755],[30.4936008,50.4452257]]]}},{"type":"Feature","id":"way/33445766","properties":{"@id":"way/33445766","abandoned_building":"yes","addr:housenumber":"13","addr:street":"Ярославів Вал вулиця","building":"yes","description":"Будівля в аварійному стані","source:abandoned":"rda","height":5},"geometry":{"type":"Polygon","coordinates":[[[30.5097509,50.4511152],[30.5095783,50.4510252],[30.5099168,50.4507598],[30.5100794,50.4508414],[30.5098129,50.4510635],[30.5097509,50.4511152]]]}},{"type":"Feature","id":"way/33632323","properties":{"@id":"way/33632323","abandoned_building":"yes","addr:housenumber":"47б","addr:street":"Олеся Гончара вулиця","building":"yes","building:levels":"7","note":"Аварійна будівля. Непридатний для проживання","source:abandoned":"rda","height":28},"geometry":{"type":"Polygon","coordinates":[[[30.5053811,50.4504572],[30.5054684,50.4503539],[30.5057695,50.4504568],[30.5056823,50.4505602],[30.5053811,50.4504572]]]}},{"type":"Feature","id":"way/33632488","properties":{"@id":"way/33632488","abandoned_building":"yes","addr:city":"Київ","addr:housenumber":"41/27","addr:street":"Володимирська вулиця","building":"yes","building:levels":"3","note":"Занедбана будівля","source:abandoned":"rda","height":12},"geometry":{"type":"Polygon","coordinates":[[[30.5147492,50.4488035],[30.5146952,50.4486721],[30.5148323,50.4486493],[30.5148534,50.4487006],[30.5151479,50.4486515],[30.5151338,50.4486173],[30.5152189,50.4486031],[30.515223,50.4486129],[30.5152659,50.4487174],[30.5147492,50.4488035]]]}},{"type":"Feature","id":"way/33729671","properties":{"@id":"way/33729671","abandoned_building":"yes","addr:housenumber":"27/35","addr:street":"Льва Толстого вулиця","building":"yes","building:levels":"4","note":"Візуально перебуває в аварійному стані, однак відсутні розпорядчі документи чи рішення щодо будинку. Проживають 22 особи","source:abandoned":"rda","height":16},"geometry":{"type":"Polygon","coordinates":[[[30.5032146,50.4414571],[30.5031658,50.4413333],[30.5034846,50.4412824],[30.5035334,50.4414062],[30.5032146,50.4414571]]]}},{"type":"Feature","id":"way/33746049","properties":{"@id":"way/33746049","abandoned_building":"yes","addr:housenumber":"7","addr:street":"Миколи Матеюка вулиця","building":"apartments","building:levels":"9","note":"Потребує капремонту балконів. Ремонт заплановано на другу половину березня 2016 року","source:abandoned":"rda","height":36},"geometry":{"type":"Polygon","coordinates":[[[30.6361089,50.4704733],[30.6362708,50.4702379],[30.6364261,50.4702812],[30.6362642,50.4705165],[30.6361089,50.4704733]]]}},{"type":"Feature","id":"way/33851770","properties":{"@id":"way/33851770","abandoned_building":"yes","addr:housenumber":"23а","addr:street":"Мілютенка вулиця","building":"apartments","building:levels":"5","note":"У непридатному для нормальної експлуатації стані","source:abandoned":"rda","height":20},"geometry":{"type":"Polygon","coordinates":[[[30.6245352,50.4792795],[30.6250444,50.4785074],[30.6252077,50.478551],[30.6246985,50.4793231],[30.6245352,50.4792795]]]}},{"type":"Feature","id":"way/34107545","properties":{"@id":"way/34107545","abandoned_building":"construction","addr:housenumber":"58а","addr:street":"Богдана Хмельницького вулиця","building":"yes","building:levels":"20","note":"Роботи не проводяться","source:abandoned":"rda","height":80},"geometry":{"type":"Polygon","coordinates":[[[30.5049634,50.4483641],[30.505096,50.4481627],[30.5053298,50.4480396],[30.5055301,50.4480177],[30.5057377,50.4480115],[30.5059381,50.4480528],[30.5061948,50.4481399],[30.5060763,50.4482805],[30.5058425,50.4481973],[30.5056136,50.4481704],[30.505436,50.4482072],[30.5053283,50.4482426],[30.5051873,50.4484379],[30.5049634,50.4483641]]]}},{"type":"Feature","id":"way/35271726","properties":{"@id":"way/35271726","abandoned_building":"construction","addr:housenumber":"9","addr:street":"Генерала Ватутіна проспект","building":"construction","building:levels":"35","note":"Недобудована будівля ЖК «Дніпровські вежі»","source:abandoned":"rda","height":140},"geometry":{"type":"Polygon","coordinates":[[[30.5813667,50.4973918],[30.5814004,50.4974351],[30.5814111,50.4974829],[30.5813977,50.4975304],[30.5813618,50.4975729],[30.5813067,50.4976061],[30.5812381,50.4976267],[30.5811628,50.4976326],[30.5810883,50.4976233],[30.5810222,50.4975997],[30.580971,50.497564],[30.5809398,50.49752],[30.5809315,50.497478],[30.5809418,50.4974361],[30.5809697,50.4973976],[30.5810132,50.4973655],[30.5810689,50.4973423],[30.5811325,50.4973297],[30.5811991,50.4973287],[30.5812636,50.4973394],[30.5813209,50.497361],[30.5813667,50.4973918]]]}},{"type":"Feature","id":"way/35271727","properties":{"@id":"way/35271727","abandoned_building":"construction","addr:housenumber":"9","addr:street":"Генерала Ватутіна проспект","building":"construction","building:levels":"35","note":"Недобудована будівля ЖК «Дніпровські вежі»","source:abandoned":"rda","height":140},"geometry":{"type":"Polygon","coordinates":[[[30.5812442,50.497935],[30.581283,50.4979562],[30.5813125,50.4979828],[30.5813312,50.498013],[30.5813378,50.4980453],[30.5813319,50.4980776],[30.581314,50.498108],[30.581285,50.4981348],[30.5812468,50.4981564],[30.5812014,50.4981714],[30.5811517,50.4981791],[30.5811006,50.4981788],[30.5810511,50.4981708],[30.5810061,50.4981553],[30.5809683,50.4981334],[30.5809438,50.498111],[30.5809269,50.4980858],[30.5809185,50.498059],[30.5809188,50.4980317],[30.5809278,50.4980049],[30.5809452,50.4979799],[30.5809703,50.4979577],[30.5810019,50.4979392],[30.5810388,50.4979251],[30.5810794,50.4979162],[30.581122,50.4979127],[30.5811649,50.4979147],[30.5812062,50.4979223],[30.5812442,50.497935]]]}},{"type":"Feature","id":"way/35271728","properties":{"@id":"way/35271728","abandoned_building":"construction","addr:housenumber":"9","addr:street":"Генерала Ватутіна проспект","building":"construction","building:levels":"35","note":"Недобудована будівля ЖК «Дніпровські вежі»","source:abandoned":"rda","height":140},"geometry":{"type":"Polygon","coordinates":[[[30.5793654,50.4974071],[30.5793929,50.4974355],[30.5794085,50.4974673],[30.579411,50.4975006],[30.5794004,50.4975332],[30.5793773,50.4975631],[30.5793432,50.4975884],[30.5793002,50.4976074],[30.5792512,50.497619],[30.5791991,50.4976225],[30.5791473,50.4976175],[30.5790991,50.4976045],[30.5790481,50.4975779],[30.5790128,50.4975425],[30.5789968,50.4975018],[30.5790015,50.49746],[30.5790266,50.4974212],[30.5790696,50.4973894],[30.579126,50.4973677],[30.5791903,50.4973584],[30.5792559,50.4973623],[30.5793163,50.4973791],[30.5793654,50.4974071]]]}},{"type":"Feature","id":"way/35271729","properties":{"@id":"way/35271729","abandoned_building":"construction","addr:housenumber":"9","addr:street":"Генерала Ватутіна проспект","building":"construction","building:levels":"35","note":"Недобудована будівля ЖК «Дніпровські вежі»","source:abandoned":"rda","height":140},"geometry":{"type":"Polygon","coordinates":[[[30.5804463,50.4974038],[30.5804696,50.497429],[30.5804836,50.4974568],[30.5804878,50.4974859],[30.5804819,50.4975148],[30.5804663,50.4975423],[30.5804416,50.4975669],[30.580409,50.4975875],[30.5803702,50.4976031],[30.5803269,50.4976129],[30.5802814,50.4976165],[30.5802357,50.4976137],[30.5801921,50.4976046],[30.5801526,50.4975897],[30.5801134,50.4975651],[30.5800856,50.4975349],[30.5800712,50.4975012],[30.580071,50.4974662],[30.5800852,50.4974324],[30.5801128,50.4974021],[30.5801518,50.4973775],[30.5801995,50.4973601],[30.5802527,50.4973513],[30.5803077,50.4973515],[30.5803607,50.4973609],[30.580408,50.4973787],[30.5804463,50.4974038]]]}},{"type":"Feature","id":"way/35271739","properties":{"@id":"way/35271739","abandoned_building":"construction","addr:housenumber":"9","addr:street":"Генерала Ватутіна проспект","building":"construction","building:levels":"16","note":"Недобудована будівля ЖК «Дніпровські вежі»","source:abandoned":"rda","height":64},"geometry":{"type":"Polygon","coordinates":[[[30.5785242,50.4979822],[30.578555,50.4980215],[30.5785642,50.498065],[30.5785509,50.498108],[30.5785166,50.4981461],[30.5784648,50.4981751],[30.578401,50.4981919],[30.5783322,50.4981948],[30.5782656,50.4981835],[30.5782082,50.4981591],[30.5781657,50.4981236],[30.5781438,50.4980812],[30.5781449,50.4980365],[30.5781689,50.4979946],[30.5782132,50.49796],[30.5782728,50.4979365],[30.5783412,50.4979266],[30.578411,50.4979316],[30.5784743,50.4979508],[30.5785242,50.4979822]]]}},{"type":"Feature","id":"way/35271740","properties":{"@id":"way/35271740","abandoned_building":"construction","addr:housenumber":"9","addr:street":"Генерала Ватутіна проспект","building":"construction","building:levels":"35","note":"Недобудована будівля ЖК «Дніпровські вежі»","source:abandoned":"rda","height":140},"geometry":{"type":"Polygon","coordinates":[[[30.5784804,50.4974078],[30.5785144,50.4974421],[30.5785308,50.4974812],[30.5785281,50.4975217],[30.5785066,50.4975598],[30.5784681,50.4975921],[30.5784163,50.4976156],[30.5783558,50.4976282],[30.5782921,50.4976287],[30.5782311,50.4976172],[30.5781783,50.4975946],[30.5781392,50.4975638],[30.5781159,50.4975271],[30.5781105,50.4974877],[30.5781233,50.497449],[30.5781534,50.4974144],[30.578198,50.4973868],[30.5782532,50.4973687],[30.5783144,50.4973617],[30.5783762,50.4973663],[30.5784331,50.4973821],[30.5784804,50.4974078]]]}},{"type":"Feature","id":"way/36917705","properties":{"@id":"way/36917705","abandoned_building":"yes","addr:housenumber":"14","addr:street":"Мала Житомирська вулиця","building":"yes","building:levels":"8","note":"Прибутковий будинок в садибі Мурашка — в аварійному стані","source:abandoned":"rda","height":32},"geometry":{"type":"Polygon","coordinates":[[[30.5207681,50.4527468],[30.5209548,50.4528127],[30.521372,50.45296],[30.5212913,50.4530526],[30.5208365,50.4528973],[30.5206836,50.4528323],[30.5207681,50.4527468]]]}},{"type":"Feature","id":"way/36917706","properties":{"@id":"way/36917706","abandoned_building":"yes","addr:housenumber":"12б","addr:street":"Мала Житомирська вулиця","building":"yes","description":"Об'єкт культурної спадщини в аварійному стані","source:abandoned":"rda","height":5},"geometry":{"type":"Polygon","coordinates":[[[30.5211513,50.4528713],[30.5212297,50.4527692],[30.5213086,50.4527938],[30.521274,50.4528389],[30.5213573,50.4528648],[30.5214037,50.4528043],[30.5215072,50.4528365],[30.521417,50.452954],[30.5211513,50.4528713]]]}},{"type":"Feature","id":"way/36967470","properties":{"@id":"way/36967470","abandoned_building":"construction","barrier":"fence","description":"Будівництво підземного паркінгу","landuse":"construction","source:abandoned":"rda","height":5},"geometry":{"type":"Polygon","coordinates":[[[30.5799046,50.5000627],[30.5792949,50.4999069],[30.5796165,50.4994519],[30.5802311,50.4996229],[30.5799046,50.5000627]]]}},{"type":"Feature","id":"way/37431438","properties":{"@id":"way/37431438","abandoned_building":"construction","addr:housenumber":"6","addr:street":"Лабораторна вулиця","building":"yes","construction":"hospital","description":"Недобудований корпус дитячої лікарні, у незадовільному стані, вікна та двері відсутні, частково недобудована","source:abandoned":"rda","height":5},"geometry":{"type":"Polygon","coordinates":[[[30.5205834,50.4262878],[30.5206543,50.4261872],[30.5212603,50.4263605],[30.521192,50.4264574],[30.5210691,50.4264222],[30.5209169,50.4266382],[30.520578,50.4265412],[30.5207275,50.4263291],[30.5205834,50.4262878]]]}},{"type":"Feature","id":"way/39011583","properties":{"@id":"way/39011583","abandoned_building":"yes","addr:housenumber":"39в","addr:street":"Ярославська вулиця","building":"apartments","building:levels":"3","building:material":"brick","note":"Визнаний непридатним для проживання. Загальна площа 981,6 м2. Проживає 17 осіб","source:abandoned":"rda","height":12},"geometry":{"type":"Polygon","coordinates":[[[30.5147051,50.4705386],[30.5148861,50.4704254],[30.5151164,50.4705745],[30.5149782,50.470661],[30.5148431,50.4705736],[30.5148004,50.4706003],[30.5147051,50.4705386]]]}},{"type":"Feature","id":"way/40948324","properties":{"@id":"way/40948324","abandoned_building":"yes","addr:city":"Київ","addr:housenumber":"32","addr:street":"Введенська вулиця","building":"yes","note":"Визнаний непридатним для проживання. Загальна площа 3497,3 м2. Проживає 157 осіб","source:abandoned":"rda","height":5},"geometry":{"type":"Polygon","coordinates":[[[30.5108437,50.4710064],[30.5109742,50.4709255],[30.5116196,50.4713473],[30.5114891,50.4714282],[30.5108437,50.4710064]]]}},{"type":"Feature","id":"way/40959288","properties":{"@id":"way/40959288","abandoned_building":"yes","addr:city":"Київ","addr:housenumber":"29а","addr:street":"Волоська вулиця","building":"yes","building:levels":"3","description":"Житловий будинок, визнаний непридатним для проживання. Загальна площа 697 м2. Проживає 37 осіб","source:abandoned":"rda","height":12},"geometry":{"type":"Polygon","coordinates":[[[30.5153812,50.4694489],[30.5156022,50.4693175],[30.5157363,50.4694088],[30.5155153,50.4695403],[30.5153812,50.4694489]]]}},{"type":"Feature","id":"way/43010268","properties":{"@id":"way/43010268","abandoned_building":"construction","addr:housenumber":"2","addr:street":"Возз’єднання проспект","building":"yes","building:levels":"2","note":"Будівництво адміністративного будинка","source:abandoned":"rda","height":8},"geometry":{"type":"Polygon","coordinates":[[[30.5976133,50.4319799],[30.5977201,50.4318758],[30.598299,50.4321167],[30.5981922,50.4322208],[30.5976133,50.4319799]]]}},{"type":"Feature","id":"way/44559442","properties":{"@id":"way/44559442","abandoned_building":"yes","addr:city":"Київ","addr:housenumber":"8/15б","addr:street":"Левандовська вулиця","building":"yes","building:levels":"2","note":"Незадовільний стан","source:abandoned":"rda","height":8},"geometry":{"type":"Polygon","coordinates":[[[30.5459205,50.4400403],[30.5460188,50.4398621],[30.546191,50.4399006],[30.5460927,50.4400788],[30.5459205,50.4400403]]]}},{"type":"Feature","id":"way/44891189","properties":{"@id":"way/44891189","abandoned_building":"yes","addr:housenumber":"14","addr:postcode":"02094","addr:street":"Мініна вулиця","building":"yes","note":"У незадовільному санітарно-технічному стані, підлягає знесенню, а мешканці — відселенню","source:abandoned":"rda","height":5},"geometry":{"type":"Polygon","coordinates":[[[30.6266122,50.4553718],[30.6268921,50.4549381],[30.6271271,50.4549996],[30.6268472,50.4554333],[30.6266122,50.4553718]]]}},{"type":"Feature","id":"way/45205640","properties":{"@id":"way/45205640","abandoned_building":"yes","addr:housenumber":"2а","addr:street":"Хорива вулиця","building":"yes","building:levels":"2","note":"Визнаний непридатним для проживання. Загальна площа 1693 м2. Проживає 6 осіб","source:abandoned":"rda","height":8},"geometry":{"type":"Polygon","coordinates":[[[30.5127818,50.4643288],[30.5125091,50.4641444],[30.5126889,50.4640366],[30.512854,50.4641476],[30.5128069,50.464176],[30.5129149,50.4642486],[30.5127818,50.4643288]]]}},{"type":"Feature","id":"way/45205655","properties":{"@id":"way/45205655","abandoned_building":"yes","addr:housenumber":"28","addr:street":"Верхній Вал вулиця","building":"yes","building:levels":"2","note":"Незадовільний стан","source:abandoned":"rda","height":8},"geometry":{"type":"Polygon","coordinates":[[[30.5133935,50.4664824],[30.5131102,50.4662831],[30.5133546,50.4661423],[30.5134882,50.4662363],[30.5133721,50.4663032],[30.5135219,50.4664085],[30.5133935,50.4664824]]]}},{"type":"Feature","id":"way/45275375","properties":{"@id":"way/45275375","abandoned_building":"yes","addr:housenumber":"32","addr:street":"Верхній Вал вулиця","building":"yes","note":"Визнаний непридатним для проживання. Загальна площа 1004,9 м2. Проживає 6 осіб","source:abandoned":"rda","height":5},"geometry":{"type":"Polygon","coordinates":[[[30.5140741,50.4669165],[30.5142261,50.4668233],[30.5143593,50.4669114],[30.5144755,50.4669883],[30.5143235,50.4670815],[30.5142073,50.4670046],[30.5140741,50.4669165]]]}},{"type":"Feature","id":"way/45275387","properties":{"@id":"way/45275387","abandoned_building":"yes","addr:housenumber":"40б","addr:street":"Верхній Вал вулиця","building":"yes","note":"Визнаний непридатним для проживання. Загальна площа 351,6 м2. Проживає 17 осіб","source:abandoned":"rda","height":5},"geometry":{"type":"Polygon","coordinates":[[[30.5157694,50.4678388],[30.5156645,50.4677689],[30.5159118,50.4676185],[30.5160167,50.4676883],[30.5157694,50.4678388]]]}},{"type":"Feature","id":"way/45341079","properties":{"@id":"way/45341079","abandoned_building":"yes","addr:housenumber":"64","addr:street":"Верхній Вал вулиця","building":"yes","note":"Незадовільний стан. Балансоутримувач невідомий","source:abandoned":"rda","height":5},"geometry":{"type":"Polygon","coordinates":[[[30.519719,50.4704276],[30.5198332,50.4705028],[30.5196806,50.4705966],[30.5195665,50.4705215],[30.519719,50.4704276]]]}},{"type":"Feature","id":"way/45488486","properties":{"@id":"way/45488486","abandoned_building":"yes","addr:housenumber":"9","addr:street":"Івана Кудрі вулиця","building":"yes","building:levels":"6","note":"Поява тріщин внаслідок будівництва поруч","source:abandoned":"rda","height":24},"geometry":{"type":"Polygon","coordinates":[[[30.5313738,50.4152701],[30.5315849,50.4149383],[30.5317529,50.4149817],[30.5315417,50.4153135],[30.5313738,50.4152701]]]}},{"type":"Feature","id":"way/45565573","properties":{"@id":"way/45565573","abandoned_building":"yes","addr:housenumber":"18","addr:street":"Іллінська вулиця","building":"yes","building:levels":"2","note":"Визнаний непридатним для проживання. Загальна площа 368,3 м2. Проживає 2 особи (Іллінська, 18А)","source:abandoned":"rda","height":8},"geometry":{"type":"Polygon","coordinates":[[[30.5236462,50.4657434],[30.5234698,50.4656381],[30.5236254,50.46554],[30.5237991,50.4656489],[30.5236462,50.4657434]]]}},{"type":"Feature","id":"way/45565577","properties":{"@id":"way/45565577","abandoned_building":"yes","addr:housenumber":"2/19","addr:street":"Волоська вулиця","building":"yes","note":"Незадовільний стан. Балансоутримувач — невідомий","source:abandoned":"rda","height":5},"geometry":{"type":"Polygon","coordinates":[[[30.5237713,50.4646433],[30.5238474,50.4645961],[30.5239635,50.4645242],[30.5245535,50.4645747],[30.5245182,50.4647032],[30.524282,50.4646918],[30.5237713,50.4646433]]]}},{"type":"Feature","id":"way/45565584","properties":{"@id":"way/45565584","abandoned_building":"yes","addr:housenumber":"5/14","addr:street":"Волоська вулиця","building":"yes","note":"Об'єкт культурної спадщини під загрозою знищення (аварійно-небезпечний стан)","source:abandoned":"rda","height":5},"geometry":{"type":"Polygon","coordinates":[[[30.5226602,50.4651029],[30.5223596,50.4649164],[30.522539,50.4647993],[30.5228395,50.4649858],[30.5226602,50.4651029]]]}},{"type":"Feature","id":"way/45565610","properties":{"@id":"way/45565610","abandoned_building":"yes","addr:housenumber":"20/2","addr:street":"Петра Сагайдачного вулиця","building":"commercial","building:levels":"2","description":"Будівля в незадовільному стані. Фасад завішений банером","source:abandoned":"rda","height":8},"geometry":{"type":"Polygon","coordinates":[[[30.5206472,50.4621983],[30.520453,50.4620855],[30.5209031,50.4617711],[30.521324,50.4620153],[30.5211871,50.4621109],[30.5209605,50.4619795],[30.5206472,50.4621983]]]}},{"type":"Feature","id":"way/45571581","properties":{"@id":"way/45571581","abandoned_building":"construction","addr:housenumber":"9","addr:street":"Набережно-Хрещатицька вулиця","building":"yes","description":"Житловий комплекс з громадськими приміщеннями","source:abandoned":"rda","height":5},"geometry":{"type":"Polygon","coordinates":[[[30.5247758,50.4627179],[30.5244424,50.4624957],[30.524427,50.4625067],[30.5243269,50.4624452],[30.5242319,50.4624917],[30.5241575,50.4624475],[30.5242721,50.4623738],[30.5247791,50.462058],[30.5250656,50.4620764],[30.5250095,50.4623164],[30.5248668,50.4627441],[30.5247584,50.4628142],[30.5246753,50.4627728],[30.5247758,50.4627179]]]}},{"type":"Feature","id":"way/45571605","properties":{"@id":"way/45571605","abandoned_building":"yes","addr:housenumber":"25г","addr:street":"Петра Сагайдачного вулиця","building":"yes","building:levels":"2","note":"Визнаний непридатним для проживання. Загальна площа 861 м2. Проживає 6 осіб","source:abandoned":"rda","height":8},"geometry":{"type":"Polygon","coordinates":[[[30.5218865,50.4603773],[30.5217399,50.4602723],[30.5220586,50.4600919],[30.5222052,50.4601969],[30.5218865,50.4603773]]]}},{"type":"Feature","id":"way/45588172","properties":{"@id":"way/45588172","abandoned_building":"yes","addr:housenumber":"5","addr:street":"Боричів узвіз","building":"yes","building:levels":"3","note":"Визнаний непридатним для проживання. Загальна площа 821,9 м2. Проживає 18 осіб","source:abandoned":"rda","height":12},"geometry":{"type":"Polygon","coordinates":[[[30.5232546,50.459165],[30.5231367,50.4590867],[30.5234351,50.4589045],[30.5235531,50.4589828],[30.5232546,50.459165]]]}},{"type":"Feature","id":"way/45588215","properties":{"@id":"way/45588215","abandoned_building":"yes","addr:housenumber":"1а","addr:street":"Фролівська вулиця","building":"yes","building:levels":"3","note":"Визнаний непридатним для проживання. Загальна площа 471 м2. Проживають 4 особи","source:abandoned":"rda","height":12},"geometry":{"type":"Polygon","coordinates":[[[30.5160937,50.4627345],[30.5159674,50.4626639],[30.5161929,50.4625004],[30.5163192,50.462571],[30.5160937,50.4627345]]]}},{"type":"Feature","id":"way/45588230","properties":{"@id":"way/45588230","abandoned_building":"yes","addr:housenumber":"2а","addr:street":"Андріївський узвіз","building":"yes","building:levels":"3","note":"Аварійно-небезпечний стан","source:abandoned":"rda","height":12},"geometry":{"type":"Polygon","coordinates":[[[30.5177482,50.4621337],[30.5178843,50.4622201],[30.5178997,50.4622601],[30.5178021,50.4624046],[30.5176809,50.4623551],[30.5177397,50.4622657],[30.5176445,50.4622053],[30.5177482,50.4621337]]]}},{"type":"Feature","id":"way/45593455","properties":{"@id":"way/45593455","abandoned_building":"yes","addr:housenumber":"17б","addr:street":"Велика Васильківська вулиця","building":"yes","fixme":"пофіксити контури будинка","note":"Аварійний стан","source:abandoned":"rda","height":5},"geometry":{"type":"Polygon","coordinates":[[[30.5190236,50.4394943],[30.5188919,50.4394346],[30.5186751,50.4393351],[30.5186979,50.4393151],[30.5187564,50.4392631],[30.5190122,50.4393802],[30.519088,50.439313],[30.5191732,50.439352],[30.5191224,50.439397],[30.5193331,50.4394935],[30.5192651,50.4395538],[30.5192304,50.4395379],[30.5191921,50.4395717],[30.5191609,50.4395574],[30.5190236,50.4394943]]]}},{"type":"Feature","id":"way/45600751","properties":{"@id":"way/45600751","abandoned_building":"yes","addr:housenumber":"34","addr:street":"Велика Васильківська вулиця","building":"yes","description":"Будівля в аварійному стані","fixme":"перевірити, чи це тесаме, що \"34Б\"","source:abandoned":"rda","height":5},"geometry":{"type":"Polygon","coordinates":[[[30.5158239,50.4381137],[30.5155952,50.4381145],[30.5155948,50.4380793],[30.5154596,50.4380798],[30.5154584,50.437953],[30.5155834,50.4379526],[30.5155832,50.4379323],[30.5158223,50.4379315],[30.5158226,50.4379604],[30.5158235,50.4380674],[30.5158239,50.4381137]]]}},{"type":"Feature","id":"way/45892030","properties":{"@id":"way/45892030","abandoned_building":"yes","addr:housenumber":"15","addr:street":"Буслівська вулиця","building":"yes","description":"Колишній гуртожиток","note":"Відселений гуртожиток, тривають роботи по знесенню","source:abandoned":"rda","height":5},"geometry":{"type":"Polygon","coordinates":[[[30.5572255,50.407093],[30.5572944,50.4066965],[30.5574923,50.4067105],[30.5574234,50.407107],[30.5572255,50.407093]]]}},{"type":"Feature","id":"way/46915481","properties":{"@id":"way/46915481","abandoned_building":"yes","addr:housenumber":"24","addr:street":"Предславинська вулиця","building":"yes","building:levels":"4","note":"Незадовільний стан. Поява тріщин через проведення підготовчих робіт на прилеглому будівельному майданчику та розкриття тріщин через порив труб теплопостачання у 2009 році","source:abandoned":"rda","height":16},"geometry":{"type":"Polygon","coordinates":[[[30.5206314,50.4246141],[30.520511,50.4247944],[30.5203152,50.4247414],[30.5204356,50.424561],[30.5205456,50.4245908],[30.5206314,50.4246141]]]}},{"type":"Feature","id":"way/47172529","properties":{"@id":"way/47172529","abandoned_building":"yes","addr:housenumber":"19в","addr:street":"Лютеранська вулиця","building":"yes","description":"Незадовільний санітарно-технічний стан будинку. Більше 8 років забиті вікна і двері","source:abandoned":"rda","height":5},"geometry":{"type":"Polygon","coordinates":[[[30.5263989,50.4450852],[30.5265356,50.4449901],[30.5268126,50.4451515],[30.5266759,50.4452466],[30.5263989,50.4450852]]]}},{"type":"Feature","id":"way/47172532","properties":{"@id":"way/47172532","addr:city":"Київ","addr:housenumber":"20","addr:postcode":"01024","addr:street":"Лютеранська вулиця","building":"yes","description":"Пам'ятка архітектури в незадовільному санітарно-технічному стані","source:abandoned":"rda","height":5},"geometry":{"type":"Polygon","coordinates":[[[30.5258207,50.4441286],[30.5258718,50.4440894],[30.5260975,50.4439164],[30.5264355,50.4440952],[30.5261587,50.4443074],[30.5258207,50.4441286]]]}},{"type":"Feature","id":"way/47905319","properties":{"@id":"way/47905319","abandoned_building":"yes","addr:housenumber":"19","addr:street":"Турівська вулиця","building":"yes","building:levels":"5","note":"Визнаний непридатним для проживання. Загальна площа 2006,1 м2. Проживає 84 особи","source:abandoned":"rda","height":20},"geometry":{"type":"Polygon","coordinates":[[[30.5119636,50.4741299],[30.5119643,50.4740019],[30.512533,50.4740031],[30.5125323,50.4741311],[30.5119636,50.4741299]]]}},{"type":"Feature","id":"way/48226983","properties":{"@id":"way/48226983","abandoned_building":"yes","addr:housenumber":"49","addr:street":"Олени Теліги вулиця","building":"yes","building:levels":"5","description":"Житловий будинок, визнаний непридатним для проживання. Загальна площа 3389,8 м2. Проживає 262 особи","source:abandoned":"rda","height":20},"geometry":{"type":"Polygon","coordinates":[[[30.455791,50.4828322],[30.4561279,50.4823915],[30.4563233,50.482452],[30.4559864,50.4828926],[30.455791,50.4828322]]]}},{"type":"Feature","id":"way/48586016","properties":{"@id":"way/48586016","abandoned_building":"yes","addr:city":"Київ","addr:housenumber":"17","addr:street":"Івана Франка вулиця","building":"yes","description":"Житловий будинок із офісно-торговельними приміщеннями. Довгобуд. Частково виконані роботи з реконструкції","source:abandoned":"rda","height":5},"geometry":{"type":"Polygon","coordinates":[[[30.5096407,50.4484741],[30.5095448,50.4482294],[30.5097689,50.4481932],[30.5098695,50.4484379],[30.5096407,50.4484741]]]}},{"type":"Feature","id":"way/49837255","properties":{"@id":"way/49837255","abandoned_building":"yes","addr:housenumber":"16","addr:street":"Тверська вулиця","building":"yes","building:levels":"5","note":"Візуально перебуває в аварійному стані, однак відсутні розпорядчі документи чи рішення щодо будинку. Проживає 65 осіб","source:abandoned":"rda","height":20},"geometry":{"type":"Polygon","coordinates":[[[30.517871,50.4184077],[30.5179412,50.4183032],[30.5184388,50.4184389],[30.5183686,50.4185434],[30.517871,50.4184077]]]}},{"type":"Feature","id":"way/50807407","properties":{"@id":"way/50807407","abandoned_building":"yes","addr:housenumber":"32","addr:street":"Лютеранська вулиця","building":"yes","note":"Пам'ятка архітектури в аварійному стані. Більше 15 років не проводиться реконструкція (Лютеранська, 32а)","source:abandoned":"rda","height":5},"geometry":{"type":"Polygon","coordinates":[[[30.5291915,50.4423969],[30.5288202,50.4426063],[30.5287128,50.4425291],[30.5286472,50.4424819],[30.5287388,50.4424302],[30.5286588,50.4423728],[30.5287818,50.4423035],[30.528858,50.4423583],[30.5290149,50.4422699],[30.5290619,50.4423037],[30.5291915,50.4423969]]]}},{"type":"Feature","id":"way/50807415","properties":{"@id":"way/50807415","abandoned_building":"yes","addr:housenumber":"34б","addr:street":"Шовковична вулиця","building":"yes","note":"Будинок тривалий час не використовується","source:abandoned":"rda","height":5},"geometry":{"type":"Polygon","coordinates":[[[30.528313,50.4422245],[30.5286505,50.4420272],[30.5288121,50.4421394],[30.5284746,50.4423367],[30.528313,50.4422245]]]}},{"type":"Feature","id":"way/50988894","properties":{"@id":"way/50988894","abandoned_building":"yes","addr:housenumber":"14","addr:street":"Антоновича вулиця","building":"yes","building:levels":"4","note":"Підпірна стінка будинку в аварійному стані","source:abandoned":"rda","height":16},"geometry":{"type":"Polygon","coordinates":[[[30.5132273,50.438048],[30.5132244,50.4376432],[30.5134211,50.4376427],[30.5134208,50.4376734],[30.5134234,50.4379697],[30.5134241,50.4380475],[30.5132273,50.438048]]]}},{"type":"Feature","id":"way/52153278","properties":{"@id":"way/52153278","abandoned_building":"construction","addr:housenumber":"81а","addr:street":"Івана Лепсе бульвар","building":"ruins","building:levels":"3","construction":"kindergarten","material":"brick","note":"Довгобуд, будівельна готовність 30%","source:abandoned":"rda","height":12},"geometry":{"type":"Polygon","coordinates":[[[30.4193735,50.4280493],[30.4191822,50.4279297],[30.4192497,50.4278859],[30.4192185,50.4278664],[30.4193032,50.4278114],[30.4193542,50.4278433],[30.4194253,50.4277971],[30.41922,50.4276688],[30.4193311,50.4275967],[30.4195364,50.427725],[30.4196042,50.427681],[30.4195739,50.427662],[30.4197035,50.4275779],[30.419904,50.4277033],[30.4198407,50.4277443],[30.4198594,50.427756],[30.4197931,50.4277991],[30.4197449,50.4277689],[30.419677,50.4278129],[30.4198391,50.4279142],[30.419728,50.4279863],[30.4195659,50.427885],[30.4194949,50.4279312],[30.4195505,50.427966],[30.4194658,50.428021],[30.419441,50.4280055],[30.4193735,50.4280493]]]}},{"type":"Feature","id":"way/53193750","properties":{"@id":"way/53193750","abandoned_building":"yes","addr:housenumber":"43а","addr:street":"Саксаганського вулиця","building":"yes","building:levels":"4","note":"Візуально перебуває в аварійному стані, однак відсутні розпорядчі документи чи рішення щодо будинку. Проживає 20 осіб","source:abandoned":"rda","height":16},"geometry":{"type":"Polygon","coordinates":[[[30.510933,50.4358007],[30.5109315,50.4356654],[30.5113715,50.4356635],[30.5113729,50.4357989],[30.510933,50.4358007]]]}},{"type":"Feature","id":"way/55422474","properties":{"@id":"way/55422474","abandoned_building":"yes","addr:housenumber":"87/89","addr:street":"Кирилівська вулиця","building":"yes","building:levels":"4","description":"Спеціалізована школа №114","name":"Спеціалізована школа №114","note":"В аварійному стані","source:abandoned":"rda","height":16},"geometry":{"type":"Polygon","coordinates":[[[30.4789757,50.4802667],[30.4786909,50.480138],[30.4788109,50.4800305],[30.4789104,50.4800755],[30.4790277,50.4799704],[30.4789597,50.4799396],[30.4790564,50.479853],[30.4793097,50.4799675],[30.4789757,50.4802667]]]}},{"type":"Feature","id":"way/62805193","properties":{"@id":"way/62805193","abandoned_building":"construction","addr:housenumber":"5","addr:street":"Інститутська вулиця","landuse":"construction","note":"Довгобуд. На території вирито котлован","source:abandoned":"rda","height":5},"geometry":{"type":"Polygon","coordinates":[[[30.5286128,50.4487998],[30.5290521,50.4483276],[30.5291395,50.4482545],[30.5292369,50.4481989],[30.5296738,50.4480447],[30.5299184,50.4483133],[30.5295392,50.448457],[30.5294623,50.4485044],[30.5294066,50.4485629],[30.5290399,50.4489562],[30.5286128,50.4487998]]]}},{"type":"Feature","id":"way/63112443","properties":{"@id":"way/63112443","abandoned_building":"yes","addr:housenumber":"20б","addr:street":"Мала Житомирська вулиця","building":"yes","building:levels":"4","note":"Аварійна будівля. Проведено реконструкцію власникам квартир (Мала Житомирська, 20б)","source:abandoned":"rda","height":16},"geometry":{"type":"Polygon","coordinates":[[[30.5198302,50.454024],[30.5199387,50.4539102],[30.5202176,50.454018],[30.5202024,50.4540355],[30.5201086,50.4541315],[30.5198302,50.454024]]]}},{"type":"Feature","id":"way/75732708","properties":{"@id":"way/75732708","abandoned_building":"construction","landuse":"construction","note":"Територія під знесеними будинками 35 і 37 в незадовільному санітарному стані","source:abandoned":"rda","height":5},"geometry":{"type":"Polygon","coordinates":[[[30.5163417,50.4377298],[30.5163501,50.4371591],[30.5171765,50.437164],[30.5171682,50.4377347],[30.5163417,50.4377298]]]}},{"type":"Feature","id":"way/81034656","properties":{"@id":"way/81034656","abandoned_building":"construction","addr:housenumber":"26","addr:street":"Машинобудівний провулок","building":"yes","description":"Житлово-офісний комплекс","source:abandoned":"rda","height":5},"geometry":{"type":"Polygon","coordinates":[[[30.4354724,50.449089],[30.4354279,50.4489714],[30.4358553,50.4489057],[30.4358998,50.4490233],[30.4354724,50.449089]]]}},{"type":"Feature","id":"way/98996589","properties":{"@id":"way/98996589","abandoned_building":"yes","access":"private","addr:housenumber":"2","addr:street":"Тимофія Шамрила вулиця","building":"yes","description":"Будівля в аварійному стані","description_1":"Занедбана будівля басейну «Чайка»","disused:leisure":"swimming_pool","disused:sport":"swimming","historic":"ruins","name":"Занедбана будівля басейну «Чайка»","source:abandoned":"rda","height":5},"geometry":{"type":"Polygon","coordinates":[[[30.4419352,50.4690442],[30.4417699,50.4687897],[30.4421555,50.4686882],[30.4423208,50.4689427],[30.4419352,50.4690442]]]}},{"type":"Feature","id":"way/99204505","properties":{"@id":"way/99204505","abandoned_building":"yes","addr:housenumber":"132","addr:street":"Академіка Заболотного вулиця","building":"yes","building:levels":"3","note":"Візуально перебуває в аварійному стані, однак відсутні розпорядчі документи чи рішення щодо будинку. Мешканці відселені. Потребує капремонту","source:abandoned":"rda","height":12},"geometry":{"type":"Polygon","coordinates":[[[30.4710537,50.3599595],[30.4713863,50.3595967],[30.4715687,50.3596651],[30.4712146,50.3600211],[30.4710537,50.3599595]]]}},{"type":"Feature","id":"way/99980333","properties":{"@id":"way/99980333","abandoned_building":"yes","addr:housenumber":"21/2","addr:street":"Празька вулиця","building":"apartments","building:levels":"9","note":"Незадовільний санітарно-технічний стан","source:abandoned":"rda","height":36},"geometry":{"type":"Polygon","coordinates":[[[30.6406271,50.4403802],[30.6408068,50.4401481],[30.6408891,50.4401739],[30.6410648,50.4399469],[30.6411459,50.4399723],[30.6412908,50.4397851],[30.6413448,50.4398021],[30.6414728,50.4396367],[30.6416465,50.4396913],[30.6414942,50.439888],[30.6414235,50.4398658],[30.6412543,50.4400844],[30.6411752,50.4400596],[30.6410106,50.4402723],[30.6409183,50.4402433],[30.6407761,50.440427],[30.6406271,50.4403802]]]}},{"type":"Feature","id":"way/100113775","properties":{"@id":"way/100113775","abandoned_building":"yes","building":"yes","building:levels":"4","note":"Несучі та огороджувальні конструкції — у ветхому (аварійному) стані","source:abandoned":"rda","height":16},"geometry":{"type":"Polygon","coordinates":[[[30.5899394,50.4633152],[30.5900704,50.4630418],[30.5902961,50.4630856],[30.5901652,50.463359],[30.5899394,50.4633152]]]}},{"type":"Feature","id":"way/100224765","properties":{"@id":"way/100224765","abandoned_building":"yes","addr:housenumber":"58","addr:street":"Данила Щербаківського вулиця","building":"yes","description":"Колишній кінотеатр «Нивки»","source:abandoned":"rda","height":5},"geometry":{"type":"Polygon","coordinates":[[[30.4066407,50.4737572],[30.4066407,50.4735289],[30.4073945,50.4735289],[30.4073945,50.4737572],[30.4066407,50.4737572]]]}},{"type":"Feature","id":"way/100224861","properties":{"@id":"way/100224861","abandoned_building":"yes","addr:housenumber":"18","addr:street":"Докучаєвська вулиця","building":"house","building:levels":"2","note":"Будівля в аварійному стані","source:abandoned":"rda","height":8},"geometry":{"type":"Polygon","coordinates":[[[30.4984442,50.4265667],[30.4981585,50.4264559],[30.4982854,50.4263231],[30.4985711,50.4264339],[30.4984442,50.4265667]]]}},{"type":"Feature","id":"way/100506864","properties":{"@id":"way/100506864","abandoned_building":"yes","addr:housenumber":"1","addr:postcode":"03118","addr:street":"Кустанайська вулиця","building":"yes","note":"Візуально перебуває в аварійному стані, однак відсутні розпорядчі документи чи рішення щодо будинку. Проживає 115 осіб","source:abandoned":"rda","height":5},"geometry":{"type":"Polygon","coordinates":[[[30.5027205,50.4061281],[30.5027155,50.4059896],[30.5034615,50.4059787],[30.5034665,50.4061172],[30.5027205,50.4061281]]]}},{"type":"Feature","id":"way/100738726","properties":{"@id":"way/100738726","abandoned_building":"yes","addr:housenumber":"9","addr:street":"Відпочинку вулиця","building":"apartments","building:levels":"2","building:material":"brick","height":8,"note":"Будівля в аварійному стані. 76% зносу. Проживають 59 осіб","source:abandoned":"rda"},"geometry":{"type":"Polygon","coordinates":[[[30.3801485,50.4510294],[30.3802447,50.4505352],[30.3804074,50.4505481],[30.3803112,50.4510422],[30.3801485,50.4510294]]]}},{"type":"Feature","id":"way/100739146","properties":{"@id":"way/100739146","abandoned_building":"yes","addr:housenumber":"103а","addr:street":"Проспект Перемоги","building":"apartments","building:levels":"4","building:material":"brick","note":"Будівля в аварійному стані. 64% зносу. Проживають 77 осіб","source:abandoned":"rda","height":16},"geometry":{"type":"Polygon","coordinates":[[[30.3775208,50.4558399],[30.3775384,50.4557295],[30.3779241,50.4557544],[30.3779065,50.4558649],[30.3775208,50.4558399]]]}},{"type":"Feature","id":"way/101513968","properties":{"@id":"way/101513968","abandoned_building":"yes","addr:housenumber":"14а","addr:postcode":"02094","addr:street":"Мініна вулиця","building":"yes","note":"У незадовільному санітарно-технічному стані, підлягає знесенню, а мешканці — відселенню","source:abandoned":"rda","height":5},"geometry":{"type":"Polygon","coordinates":[[[30.6272233,50.4552798],[30.6274634,50.4549378],[30.6275327,50.4549576],[30.6275128,50.4549859],[30.6276474,50.4550242],[30.6274479,50.4553083],[30.627302,50.4552668],[30.6272813,50.4552963],[30.6272233,50.4552798]]]}},{"type":"Feature","id":"way/101513970","properties":{"@id":"way/101513970","abandoned_building":"yes","addr:housenumber":"13","addr:postcode":"02094","addr:street":"Миколи Лебедєва вулиця","building":"yes","note":"У незадовільному санітарно-технічному стані, підлягають знесенню, а мешканці — відселенню","source:abandoned":"rda","height":5},"geometry":{"type":"Polygon","coordinates":[[[30.6278266,50.4554138],[30.6279996,50.455127],[30.6282072,50.4551777],[30.6280343,50.4554646],[30.6278266,50.4554138]]]}},{"type":"Feature","id":"way/102263533","properties":{"@id":"way/102263533","abandoned_building":"construction","addr:housenumber":"2/10","addr:street":"Мельникова вулиця","building":"yes","description":"Будівництво адміністративної будівлі. Довгобуд","source:abandoned":"rda","height":5},"geometry":{"type":"Polygon","coordinates":[[[30.4824945,50.4627557],[30.4825938,50.4627728],[30.4826607,50.4628386],[30.4826626,50.462894],[30.4826318,50.4629263],[30.4827086,50.4630395],[30.4822174,50.4632953],[30.482263,50.4633339],[30.4822311,50.4633505],[30.4822471,50.4633824],[30.4821345,50.4634348],[30.4821151,50.4634079],[30.4818361,50.4635329],[30.4818889,50.463582],[30.4817454,50.4636487],[30.4815951,50.4635294],[30.4815169,50.4634438],[30.4817801,50.463352],[30.4824945,50.4627557]]]}},{"type":"Feature","id":"way/102545719","properties":{"@id":"way/102545719","abandoned_building":"construction","landuse":"construction","note":"Будівля в аварійному стані. Непридатний для проживання","source:abandoned":"rda","height":5},"geometry":{"type":"Polygon","coordinates":[[[30.4909118,50.4691593],[30.4912133,50.4693349],[30.4908906,50.4695446],[30.4906024,50.4693638],[30.4909118,50.4691593]]]}},{"type":"Feature","id":"way/103576817","properties":{"@id":"way/103576817","abandoned_building":"construction","addr:housenumber":"4а","addr:street":"Сім’ї Сосніних вулиця","building":"yes","description":"Будівництво багатоповерхового житлового комплексу. Мав бути введений в експлуатацію ще у 2006 році. Будівництво будинку було розпочато у 2004 році","disused":"yes","source:abandoned":"rda","height":5},"geometry":{"type":"Polygon","coordinates":[[[30.3939833,50.4252496],[30.3937578,50.4252242],[30.3937888,50.4250686],[30.3939812,50.4250865],[30.3940938,50.4250466],[30.3942093,50.4249736],[30.3943873,50.4250894],[30.3942756,50.4251612],[30.3942558,50.4252579],[30.3942784,50.4253622],[30.3940307,50.4253932],[30.3939833,50.4252496]]]}},{"type":"Feature","id":"way/103576820","properties":{"@id":"way/103576820","abandoned_building":"construction","addr:housenumber":"4а/2","addr:street":"Сім’ї Сосніних вулиця","building":"yes","description":"Будівництво багатоповерхового житлового комплексу. Мав бути введений в експлуатацію ще у 2006 році. Будівництво будинку було розпочато у 2004 році","disused":"yes","source:abandoned":"rda","height":5},"geometry":{"type":"Polygon","coordinates":[[[30.3932237,50.4235855],[30.393091,50.4237044],[30.392967,50.4236828],[30.3928836,50.4236198],[30.3929914,50.4235168],[30.3929967,50.4234446],[30.3929393,50.4233661],[30.3930361,50.4233039],[30.3931782,50.4233089],[30.3932237,50.4233794],[30.3933439,50.4234451],[30.3935099,50.4234639],[30.3935162,50.4235529],[30.3934476,50.4236198],[30.3932237,50.4235855]]]}},{"type":"Feature","id":"way/103576821","properties":{"@id":"way/103576821","abandoned_building":"construction","addr:housenumber":"4а/1","addr:street":"Сім’ї Сосніних вулиця","building":"yes","description":"Будівництво багатоповерхового житлового комплексу. Мав бути введений в експлуатацію ще у 2006 році. Будівництво будинку було розпочато у 2004 році","disused":"yes","source:abandoned":"rda","height":5},"geometry":{"type":"Polygon","coordinates":[[[30.3933966,50.4240688],[30.3935175,50.4240242],[30.3936292,50.4239525],[30.3936848,50.4239776],[30.393756,50.4239776],[30.3937668,50.4240236],[30.3938104,50.4240618],[30.3936478,50.4241762],[30.3937732,50.4244001],[30.3939036,50.4244716],[30.3940654,50.4244875],[30.3940503,50.424547],[30.3940751,50.4245765],[30.3940298,50.424593],[30.3940115,50.4246486],[30.3937917,50.4246116],[30.3936483,50.4247298],[30.3935824,50.4247009],[30.3935134,50.424705],[30.3935069,50.4246672],[30.393449,50.4246328],[30.3935345,50.4245588],[30.3935636,50.4244558],[30.3934433,50.4242232],[30.3932127,50.4242194],[30.3932093,50.4241809],[30.393177,50.4241342],[30.3932234,50.4240984],[30.3932324,50.4240638],[30.3933966,50.4240688]]]}},{"type":"Feature","id":"way/103928184","properties":{"@id":"way/103928184","abandoned_building":"yes","addr:housenumber":"9","addr:street":"Генерала Родимцева вулиця","building":"yes","building:levels":"5","height":20,"note":"Візуально перебуває в аварійному стані, однак відсутні розпорядчі документи чи рішення щодо будинку. Проживає 93 особи","source:abandoned":"rda"},"geometry":{"type":"Polygon","coordinates":[[[30.5091691,50.386493],[30.5091836,50.3863714],[30.5102079,50.3864209],[30.5101935,50.3865424],[30.5091691,50.386493]]]}},{"type":"Feature","id":"way/107096690","properties":{"@id":"way/107096690","abandoned_building":"yes","addr:housenumber":"115","addr:street":"Алма-Атинська вулиця","building":"collapsed","description":"Філія Дарницького вагоно-ремонтного заводу","note":"Незадовільний санітарно-технічний стан (обвалилися перекриття)","source:abandoned":"rda","height":5},"geometry":{"type":"Polygon","coordinates":[[[30.6851535,50.4538262],[30.6844757,50.453549],[30.6845913,50.4534344],[30.6852691,50.4537116],[30.6851535,50.4538262]]]}},{"type":"Feature","id":"way/107098648","properties":{"@id":"way/107098648","abandoned_building":"yes","addr:housenumber":"30а","addr:street":"Вадима Гетьмана вулиця","building":"apartments","building:levels":"3","note":"Будівля в аварійному стані ","roof:shape":"hipped","source:abandoned":"rda","height":12},"geometry":{"type":"Polygon","coordinates":[[[30.4408644,50.4452959],[30.4407466,50.4450217],[30.4409892,50.4449794],[30.4410192,50.4450492],[30.4409945,50.4450535],[30.4410506,50.4451841],[30.4410753,50.4451798],[30.441107,50.4452537],[30.4408644,50.4452959]]]}},{"type":"Feature","id":"way/107484405","properties":{"@id":"way/107484405","abandoned_building":"yes","addr:housenumber":"87/89","addr:street":"Кирилівська вулиця","building":"yes","note":"В аварійномустані","source:abandoned":"rda","height":5},"geometry":{"type":"Polygon","coordinates":[[[30.4790564,50.479853],[30.4789597,50.4799396],[30.4788466,50.4798897],[30.478749,50.4799749],[30.4786242,50.479917],[30.4788224,50.479744],[30.4790564,50.479853]]]}},{"type":"Feature","id":"way/108020400","properties":{"@id":"way/108020400","abandoned_building":"yes","addr:housenumber":"18","addr:street":"Новикова-Прибоя вулиця","building":"yes","building:levels":"2","note":"Непридатний для проживання. Проживають 16 осіб. Підлягають відселенню","source:abandoned":"rda","height":8},"geometry":{"type":"Polygon","coordinates":[[[30.3595703,50.5305549],[30.3592106,50.5303639],[30.3594734,50.5301639],[30.3595628,50.5302113],[30.3594944,50.5302634],[30.3597646,50.5304069],[30.3595703,50.5305549]]]}},{"type":"Feature","id":"way/108216054","properties":{"@id":"way/108216054","abandoned_building":"yes","addr:housenumber":"11","addr:postcode":"02094","addr:street":"Миколи Лебедєва вулиця","building":"yes","note":"У незадовільному санітарно-технічному стані, підлягає знесенню, а мешканці — відселенню","source:abandoned":"rda","height":5},"geometry":{"type":"Polygon","coordinates":[[[30.6285079,50.4552465],[30.6286421,50.4550627],[30.6288437,50.4551223],[30.6287096,50.4553062],[30.6285079,50.4552465]]]}},{"type":"Feature","id":"way/108216055","properties":{"@id":"way/108216055","abandoned_building":"yes","addr:housenumber":"10/33","addr:postcode":"02094","addr:street":"Мініна вулиця","building":"yes","note":"У незадовільному санітарно-технічному стані, підлягає знесенню, а мешканці — відселенню","source:abandoned":"rda","height":5},"geometry":{"type":"Polygon","coordinates":[[[30.627141,50.4544487],[30.6272873,50.454232],[30.6273674,50.4541134],[30.627482,50.4541448],[30.6279362,50.4542691],[30.6278347,50.4544195],[30.6276331,50.4543644],[30.6276559,50.4543306],[30.6274756,50.4542813],[30.6274024,50.4543897],[30.6274386,50.4543996],[30.6273642,50.4545098],[30.627141,50.4544487]]]}},{"type":"Feature","id":"way/108216059","properties":{"@id":"way/108216059","abandoned_building":"yes","addr:housenumber":"37/9","addr:postcode":"02094","addr:street":"Червоноткацька вулиця","building":"yes","note":"У незадовільному санітарно-технічному стані, підлягає знесенню, а мешканці — відселенню","source:abandoned":"rda","height":5},"geometry":{"type":"Polygon","coordinates":[[[30.6285418,50.4546102],[30.62863,50.454475],[30.6289615,50.4545627],[30.6291765,50.4546196],[30.6289577,50.4549547],[30.6287246,50.4548931],[30.6287994,50.4547784],[30.6288612,50.4547947],[30.6289316,50.4546869],[30.6287422,50.4546368],[30.6287275,50.4546593],[30.6285418,50.4546102]]]}},{"type":"Feature","id":"way/108357625","properties":{"@id":"way/108357625","abandoned_building":"yes","addr:housenumber":"32б","addr:postcode":"02094","addr:street":"Краківська вулиця","building":"yes","note":"У незадовільному санітарно-технічному стані, підлягає знесенню, а мешканці — відселенню","source:abandoned":"rda","height":5},"geometry":{"type":"Polygon","coordinates":[[[30.630552,50.4560582],[30.6306171,50.455968],[30.6311002,50.4561092],[30.6310351,50.4561994],[30.630552,50.4560582]]]}},{"type":"Feature","id":"way/108357640","properties":{"@id":"way/108357640","abandoned_building":"yes","addr:housenumber":"26/8","addr:postcode":"02094","addr:street":"Краківська вулиця","building":"yes","note":"У незадовільному санітарно-технічному стані, підлягає знесенню, а мешканці — відселенню","source:abandoned":"rda","height":5},"geometry":{"type":"Polygon","coordinates":[[[30.6286024,50.4560123],[30.6288004,50.456067],[30.6286871,50.4562332],[30.6289936,50.4563179],[30.6289116,50.4564382],[30.628407,50.4562986],[30.6286024,50.4560123]]]}},{"type":"Feature","id":"way/108357648","properties":{"@id":"way/108357648","abandoned_building":"yes","addr:housenumber":"32а","addr:postcode":"02094","addr:street":"Краківська вулиця","building":"yes","note":"У незадовільному санітарно-технічному стані, підлягає знесенню, а мешканці — відселенню","source:abandoned":"rda","height":5},"geometry":{"type":"Polygon","coordinates":[[[30.6303614,50.4563043],[30.6304358,50.4562005],[30.6309486,50.4563495],[30.6308741,50.4564533],[30.6303614,50.4563043]]]}},{"type":"Feature","id":"way/108357650","properties":{"@id":"way/108357650","abandoned_building":"yes","addr:housenumber":"28","addr:postcode":"02094","addr:street":"Краківська вулиця","building":"yes","building:levels":"2","note":"У незадовільному санітарно-технічному стані, підлягає знесенню, а мешканці — відселенню","source:abandoned":"rda","height":8},"geometry":{"type":"Polygon","coordinates":[[[30.6291182,50.4564952],[30.629198,50.4563799],[30.6294335,50.4564459],[30.6293537,50.4565613],[30.6291182,50.4564952]]]}},{"type":"Feature","id":"way/108514503","properties":{"@id":"way/108514503","abandoned_building":"yes","addr:housenumber":"38/16","addr:postcode":"02094","addr:street":"Попудренка вулиця","building":"yes","building:levels":"2","note":"У незадовільному санітарно-технічному стані, підлягає знесенню, а мешканці — відселенню","source:abandoned":"rda","height":8},"geometry":{"type":"Polygon","coordinates":[[[30.6275847,50.4584051],[30.6270768,50.4582636],[30.6272774,50.4579718],[30.6274551,50.4580213],[30.627334,50.4581975],[30.6274947,50.4582423],[30.627511,50.4582185],[30.6276449,50.4582558],[30.6275796,50.4583508],[30.6276152,50.4583607],[30.6275847,50.4584051]]]}},{"type":"Feature","id":"way/108520508","properties":{"@id":"way/108520508","abandoned_building":"yes","addr:housenumber":"8/29","addr:street":"Гната Хоткевича вулиця","building":"yes","building:levels":"2","note":"У незадовільному санітарно-технічному стані, підлягають знесенню, а мешканці — відселенню","source:abandoned":"rda","height":8},"geometry":{"type":"Polygon","coordinates":[[[30.6311257,50.4576123],[30.6312344,50.457452],[30.6309908,50.457385],[30.6310691,50.4572697],[30.6315058,50.4573898],[30.6313188,50.4576654],[30.6311257,50.4576123]]]}},{"type":"Feature","id":"way/108520552","properties":{"@id":"way/108520552","abandoned_building":"yes","addr:housenumber":"10/19","addr:postcode":"02094","addr:street":"Миколи Лебедєва вулиця","building":"yes","note":"У незадовільному санітарно-технічному стані, підлягають знесенню, а мешканці — відселенню","source:abandoned":"rda","height":5},"geometry":{"type":"Polygon","coordinates":[[[30.6281409,50.4567672],[30.6283262,50.4565008],[30.6287297,50.4566146],[30.6286416,50.4567413],[30.6284099,50.456676],[30.6283128,50.4568157],[30.6281409,50.4567672]]]}},{"type":"Feature","id":"way/108520566","properties":{"@id":"way/108520566","abandoned_building":"yes","addr:housenumber":"18","addr:postcode":"02094","addr:street":"Мініна вулиця","building":"yes","note":"У незадовільному санітарно-технічному стані, підлягає знесенню, а мешканці — відселенню","source:abandoned":"rda","height":5},"geometry":{"type":"Polygon","coordinates":[[[30.6256137,50.4569964],[30.6258566,50.4566859],[30.6260526,50.456748],[30.6258097,50.4570585],[30.6256137,50.4569964]]]}},{"type":"Feature","id":"way/108520572","properties":{"@id":"way/108520572","abandoned_building":"construction","barrier":"fence","landuse":"construction","note":"Довгобуд. Земельна ділянка огороджена парканом. Розроблено частину котловану. Будівельні роботи не здійснюються","source:abandoned":"rda","height":5},"geometry":{"type":"Polygon","coordinates":[[[30.6054349,50.4550642],[30.6059254,50.4545524],[30.6063779,50.4546798],[30.6070216,50.454871],[30.6066151,50.4554945],[30.6064554,50.4554229],[30.6063761,50.4554528],[30.6054349,50.4550642]]]}},{"type":"Feature","id":"way/109804655","properties":{"@id":"way/109804655","abandoned_building":"yes","addr:housenumber":"16а","addr:street":"Попудренка вулиця","building":"collapsed","building:levels":"2","note":"На земельній ділянці розміщена нежитлова будівля (колишній дошкільний навчальний заклад №216, який не використовується з 1994 року)","source:abandoned":"rda","height":8},"geometry":{"type":"Polygon","coordinates":[[[30.6135941,50.4536686],[30.61331,50.4535905],[30.6134809,50.4533386],[30.6137623,50.453416],[30.6137191,50.4534796],[30.6136549,50.453462],[30.613573,50.4535828],[30.6136399,50.4536012],[30.6135941,50.4536686]]]}},{"type":"Feature","id":"way/110682535","properties":{"@id":"way/110682535","abandoned_building":"yes","addr:housenumber":"6","addr:street":"Гната Хоткевича вулиця","building":"yes","building:levels":"2","note":"У незадовільному санітарно-технічному стані, підлягають знесенню, а мешканці — відселенню","source:abandoned":"rda","height":8},"geometry":{"type":"Polygon","coordinates":[[[30.630648,50.4580996],[30.6307199,50.4579889],[30.6308911,50.4580339],[30.631085,50.4577354],[30.6312397,50.4577761],[30.6309738,50.4581854],[30.630648,50.4580996]]]}},{"type":"Feature","id":"way/110682540","properties":{"@id":"way/110682540","abandoned_building":"yes","addr:housenumber":"4А","addr:street":"Гната Хоткевича вулиця","building":"yes","building:levels":"2","note":"У незадовільному санітарно-технічному стані, підлягають знесенню, а мешканці — відселенню","source:abandoned":"rda","height":8},"geometry":{"type":"Polygon","coordinates":[[[30.6303155,50.4583043],[30.6297896,50.4581638],[30.6298638,50.4580512],[30.6303897,50.4581918],[30.6303155,50.4583043]]]}},{"type":"Feature","id":"way/110682545","properties":{"@id":"way/110682545","abandoned_building":"yes","addr:housenumber":"4","addr:street":"Гната Хоткевича вулиця","building":"yes","building:levels":"2","note":"У незадовільному санітарно-технічному стані, підлягають знесенню, а мешканці — відселенню","source:abandoned":"rda","height":8},"geometry":{"type":"Polygon","coordinates":[[[30.6304389,50.4587104],[30.6306517,50.4583711],[30.6304933,50.4583308],[30.6305489,50.4582422],[30.630855,50.45832],[30.6305867,50.458748],[30.6304389,50.4587104]]]}},{"type":"Feature","id":"way/112475550","properties":{"@id":"way/112475550","abandoned_building":"yes","addr:housenumber":"8","addr:street":"Академіка Зелінського провулок","building":"apartments","building:levels":"4","note":"Визнаний непридатним для проживання. Загальна площа 891 м2. Проживає 24 особи","roof:shape":"hipped","source:abandoned":"rda","height":16},"geometry":{"type":"Polygon","coordinates":[[[30.5173205,50.4606567],[30.5171989,50.4605543],[30.5174565,50.4604304],[30.5175781,50.4605328],[30.5173205,50.4606567]]]}},{"type":"Feature","id":"way/112475551","properties":{"@id":"way/112475551","abandoned_building":"yes","addr:housenumber":"27","addr:street":"Боричів Тік вулиця","building":"yes","building:levels":"2","note":"Незадовільний стан. Балансоутримувач невідомий","source:abandoned":"rda","height":8},"geometry":{"type":"Polygon","coordinates":[[[30.5172831,50.4609639],[30.5171846,50.4608685],[30.5174059,50.4607759],[30.5175044,50.4608713],[30.5172831,50.4609639]]]}},{"type":"Feature","id":"way/112866078","properties":{"@id":"way/112866078","abandoned_building":"yes","addr:housenumber":"140-а","addr:street":"Валерія Лобановського проспект","building":"yes","description":"Визнаний непридатним для проживання","source:abandoned":"rda","height":5},"geometry":{"type":"Polygon","coordinates":[[[30.5061769,50.4067886],[30.506201,50.4065331],[30.5065571,50.4065467],[30.5065457,50.406667],[30.5063526,50.4066596],[30.5063398,50.4067949],[30.5061769,50.4067886]]]}},{"type":"Feature","id":"way/113141279","properties":{"@id":"way/113141279","abandoned_building":"yes","addr:housenumber":"9","addr:street":"Андріївський узвіз","building":"yes","building:levels":"3","note":"Аварійно-небезпечний стан","source:abandoned":"rda","height":12},"geometry":{"type":"Polygon","coordinates":[[[30.51566,50.4609296],[30.5153449,50.4608856],[30.5153849,50.4607696],[30.5157,50.4608136],[30.51566,50.4609296]]]}},{"type":"Feature","id":"way/113142892","properties":{"@id":"way/113142892","abandoned_building":"yes","addr:housenumber":"22а","addr:street":"Андріївський узвіз","building":"yes","note":"Визнаний непридатним для проживання","source:abandoned":"rda","height":5},"geometry":{"type":"Polygon","coordinates":[[[30.5148539,50.4599714],[30.514718,50.4598967],[30.5148349,50.4598105],[30.5149708,50.4598851],[30.5148539,50.4599714]]]}},{"type":"Feature","id":"way/113142893","properties":{"@id":"way/113142893","abandoned_building":"yes","addr:housenumber":"26","addr:street":"Андріївський узвіз","building":"yes","building:levels":"2","note":"Будинок в аварійно-небезпечному стані","source:abandoned":"rda","height":8},"geometry":{"type":"Polygon","coordinates":[[[30.5156502,50.4597513],[30.515655,50.4596223],[30.5156836,50.4596227],[30.515762,50.4596241],[30.5159071,50.4596263],[30.5159024,50.4597551],[30.5156502,50.4597513]]]}},{"type":"Feature","id":"way/113142895","properties":{"@id":"way/113142895","abandoned_building":"yes","addr:housenumber":"22б","addr:street":"Андріївський узвіз","building":"yes","note":"Визнаний непридатним для проживання","source:abandoned":"rda","height":5},"geometry":{"type":"Polygon","coordinates":[[[30.5145166,50.4601062],[30.5146965,50.4599379],[30.5148152,50.4599893],[30.5146352,50.4601576],[30.5145166,50.4601062]]]}},{"type":"Feature","id":"way/113143168","properties":{"@id":"way/113143168","abandoned_building":"yes","addr:housenumber":"18","addr:street":"Андріївський узвіз","building":"yes","building:levels":"2","note":"Незадовільний стан","source:abandoned":"rda","height":8},"geometry":{"type":"Polygon","coordinates":[[[30.5143611,50.4608162],[30.5142469,50.4607881],[30.5142061,50.460646],[30.5142551,50.4605785],[30.5143122,50.4605715],[30.5143721,50.4605975],[30.5144311,50.4607763],[30.5143611,50.4608162]]]}},{"type":"Feature","id":"way/113304724","properties":{"@id":"way/113304724","abandoned_building":"yes","addr:housenumber":"26","addr:street":"Велика Житомирська вулиця","building":"yes","note":"Аварійний будинок. Непридатний для проживання","source:abandoned":"rda","height":5},"geometry":{"type":"Polygon","coordinates":[[[30.5117211,50.4555085],[30.5117165,50.4555353],[30.5112354,50.4555016],[30.5112642,50.4553348],[30.5117784,50.4553708],[30.5117545,50.4555109],[30.5117211,50.4555085]]]}},{"type":"Feature","id":"way/113477492","properties":{"@id":"way/113477492","abandoned_building":"yes","addr:housenumber":"13","addr:street":"Велика Житомирська вулиця","building":"yes","building:levels":"4","note":"Аварійна будівля. Проведено реконструкцію власникам квартир, але поки що немає рішення РДА","source:abandoned":"rda","height":16},"geometry":{"type":"Polygon","coordinates":[[[30.5148614,50.4553265],[30.514453,50.4553338],[30.5144474,50.455206],[30.5145115,50.4552049],[30.514585,50.4552036],[30.5145826,50.4551501],[30.5147372,50.4551474],[30.5147392,50.4551919],[30.5148554,50.4551898],[30.5148614,50.4553265]]]}},{"type":"Feature","id":"way/113738848","properties":{"@id":"way/113738848","abandoned_building":"yes","addr:housenumber":"60б","addr:street":"Козацька вулиця","building":"yes","note":"Визнаний непридатним для проживання, підлягає знесенню","source:abandoned":"rda","height":5},"geometry":{"type":"Polygon","coordinates":[[[30.5042965,50.4041864],[30.5043013,50.4040745],[30.5047267,50.4040819],[30.5047218,50.4041939],[30.5042965,50.4041864]]]}},{"type":"Feature","id":"way/113835542","properties":{"@id":"way/113835542","abandoned_building":"construction","addr:housenumber":"4","addr:street":"Жилянська вулиця","amenity":"place_of_worship","building":"church","description":"Будівництво Свято-Троїцького храму (УПЦ)","source:abandoned":"rda","height":5},"geometry":{"type":"Polygon","coordinates":[[[30.5172915,50.4342633],[30.5172914,50.434085],[30.5180621,50.4340847],[30.5180623,50.434263],[30.5172915,50.4342633]]]}},{"type":"Feature","id":"way/113849510","properties":{"@id":"way/113849510","abandoned_building":"yes","addr:housenumber":"25А","addr:street":"Саксаганського вулиця","building":"yes","note":"Будинок в аварійному стані","source:abandoned":"rda","height":5},"geometry":{"type":"Polygon","coordinates":[[[30.5152181,50.4352388],[30.515412,50.4352376],[30.5154146,50.4353983],[30.515372,50.4353986],[30.5153712,50.4353537],[30.51522,50.4353547],[30.5152181,50.4352388]]]}},{"type":"Feature","id":"way/114428168","properties":{"@id":"way/114428168","abandoned_building":"yes","addr:housenumber":"4","addr:street":"Верхній Вал вулиця","building":"yes","building:levels":"3","note":"Незадовільний стан. Балансоутримувач невідомий. РДА пропонує огородити парканом і повернути у комунальну власність","source:abandoned":"rda","height":12},"geometry":{"type":"Polygon","coordinates":[[[30.5084343,50.4632497],[30.5080064,50.4629789],[30.5082021,50.46286],[30.5086333,50.4631246],[30.5084343,50.4632497]]]}},{"type":"Feature","id":"way/114585739","properties":{"@id":"way/114585739","abandoned_building":"yes","addr:housenumber":"4б","addr:street":"Михайла Грушевського вулиця","building":"yes","note":"Пам'ятка архітектури в аварійному стані. Розібрані вікна і двері. Мешканців відселено","source:abandoned":"rda","height":5},"geometry":{"type":"Polygon","coordinates":[[[30.5276682,50.4511985],[30.5275018,50.4510846],[30.5279071,50.4508446],[30.5281276,50.4509957],[30.5280405,50.4510472],[30.5279864,50.4510101],[30.5276682,50.4511985]]]}},{"type":"Feature","id":"way/114613678","properties":{"@id":"way/114613678","abandoned_building":"yes","addr:housenumber":"12а","addr:street":"Ігорівська вулиця","building":"apartments","building:levels":"2","note":"Визнаний непридатним для проживання. Загальна площа 619 м2. Проживає 18 осіб","source:abandoned":"rda","height":8},"geometry":{"type":"Polygon","coordinates":[[[30.5246286,50.460456],[30.524319,50.4606653],[30.5241992,50.4605934],[30.5244452,50.4604272],[30.5245088,50.4603842],[30.5246286,50.460456]]]}},{"type":"Feature","id":"way/115000717","properties":{"@id":"way/115000717","abandoned_building":"yes","addr:housenumber":"102а","addr:street":"Дмитрівська вулиця","building":"yes","building:levels":"3","note":"Будівля в аварійному стані. Непридатний для проживання (об'єкт культурної спадщини)","source:abandoned":"rda","height":12},"geometry":{"type":"Polygon","coordinates":[[[30.4870197,50.4566922],[30.4871062,50.4565042],[30.487318,50.4565403],[30.4872345,50.4567283],[30.4870197,50.4566922]]]}},{"type":"Feature","id":"way/115000718","properties":{"@id":"way/115000718","abandoned_building":"yes","addr:housenumber":"102б","addr:street":"Дмитрівська вулиця","building":"yes","building:levels":"4","note":"Будівля в аварійному стані. Непридатний для проживання","source:abandoned":"rda","height":16},"geometry":{"type":"Polygon","coordinates":[[[30.4876053,50.4567977],[30.4876815,50.4566266],[30.4878586,50.4566586],[30.4878324,50.4567176],[30.4878732,50.456725],[30.4878463,50.4567853],[30.4877866,50.4567745],[30.4877635,50.4568263],[30.4876053,50.4567977]]]}},{"type":"Feature","id":"way/115136729","properties":{"@id":"way/115136729","abandoned_building":"yes","addr:housenumber":"140","addr:street":"Валерія Лобановського проспект","building":"yes","description":"Визнаний непридатним для проживання","source:abandoned":"rda","height":5},"geometry":{"type":"Polygon","coordinates":[[[30.5062634,50.4073611],[30.5062688,50.4072521],[30.5062737,50.4071523],[30.5064728,50.4071563],[30.5064625,50.4073651],[30.5062634,50.4073611]]]}},{"type":"Feature","id":"way/115549664","properties":{"@id":"way/115549664","abandoned_building":"yes","addr:housenumber":"1","addr:street":"Набережно-Лугова вулиця","building":"apartments","building:levels":"5","note":"Визнаний непридатним для проживання. Загальна площа 2732,9 м2. Проживає 2 особи","source:abandoned":"rda","height":20},"geometry":{"type":"Polygon","coordinates":[[[30.5151475,50.4746297],[30.5150165,50.4745418],[30.5155039,50.4742474],[30.5156349,50.4743353],[30.5151475,50.4746297]]]}},{"type":"Feature","id":"way/115568495","properties":{"@id":"way/115568495","abandoned_building":"yes","addr:housenumber":"19/33","addr:street":"Щекавицька вулиця","building":"yes","building:height":"9","building:levels":"3","note":"Аварійно-небезпечний стан","source:abandoned":"rda","height":12},"geometry":{"type":"Polygon","coordinates":[[[30.5107595,50.4696997],[30.5106481,50.4696273],[30.5107723,50.4695496],[30.5106468,50.4694687],[30.5107615,50.4693926],[30.511002,50.4695413],[30.5107595,50.4696997]]]}},{"type":"Feature","id":"way/117341116","properties":{"@id":"way/117341116","abandoned_building":"construction","addr:housenumber":"35","addr:street":"Путивльська вулиця","amenity":"school","building":"yes","name":"Школа №23","name:ru":"Школа №23","note":"Реконструкція з добудовою СШ № 23","source:abandoned":"rda","height":5},"geometry":{"type":"Polygon","coordinates":[[[30.6691451,50.4738085],[30.6690115,50.47377],[30.6691376,50.4735922],[30.6696128,50.4737288],[30.6695411,50.4738299],[30.6696767,50.4738689],[30.6697511,50.4737642],[30.6702686,50.473913],[30.6700246,50.4742568],[30.6692564,50.474036],[30.6693661,50.4738815],[30.6693225,50.473869],[30.6693744,50.4737958],[30.6691914,50.4737432],[30.6691451,50.4738085]]]}},{"type":"Feature","id":"way/117341117","properties":{"@id":"way/117341117","abandoned_building":"construction","addr:housenumber":"35","addr:street":"Путивльська вулиця","amenity":"school","building":"yes","name":"Школа №23","name:ru":"Школа №23","note":"Реконструкція з добудовою СШ № 23","source:abandoned":"rda","height":5},"geometry":{"type":"Polygon","coordinates":[[[30.6690215,50.473982],[30.668315,50.4737747],[30.6685678,50.4734256],[30.6689921,50.4735501],[30.6689066,50.4736682],[30.6687307,50.4736166],[30.6686596,50.4737147],[30.6691177,50.4738491],[30.6690215,50.473982]]]}},{"type":"Feature","id":"way/118024609","properties":{"@id":"way/118024609","abandoned_building":"yes","addr:housenumber":"8","addr:street":"Василя Жуковського провулок","building":"yes","building:levels":"2","note":"Визнаний непридатним для проживання. Перебуває на обліку як безхазяйне нерухоме майно. Балансоутримувач відсутній. Проживають 33 особи","source:abandoned":"rda","height":8},"geometry":{"type":"Polygon","coordinates":[[[30.4952973,50.3918434],[30.495184,50.3918235],[30.4952076,50.3917691],[30.4952411,50.3916919],[30.4952688,50.3916281],[30.4953821,50.391648],[30.4952973,50.3918434]]]}},{"type":"Feature","id":"way/120030842","properties":{"@id":"way/120030842","abandoned_building":"yes","addr:housenumber":"36/16","addr:street":"Тараса Шевченка бульвар","building":"yes","building:levels":"4","note":"Будівля в аварійному стані. Непридатний для проживання","source:abandoned":"rda","height":16},"geometry":{"type":"Polygon","coordinates":[[[30.5026398,50.4456305],[30.5026265,50.4455972],[30.5022678,50.4456554],[30.5022043,50.4454968],[30.5021999,50.4454857],[30.5022682,50.4454747],[30.5022724,50.4454853],[30.5024205,50.4454613],[30.5024121,50.4454404],[30.5025379,50.44542],[30.502546,50.4454402],[30.5027261,50.445411],[30.5027222,50.4454011],[30.5027953,50.4453893],[30.502799,50.4453986],[30.5028764,50.4455921],[30.5026398,50.4456305]]]}},{"type":"Feature","id":"way/120124583","properties":{"@id":"way/120124583","abandoned_building":"yes","addr:housenumber":"61","addr:street":"Мельникова вулиця","building":"yes","building:levels":"3","note":"Аварійна будівля. Після реконструкції, але немає рішення РДА","source:abandoned":"rda","height":12},"geometry":{"type":"Polygon","coordinates":[[[30.4741409,50.4661767],[30.4743743,50.4660709],[30.4744713,50.4661577],[30.4742379,50.4662634],[30.4741409,50.4661767]]]}},{"type":"Feature","id":"way/121111350","properties":{"@id":"way/121111350","abandoned_building":"yes","addr:housenumber":"12/21","addr:street":"Ярославська вулиця","building":"yes","building:height":"6","building:levels":"2","note":"Визнаний непридатним для проживання. Загальна площа 1412 м2. Проживає 18 осіб (Костянтинівська, 21А)","source:abandoned":"rda","height":8},"geometry":{"type":"Polygon","coordinates":[[[30.5111093,50.4672887],[30.5109218,50.4671674],[30.5110238,50.4671051],[30.511083,50.4671438],[30.5111935,50.4670737],[30.5113205,50.4671549],[30.5111093,50.4672887]]]}},{"type":"Feature","id":"way/123862217","properties":{"@id":"way/123862217","abandoned_building":"construction","addr:housenumber":"55б","addr:street":"Олеся Гончара вулиця","building":"construction","note":"реставрація адміністративної будівлі Інституту геологічних наук НАН України","source:abandoned":"rda","height":5},"geometry":{"type":"Polygon","coordinates":[[[30.5014312,50.4490801],[30.5016598,50.4489457],[30.5020486,50.4492137],[30.5018922,50.4493056],[30.5017341,50.4491966],[30.5016618,50.4492392],[30.5014312,50.4490801]]]}},{"type":"Feature","id":"way/127004004","properties":{"@id":"way/127004004","abandoned_building":"yes","addr:housenumber":"36б","addr:street":"Олеся Гончара вулиця","building":"yes","note":"Будівля в аварійному стані. Непридатний для проживання","source:abandoned":"rda","height":5},"geometry":{"type":"Polygon","coordinates":[[[30.5049121,50.4512329],[30.5050019,50.4511171],[30.5053095,50.4512138],[30.5052197,50.4513297],[30.5049121,50.4512329]]]}},{"type":"Feature","id":"way/129808919","properties":{"@id":"way/129808919","abandoned_building":"yes","addr:housenumber":"19Б","addr:street":"Дмитрівська вулиця","building":"residential","building:levels":"4","description":"Будівля в аварійному стані. Непридатний для проживання","source:abandoned":"rda","height":16},"geometry":{"type":"Polygon","coordinates":[[[30.4908098,50.4501004],[30.4906408,50.4502418],[30.490487,50.4501673],[30.4906561,50.4500259],[30.4908098,50.4501004]]]}},{"type":"Feature","id":"way/129808920","properties":{"@id":"way/129808920","abandoned_building":"yes","addr:housenumber":"19А","addr:street":"Дмитрівська вулиця","building":"yes","building:levels":"3","description":"Будівля в аварійному стані. Непридатний для проживання","source:abandoned":"rda","height":12},"geometry":{"type":"Polygon","coordinates":[[[30.4906408,50.4502418],[30.4904415,50.4504088],[30.490288,50.450333],[30.490487,50.4501673],[30.4906408,50.4502418]]]}},{"type":"Feature","id":"way/129808929","properties":{"@id":"way/129808929","abandoned_building":"yes","addr:housenumber":"29а","addr:street":"Дмитрівська вулиця","building":"yes","note":"чи це те саме, що 23-Б? Будівля в аварійному стані. Непридатний для проживання","source:abandoned":"rda","height":5},"geometry":{"type":"Polygon","coordinates":[[[30.4890965,50.4509639],[30.4891818,50.4508937],[30.4894091,50.4510056],[30.4893239,50.4510758],[30.4890965,50.4509639]]]}},{"type":"Feature","id":"way/129808947","properties":{"@id":"way/129808947","abandoned_building":"yes","addr:housenumber":"52","addr:street":"Дмитрівська вулиця","building":"yes","note":"Будівля в гостроаварійному стані","source:abandoned":"rda","height":5},"geometry":{"type":"Polygon","coordinates":[[[30.4895303,50.4515641],[30.4896318,50.4513714],[30.4896555,50.4513764],[30.4898089,50.4514092],[30.4897075,50.4516019],[30.4895303,50.4515641]]]}},{"type":"Feature","id":"way/129808950","properties":{"@id":"way/129808950","abandoned_building":"yes","addr:housenumber":"60/19","addr:street":"Дмитрівська вулиця","landuse":"construction","note":"Будівля в аварійному стані","source:abandoned":"rda","height":5},"geometry":{"type":"Polygon","coordinates":[[[30.4894875,50.4521665],[30.4894559,50.4522292],[30.4893913,50.4523598],[30.4891358,50.4523083],[30.4892408,50.4521138],[30.4894875,50.4521665]]]}},{"type":"Feature","id":"way/129809024","properties":{"@id":"way/129809024","abandoned_building":"yes","addr:housenumber":"12","addr:street":"Полтавська вулиця","building":"yes","building:levels":"4","note":"Будівля в аварійному стані. Непридатний для проживання","source:abandoned":"rda","height":16},"geometry":{"type":"Polygon","coordinates":[[[30.4856454,50.4552001],[30.4861401,50.4553012],[30.4860914,50.4553977],[30.4856828,50.4553143],[30.4856035,50.4554718],[30.4854861,50.4554478],[30.4855678,50.4552857],[30.4855991,50.4552921],[30.4856454,50.4552001]]]}},{"type":"Feature","id":"way/129875965","properties":{"@id":"way/129875965","abandoned_building":"yes","addr:housenumber":"29/31","addr:street":"В'ячеслава Чорновола вулиця","building":"yes","building:levels":"4","note":"Будівля в аварійному стан. Відселений під реконструкцію","source:abandoned":"rda","height":16},"geometry":{"type":"Polygon","coordinates":[[[30.4848971,50.4524116],[30.4850466,50.4520723],[30.4852361,50.4521061],[30.4850865,50.4524454],[30.4848971,50.4524116]]]}},{"type":"Feature","id":"way/130175647","properties":{"@id":"way/130175647","abandoned_building":"yes","addr:housenumber":"17","addr:street":"Тургенєвська вулиця","building":"yes","building:levels":"4","note":"Будівля в аварійному стані","source:abandoned":"rda","height":16},"geometry":{"type":"Polygon","coordinates":[[[30.4933236,50.4498063],[30.4934032,50.4497453],[30.4933457,50.4497148],[30.4933899,50.4496809],[30.4934444,50.4497098],[30.493526,50.4496473],[30.4936456,50.4497107],[30.4936921,50.4497354],[30.4934869,50.4498925],[30.4933236,50.4498063]]]}},{"type":"Feature","id":"way/130175649","properties":{"@id":"way/130175649","abandoned_building":"yes","addr:housenumber":"19","addr:street":"Тургенєвська вулиця","building":"yes","building:levels":"3","note":"Будівля в аварійному стані. Непридатний для проживання","source:abandoned":"rda","height":12},"geometry":{"type":"Polygon","coordinates":[[[30.4934869,50.4498925],[30.4932638,50.4500637],[30.493105,50.4499798],[30.4931759,50.4499255],[30.4930868,50.4498784],[30.493185,50.449803],[30.4932696,50.4498477],[30.4933236,50.4498063],[30.4934869,50.4498925]]]}},{"type":"Feature","id":"way/130175655","properties":{"@id":"way/130175655","abandoned_building":"yes","addr:housenumber":"27","addr:street":"Тургенєвська вулиця","building":"yes","note":"Будівля в аварійному стані. Встановлену захисну сітку, паркан","source:abandoned":"rda","height":5},"geometry":{"type":"Polygon","coordinates":[[[30.4924363,50.4503546],[30.4922342,50.4504899],[30.4920892,50.4504021],[30.4922913,50.4502668],[30.4923345,50.4502929],[30.4924363,50.4503546]]]}},{"type":"Feature","id":"way/130175703","properties":{"@id":"way/130175703","abandoned_building":"construction","addr:city":"Київ","addr:housenumber":"38-40","addr:postcode":"01601","addr:street":"Дмитрівська вулиця","barrier":"fence","building":"construction","building:levels":"18","description":"Будівництво офісного центру","source:abandoned":"rda","height":72},"geometry":{"type":"Polygon","coordinates":[[[30.4908681,50.4502792],[30.4909765,50.4503331],[30.4909139,50.4503841],[30.4914068,50.4506291],[30.4912325,50.4507714],[30.4911606,50.4507357],[30.4911048,50.4507812],[30.4911363,50.4507968],[30.4908666,50.4510177],[30.4904574,50.4508152],[30.4904909,50.4507878],[30.4903474,50.4507145],[30.4907317,50.450464],[30.4907664,50.4504658],[30.490801,50.4504372],[30.4907945,50.4504131],[30.4908681,50.4502792]]]}},{"type":"Feature","id":"way/131245780","properties":{"@id":"way/131245780","abandoned_building":"yes","addr:housenumber":"32А","addr:street":"Гоголівська вулиця","building":"yes","building:levels":"3","description":"Будівля в аварійному стані","source:abandoned":"rda","height":12},"geometry":{"type":"Polygon","coordinates":[[[30.4947993,50.4523576],[30.4946257,50.4525272],[30.4944594,50.4524582],[30.494633,50.4522886],[30.4947993,50.4523576]]]}},{"type":"Feature","id":"way/132423948","properties":{"@id":"way/132423948","abandoned_building":"yes","addr:housenumber":"34","addr:street":"Бульварно-Кудрявська вулиця","building":"yes","description":"Будівля в аварійному стані. Непридатний для проживання","source:abandoned":"rda","height":5},"geometry":{"type":"Polygon","coordinates":[[[30.4951322,50.4504166],[30.4950539,50.4504859],[30.494881,50.4504066],[30.4947564,50.4503494],[30.4948356,50.4502795],[30.4949268,50.4503213],[30.4949805,50.4502739],[30.4949527,50.4502611],[30.4950125,50.4502083],[30.4952063,50.4502972],[30.4951463,50.4503502],[30.4951052,50.4503313],[30.4950509,50.4503793],[30.4951322,50.4504166]]]}},{"type":"Feature","id":"way/139380478","properties":{"@id":"way/139380478","abandoned_building":"construction","addr:city":"Київ","addr:housenumber":"21 к1","addr:postcode":"04212","addr:street":"Маршала Тимошенка вулиця","building":"apartments","building:levels":"24","description":"Будівництво житлово-офісного комплексу. Довгобуд. Збудовано каркас та цегляні стіни","source:abandoned":"rda","height":96},"geometry":{"type":"Polygon","coordinates":[[[30.4971206,50.5128561],[30.4975039,50.5128611],[30.4974956,50.5131207],[30.4971122,50.5131157],[30.4971206,50.5128561]]]}},{"type":"Feature","id":"way/139526170","properties":{"@id":"way/139526170","abandoned_building":"yes","addr:city":"Київ","addr:housenumber":"17б","addr:street":"Івана Франка вулиця","building":"yes","description":"Житловий будинок із офісно-торговельними приміщеннями. Довгобуд. Частково виконані роботи з реконструкції","source:abandoned":"rda","height":5},"geometry":{"type":"Polygon","coordinates":[[[30.5100612,50.448141],[30.51019,50.4481208],[30.510259,50.44811],[30.5102855,50.4481788],[30.5104237,50.4481572],[30.5104657,50.4482662],[30.5103284,50.4482877],[30.5103497,50.4483428],[30.510151,50.4483738],[30.5100612,50.448141]]]}},{"type":"Feature","id":"way/139850884","properties":{"@id":"way/139850884","abandoned_building":"yes","addr:housenumber":"25а","addr:street":"Введенська вулиця","building":"yes","building:levels":"2","note":"Визнаний непридатним для проживання. Загальна площа 1127 м2. Проживає 16 осіб","source:abandoned":"rda","height":8},"geometry":{"type":"Polygon","coordinates":[[[30.5099008,50.4714601],[30.5101189,50.4713248],[30.5102875,50.4714349],[30.5100695,50.4715702],[30.5099008,50.4714601]]]}},{"type":"Feature","id":"way/139854376","properties":{"@id":"way/139854376","abandoned_building":"yes","addr:housenumber":"23","addr:street":"Нижній Вал вулиця","building":"yes","building:levels":"3","building:material":"brick","description":"Визнаний непридатним для проживання. Загальна площа 995 м2. Проживає 29 осіб","fixme":"уточнити контури будинка","source:abandoned":"rda","height":12},"geometry":{"type":"Polygon","coordinates":[[[30.5117432,50.4662938],[30.5116489,50.466229],[30.511805,50.4661347],[30.5120354,50.4662991],[30.511884,50.4663898],[30.5117942,50.4663291],[30.5117225,50.4663721],[30.5116709,50.4663372],[30.5117432,50.4662938]]]}},{"type":"Feature","id":"way/139964229","properties":{"@id":"way/139964229","abandoned_building":"construction","addr:housenumber":"52а к3","addr:street":"Січових Стрільців вулиця","building":"yes","note":"Довгобуд, тривалий час будівельні роботи не ведуться","source:abandoned":"rda","height":5},"geometry":{"type":"Polygon","coordinates":[[[30.4940786,50.4569069],[30.4944078,50.4569129],[30.4944047,50.4569807],[30.494262,50.4569781],[30.4942477,50.4572956],[30.4942461,50.4573302],[30.4943883,50.4573328],[30.4943854,50.4573951],[30.4940507,50.457389],[30.4940552,50.457288],[30.4941026,50.4572889],[30.4941153,50.4570093],[30.494074,50.4570085],[30.4940786,50.4569069]]]}},{"type":"Feature","id":"way/140009147","properties":{"@id":"way/140009147","abandoned_building":"yes","addr:housenumber":"114","addr:street":"Жилянська вулиця","building":"yes","building:levels":"3","note":"Будівля в аварійному стані. Непридатний для проживання","source:abandoned":"rda","height":12},"geometry":{"type":"Polygon","coordinates":[[[30.4970774,50.4417531],[30.4970525,50.4417429],[30.4970886,50.4417072],[30.4971163,50.4417186],[30.4971786,50.4416571],[30.4973403,50.4417235],[30.4971819,50.441878],[30.4970198,50.4418093],[30.4970774,50.4417531]]]}},{"type":"Feature","id":"way/140009151","properties":{"@id":"way/140009151","abandoned_building":"yes","addr:housenumber":"120б","addr:street":"Жилянська вулиця","building":"yes","note":"Будинок знесено","source:abandoned":"rda","height":5},"geometry":{"type":"Polygon","coordinates":[[[30.4966125,50.4423052],[30.496718,50.4422014],[30.4968349,50.4422497],[30.4967295,50.4423534],[30.4966125,50.4423052]]]}},{"type":"Feature","id":"way/140104708","properties":{"@id":"way/140104708","abandoned_building":"construction","addr:housenumber":"40","addr:street":"Ярославів Вал вулиця","building":"ruins","building:levels":"8","description":"Недобудований корпус університету ім. Карпенка-Карого","name":"Недобудований корпус університету ім. Карпенка-Карого","source:abandoned":"rda","height":32},"geometry":{"type":"Polygon","coordinates":[[[30.5078534,50.4548359],[30.5076863,50.4547528],[30.5076455,50.4547325],[30.5069413,50.4543824],[30.5068287,50.4544572],[30.506783,50.454425],[30.5067454,50.4544541],[30.5066344,50.4543844],[30.5066051,50.4542055],[30.5067386,50.4540989],[30.5068746,50.4541679],[30.5072505,50.4543586],[30.5075882,50.4545298],[30.507794,50.4546342],[30.5078741,50.4546748],[30.5078269,50.4547125],[30.5079376,50.4547686],[30.5078534,50.4548359]]]}},{"type":"Feature","id":"way/140108892","properties":{"@id":"way/140108892","abandoned_building":"construction","building":"construction","building:levels":"4","description":"Будівництво корпусу Інституту урології та нефрології Академії медичних наук України","source:abandoned":"rda","height":16},"geometry":{"type":"Polygon","coordinates":[[[30.5004235,50.4528787],[30.5003735,50.4529182],[30.5003084,50.4529476],[30.5002331,50.4529645],[30.5001535,50.4529677],[30.5000531,50.4529678],[30.5000528,50.452857],[30.5001532,50.4528569],[30.5001944,50.452846],[30.5002296,50.4528286],[30.5002563,50.4528058],[30.500387,50.4526841],[30.5003463,50.4526664],[30.5004553,50.4525649],[30.5005048,50.4525864],[30.5005167,50.4525754],[30.5006404,50.4526292],[30.5006266,50.4526421],[30.5007841,50.4527107],[30.5008459,50.452742],[30.500893,50.4527824],[30.5009221,50.4528291],[30.5009604,50.4529621],[30.5009644,50.4529761],[30.500821,50.4529941],[30.5007503,50.453003],[30.5007381,50.4529606],[30.5007542,50.4529587],[30.5007235,50.4528523],[30.5007148,50.4528356],[30.5006989,50.4528212],[30.5006771,50.4528104],[30.5006368,50.4527928],[30.5005836,50.4528424],[30.5004808,50.4527976],[30.5004546,50.452822],[30.5004749,50.4528308],[30.5004235,50.4528787]]]}},{"type":"Feature","id":"way/140235622","properties":{"@id":"way/140235622","abandoned_building":"construction","addr:housenumber":"32","addr:street":"Молодогвардійська вулиця","building":"yes","note":"Оптово-роздрібний ринок «Жуляни» (будівельна готовність 45%)","source:abandoned":"rda","height":5},"geometry":{"type":"Polygon","coordinates":[[[30.4496674,50.4183252],[30.4500444,50.4182153],[30.4503008,50.4185724],[30.4499246,50.418682],[30.4498991,50.4186466],[30.4497137,50.4187006],[30.449527,50.4184406],[30.4497116,50.4183868],[30.4496674,50.4183252]]]}},{"type":"Feature","id":"way/140237427","properties":{"@id":"way/140237427","abandoned_building":"construction","addr:street":"Повітрофлотський проспект","building":"yes","description":"Адміністративно-виставковий будинок з магазином та кафе на розі вул. Вінницької та просп. Повітрофлотського. Довгобуд, будівельна готовність — 35%","source:abandoned":"rda","height":5},"geometry":{"type":"Polygon","coordinates":[[[30.4515318,50.4183713],[30.4512151,50.4184628],[30.4504858,50.4178615],[30.4507535,50.4177296],[30.4515318,50.4183713]]]}},{"type":"Feature","id":"way/146177811","properties":{"@id":"way/146177811","abandoned_building":"construction","addr:housenumber":"40","addr:street":"Мельникова вулиця","building":"yes","building:levels":"5","description":"Недобудована будівля обласного державного архіву","name":"Недобудована будівля обласного державного архіву","source:abandoned":"rda","height":20},"geometry":{"type":"Polygon","coordinates":[[[30.4622316,50.471878],[30.4625624,50.4715912],[30.4629842,50.4717909],[30.4630146,50.471788],[30.4630204,50.471851],[30.4629896,50.4718516],[30.4628765,50.4719545],[30.4627076,50.4720991],[30.4622316,50.471878]]]}},{"type":"Feature","id":"way/146181078","properties":{"@id":"way/146181078","abandoned_building":"construction","addr:housenumber":"42","addr:postcode":"04052","addr:street":"Мельникова вулиця","building":"yes","description":"Апаратно-студійний комплекс","note":"Будинок досі не введений в експлуатацію","source:abandoned":"rda","height":5},"geometry":{"type":"Polygon","coordinates":[[[30.4595713,50.47292],[30.459564,50.4728966],[30.4596407,50.4728869],[30.4596502,50.4729175],[30.4599991,50.4728735],[30.4603511,50.4728291],[30.4605085,50.4733349],[30.4603553,50.4733542],[30.4604618,50.4736963],[30.4605117,50.47369],[30.4605246,50.4737314],[30.4604719,50.4737381],[30.4605029,50.473838],[30.4603075,50.4738626],[30.4603686,50.474059],[30.4596579,50.4741487],[30.459665,50.4741716],[30.4595722,50.4741833],[30.4595644,50.4741582],[30.4587037,50.4742667],[30.4586408,50.4740648],[30.4584925,50.4735885],[30.4583318,50.4736087],[30.4581743,50.473103],[30.4588819,50.4730138],[30.4588734,50.4729867],[30.4589559,50.4729763],[30.4589706,50.4730235],[30.4591105,50.4730059],[30.4591501,50.4730009],[30.4591413,50.4729727],[30.459194,50.472966],[30.4592026,50.4729934],[30.4595101,50.4729546],[30.4595021,50.4729289],[30.4595713,50.47292]]]}},{"type":"Feature","id":"way/146481686","properties":{"@id":"way/146481686","abandoned_building":"construction","addr:housenumber":"37","addr:street":"Олени Теліги вулиця","building":"yes","description":"Будівництво територіального центру соціального обслуговування пенсіонерів м. Києва. Довгобуд","source:abandoned":"rda","height":5},"geometry":{"type":"Polygon","coordinates":[[[30.4503687,50.4802999],[30.45034,50.4802784],[30.4503868,50.480253],[30.4504129,50.4802725],[30.4505572,50.4801944],[30.4506721,50.4802803],[30.4505778,50.4803314],[30.4506273,50.4803638],[30.45061,50.4803659],[30.4505833,50.4803712],[30.4505672,50.4803757],[30.4505475,50.4803826],[30.4505329,50.4803891],[30.4505203,50.4803956],[30.4505086,50.4804028],[30.4504936,50.4804139],[30.450477,50.4804299],[30.450465,50.4804461],[30.4504266,50.4804166],[30.4503246,50.4804729],[30.4502089,50.4803864],[30.4503687,50.4802999]]]}},{"type":"Feature","id":"way/146481687","properties":{"@id":"way/146481687","abandoned_building":"construction","addr:housenumber":"37г","addr:street":"Олени Теліги вулиця","building":"yes","desc":"Територіальний центр соціального обслуговування пенсіонерів м. Києва","description":"Будівництво територіального центру соціального обслуговування пенсіонерів м. Києва. Довгобуд","fixme":"перевірити, чи це одна споруда 37Г, чи дві","source:abandoned":"rda","height":5},"geometry":{"type":"Polygon","coordinates":[[[30.450465,50.4804461],[30.450477,50.4804299],[30.4504936,50.4804139],[30.4505086,50.4804028],[30.4505203,50.4803956],[30.4505329,50.4803891],[30.4505475,50.4803826],[30.4505672,50.4803757],[30.4505833,50.4803712],[30.45061,50.4803659],[30.4506273,50.4803638],[30.4506436,50.4803626],[30.4506743,50.4803627],[30.4507031,50.4803654],[30.4507338,50.4803714],[30.4507508,50.4803762],[30.4507801,50.4803875],[30.4508038,50.4804003],[30.4508213,50.4804127],[30.4508369,50.4804272],[30.4508511,50.4804456],[30.4508613,50.4804673],[30.4508646,50.4804804],[30.4508649,50.4805062],[30.45086,50.4805252],[30.4508487,50.4805468],[30.4508412,50.4805567],[30.4508224,50.4805752],[30.4508017,50.4805898],[30.4507886,50.4805972],[30.4507712,50.4806052],[30.4507409,50.4806155],[30.4507323,50.4806178],[30.4506809,50.4806257],[30.4506592,50.4806265],[30.4506274,50.480625],[30.4506012,50.4806214],[30.4505678,50.4806133],[30.4505295,50.480598],[30.4505068,50.4805848],[30.4504825,50.4805648],[30.4504711,50.4805516],[30.4504599,50.4805334],[30.4504536,50.4805169],[30.4504507,50.4804977],[30.4504529,50.4804748],[30.450465,50.4804461]]]}},{"type":"Feature","id":"way/146595455","properties":{"@id":"way/146595455","abandoned_building":"construction","building":"yes","description":"Недобудована вхідна група телецентру","source:abandoned":"rda","height":5},"geometry":{"type":"Polygon","coordinates":[[[30.4588959,50.4728242],[30.4588727,50.4727715],[30.4588718,50.4727203],[30.4588986,50.4726594],[30.4589543,50.4726063],[30.4589992,50.4725807],[30.4591123,50.4725471],[30.4592083,50.4725418],[30.4592709,50.4725484],[30.4593681,50.4725771],[30.4594485,50.472628],[30.4594903,50.4726817],[30.4595056,50.4727452],[30.4594873,50.4728113],[30.4594628,50.4728451],[30.4594058,50.4728909],[30.4593483,50.4729183],[30.4592753,50.4729382],[30.4591749,50.4729459],[30.4590888,50.4729361],[30.4590289,50.4729191],[30.4589456,50.4728749],[30.4588959,50.4728242]]]}},{"type":"Feature","id":"way/147123379","properties":{"@id":"way/147123379","abandoned_building":"yes","addr:housenumber":"7б","addr:street":"Набережно-Хрещатицька вулиця","building":"yes","note":"Визнаний непридатним для проживання. Загальна площа 753 м2. Проживає 28 осіб (Набережно-Хрещатицька, 7Б)","source:abandoned":"rda","height":5},"geometry":{"type":"Polygon","coordinates":[[[30.5249892,50.4620219],[30.5250032,50.4619467],[30.5253574,50.4619733],[30.5253434,50.4620486],[30.5249892,50.4620219]]]}},{"type":"Feature","id":"way/147123381","properties":{"@id":"way/147123381","abandoned_building":"yes","addr:housenumber":"7В","addr:street":"Набережно-Хрещатицька вулиця","building":"yes","note":"Визнаний непридатним для проживання. Загальна площа 867 м2. Проживає 25 осіб (Набережно-Хрещатицька, 7В)","source:abandoned":"rda","height":5},"geometry":{"type":"Polygon","coordinates":[[[30.525104,50.4618425],[30.5251332,50.4616738],[30.5251614,50.4616758],[30.5254596,50.4616967],[30.5254404,50.4618073],[30.5254304,50.4618654],[30.525104,50.4618425]]]}},{"type":"Feature","id":"way/147137708","properties":{"@id":"way/147137708","abandoned_building":"yes","addr:housenumber":"64","addr:street":"Кирилівська вулиця","building":"yes","note":"Аварійно-небезпечний стан","ruins":"yes","source:abandoned":"rda","height":5},"geometry":{"type":"Polygon","coordinates":[[[30.49398,50.4743461],[30.494133,50.4742896],[30.4945803,50.4747803],[30.4944273,50.4748368],[30.49398,50.4743461]]]}},{"type":"Feature","id":"way/147323153","properties":{"@id":"way/147323153","abandoned_building":"yes","addr:housenumber":"23б","addr:street":"Хрещатик вулиця","building":"yes","building:levels":"1","note":"Незадовільний санітарно-технічний стан будинку та прилеглої території","source:abandoned":"rda","height":4},"geometry":{"type":"Polygon","coordinates":[[[30.5221704,50.4453193],[30.5223666,50.4452922],[30.5224375,50.4455002],[30.5222413,50.4455273],[30.5221704,50.4453193]]]}},{"type":"Feature","id":"way/147429765","properties":{"@id":"way/147429765","abandoned_building":"construction","addr:housenumber":"26Б","addr:street":"Московський проспект","building":"yes","building:levels":"4","description":"Комплекс автопослуг. Довгобуд. Збудовано каркас","source:abandoned":"rda","height":16},"geometry":{"type":"Polygon","coordinates":[[[30.5280853,50.4861147],[30.5280135,50.4861856],[30.5278932,50.4862669],[30.5277053,50.4863642],[30.527537,50.4864426],[30.5274491,50.4864045],[30.5278623,50.4860181],[30.5280853,50.4861147]]]}},{"type":"Feature","id":"way/148176366","properties":{"@id":"way/148176366","abandoned_building":"yes","addr:housenumber":"6","addr:street":"Тропініна вулиця","building":"yes","building:levels":"2","note":"Відомчий будинок, в аварійному стані","source:abandoned":"rda","height":8},"geometry":{"type":"Polygon","coordinates":[[[30.4790505,50.4736034],[30.4792106,50.4735199],[30.4793975,50.4736652],[30.4792374,50.4737486],[30.4790505,50.4736034]]]}},{"type":"Feature","id":"way/148176390","properties":{"@id":"way/148176390","abandoned_building":"yes","addr:housenumber":"16/13","addr:street":"Нагірна вулиця","building":"yes","building:levels":"2","note":"Будівля в аварійному стані. Непридатний для проживання","source:abandoned":"rda","height":8},"geometry":{"type":"Polygon","coordinates":[[[30.4818622,50.473636],[30.482013,50.4734897],[30.4821483,50.4735462],[30.4819636,50.4737254],[30.4818845,50.4736923],[30.4819184,50.4736595],[30.4818622,50.473636]]]}},{"type":"Feature","id":"way/148176396","properties":{"@id":"way/148176396","abandoned_building":"yes","addr:housenumber":"19","addr:street":"Овруцька вулиця","building":"yes","building:levels":"1","note":"Будівля в аварійному стані","source:abandoned":"rda","height":4},"geometry":{"type":"Polygon","coordinates":[[[30.474687,50.471972],[30.4747148,50.4719595],[30.4746951,50.4719417],[30.4748801,50.4718588],[30.4750359,50.4719997],[30.474823,50.472095],[30.474687,50.471972]]]}},{"type":"Feature","id":"way/150333160","properties":{"@id":"way/150333160","abandoned_building":"construction","addr:housenumber":"5/1-А","addr:street":"Зоологічна вулиця","building":"yes","description":"Будівництво офісних приміщень. Довгобуд","source:abandoned":"rda","height":5},"geometry":{"type":"Polygon","coordinates":[[[30.463482,50.4608705],[30.463676,50.4608251],[30.4638835,50.4611845],[30.4636895,50.4612299],[30.463482,50.4608705]]]}},{"type":"Feature","id":"way/150344045","properties":{"@id":"way/150344045","abandoned_building":"construction","addr:housenumber":"25а к2","addr:street":"Дегтярівська вулиця","building":"construction","description":"ЖК «Cosmopolitan» (недобудований)","name":"ЖК «Cosmopolitan» (недобудований)","source:abandoned":"rda","height":5},"geometry":{"type":"Polygon","coordinates":[[[30.45147,50.4609756],[30.4514705,50.4609045],[30.4514196,50.4609043],[30.4514201,50.4608464],[30.45146,50.4608465],[30.4514605,50.4607826],[30.451506,50.4607828],[30.4515061,50.4607696],[30.4515727,50.4607698],[30.4515729,50.4607414],[30.4516887,50.4607417],[30.4516885,50.4607692],[30.4517926,50.4607695],[30.4517924,50.4608031],[30.4518689,50.4608034],[30.4518691,50.4607741],[30.4521044,50.4607748],[30.4521043,50.4607891],[30.4521993,50.4607894],[30.452199,50.4608192],[30.4523137,50.4608195],[30.4523139,50.4607981],[30.4525359,50.4607988],[30.4525357,50.4608255],[30.4526345,50.4608259],[30.4527706,50.4609072],[30.45277,50.4609904],[30.4528132,50.4609906],[30.452811,50.4612721],[30.4525672,50.4612713],[30.4525678,50.4611976],[30.4525421,50.4611975],[30.4525423,50.4611715],[30.4525172,50.4611714],[30.4525177,50.4611025],[30.452541,50.4611026],[30.4525413,50.4610706],[30.4525667,50.4610707],[30.4525673,50.4609919],[30.4524884,50.4609917],[30.4524883,50.4610075],[30.4523412,50.461007],[30.4523414,50.4609862],[30.4522319,50.4609858],[30.4522321,50.4609672],[30.4521883,50.4609671],[30.4521885,50.4609436],[30.4521152,50.4609434],[30.4521151,50.4609548],[30.4520743,50.4609547],[30.4520741,50.4609848],[30.4519561,50.4609845],[30.4519563,50.46096],[30.4519115,50.4609599],[30.4519116,50.4609491],[30.4518527,50.4609489],[30.4518528,50.4609352],[30.4517986,50.460935],[30.4517983,50.4609755],[30.451663,50.4609751],[30.4516627,50.4610035],[30.4515851,50.4610033],[30.4515853,50.460976],[30.45147,50.4609756]]]}},{"type":"Feature","id":"way/150752482","properties":{"@id":"way/150752482","abandoned_building":"construction","addr:housenumber":"46","addr:street":"Краснодарська вулиця","building":"yes","description":"Будівництво адміністративно-офісних приміщень. Довгобуд","source:abandoned":"rda","height":5},"geometry":{"type":"Polygon","coordinates":[[[30.4164108,50.4677293],[30.4164087,50.4676339],[30.4165749,50.4676323],[30.416577,50.4677278],[30.4164108,50.4677293]]]}},{"type":"Feature","id":"way/151214358","properties":{"@id":"way/151214358","abandoned_building":"yes","addr:housenumber":"16/21","addr:street":"Серпова вулиця","building":"residential","building:levels":"2","description":"Гуртожиток №8 НАН України. Будівля в аварійному стані. Проживають 6 осіб","name":"Гуртожиток №8 НАН України","name:ru":"Общежитие №8 НАНУ","source:abandoned":"rda","height":8},"geometry":{"type":"Polygon","coordinates":[[[30.3725387,50.4604373],[30.3731872,50.4601443],[30.3735001,50.460425],[30.3733155,50.4605085],[30.37314,50.4603511],[30.3726763,50.4605606],[30.3725387,50.4604373]]]}},{"type":"Feature","id":"way/151361316","properties":{"@id":"way/151361316","abandoned_building":"yes","addr:housenumber":"10","addr:street":"Медова вулиця","building":"yes","building:levels":"1","note":"Будівля в аварійному стані","source:abandoned":"rda","height":4},"geometry":{"type":"Polygon","coordinates":[[[30.4654154,50.4084468],[30.4655722,50.4084436],[30.4655788,50.4085764],[30.4654219,50.4085795],[30.4654154,50.4084468]]]}},{"type":"Feature","id":"way/151635678","properties":{"@id":"way/151635678","abandoned_landuse":"construction","description":"Територія недобудованої школи по вул. Бажана, 42-Б","landuse":"construction","source:abandoned":"rda","height":5},"geometry":{"type":"Polygon","coordinates":[[[30.6487853,50.3981149],[30.6487853,50.3974484],[30.6490295,50.3974484],[30.6490277,50.3966827],[30.6490289,50.3965415],[30.6505285,50.3965535],[30.6505697,50.397616],[30.6504883,50.3979792],[30.6502535,50.3981468],[30.6487853,50.3981149]]]}},{"type":"Feature","id":"way/152440477","properties":{"@id":"way/152440477","abandoned_building":"yes","addr:housenumber":"60","addr:street":"Козацька вулиця","building":"yes","note":"Визнаний непридатним для проживання, підлягає знесенню.","source:abandoned":"rda","height":5},"geometry":{"type":"Polygon","coordinates":[[[30.5045153,50.403862],[30.5045326,50.4038078],[30.5046574,50.4038241],[30.5046401,50.4038783],[30.5045153,50.403862]]]}},{"type":"Feature","id":"way/152440481","properties":{"@id":"way/152440481","abandoned_building":"yes","addr:housenumber":"60","addr:street":"Козацька вулиця","building":"yes","note":"Визнаний непридатним для проживання, підлягає знесенню","source:abandoned":"rda","height":5},"geometry":{"type":"Polygon","coordinates":[[[30.5045058,50.4039995],[30.5045341,50.4039027],[30.5047532,50.4039288],[30.5047249,50.4040256],[30.5045058,50.4039995]]]}},{"type":"Feature","id":"way/153763735","properties":{"@id":"way/153763735","abandoned_building":"yes","addr:housenumber":"16","addr:street":"Круглоуніверситетська вулиця","building":"yes","building:levels":"2","note":"Будинок тривалий час зачинений","source:abandoned":"rda","height":8},"geometry":{"type":"Polygon","coordinates":[[[30.5256063,50.4429908],[30.5255904,50.4428325],[30.5256495,50.4428301],[30.5256386,50.4427211],[30.5258523,50.4427124],[30.5258848,50.4430371],[30.5257509,50.4430426],[30.5257554,50.4430875],[30.5256613,50.4430914],[30.525651,50.442989],[30.5256063,50.4429908]]]}},{"type":"Feature","id":"way/153775526","properties":{"@id":"way/153775526","abandoned_building":"yes","addr:housenumber":"1","addr:street":"Кропивницького вулиця","building":"yes","description":"Будівля в незадовільному санітарно-технічному стані. Будинок багато років зачинено. Територія утримується неналежно. Планували побудувати офісний комплекс","source:abandoned":"rda","height":5},"geometry":{"type":"Polygon","coordinates":[[[30.5246944,50.4414922],[30.5248235,50.4413158],[30.5249698,50.4413593],[30.5248408,50.4415357],[30.5246944,50.4414922]]]}},{"type":"Feature","id":"way/154685252","properties":{"@id":"way/154685252","abandoned_building":"construction","addr:housenumber":"8","addr:street":"Добровольчих Батальйонів вулиця","building":"yes","note":"довгобуд","source:abandoned":"rda","height":5},"geometry":{"type":"Polygon","coordinates":[[[30.5516223,50.4295581],[30.5516212,50.4293854],[30.5515939,50.4293854],[30.5515938,50.4293746],[30.551499,50.4293749],[30.5514976,50.4291457],[30.5520417,50.4291443],[30.552044,50.4295223],[30.5517068,50.4295232],[30.5517071,50.4295578],[30.5516223,50.4295581]]]}},{"type":"Feature","id":"way/155006676","properties":{"@id":"way/155006676","abandoned_building":"yes","addr:housenumber":"2б","addr:street":"Вільшанська вулиця","building":"yes","note":"Будівництво призупинено","source:abandoned":"rda","height":5},"geometry":{"type":"Polygon","coordinates":[[[30.5525218,50.4116411],[30.5525273,50.411559],[30.5527828,50.4115608],[30.5527814,50.4116429],[30.5525218,50.4116411]]]}},{"type":"Feature","id":"way/155817103","properties":{"@id":"way/155817103","abandoned_building":"construction","addr:housenumber":"4Б","addr:street":"Михайла Драгомирова вулиця","building":"yes","description":"Недобудований ЖК \"Дельмар\"","name":"Житловий комплекс «Дельмар» (недобудований)","note":"Колишня назва — ЖК «Сантана»","source:abandoned":"rda","height":5},"geometry":{"type":"Polygon","coordinates":[[[30.544109,50.411551],[30.5452886,50.4115423],[30.5452945,50.4118717],[30.5450393,50.4118735],[30.5450359,50.411684],[30.5449095,50.4116849],[30.5449101,50.4117185],[30.5445157,50.4117214],[30.5445151,50.4116884],[30.5443786,50.4116894],[30.5443819,50.4118728],[30.5441149,50.4118748],[30.544109,50.411551]]]}},{"type":"Feature","id":"way/156313306","properties":{"@id":"way/156313306","abandoned_building":"yes","addr:housenumber":"34а","addr:street":"Велика Житомирська вулиця","building":"yes","note":"тут має з’явитися комплекс будівель і споруд між існуючими будинками 34, 38 з реконструкцією та обслуговуванням будинків 34-Б і 34-В на Великій Житомирській","source:abandoned":"rda","height":5},"geometry":{"type":"Polygon","coordinates":[[[30.5087446,50.4557916],[30.5087337,50.4556566],[30.5092278,50.4556405],[30.5092386,50.4557755],[30.5087446,50.4557916]]]}},{"type":"Feature","id":"way/156325105","properties":{"@id":"way/156325105","abandoned_building":"yes","addr:housenumber":"6а","addr:street":"Алли Тарасової вулиця","building":"yes","building:levels":"3","note":"Об'єкт культурної спадщини, у непридатному для проживання стані. На цьому місці заплановано побудувати готельно-офісний комплекс з вбудовано-прибудованими приміщеннями соціально-побутового призначення","source:abandoned":"rda","height":12},"geometry":{"type":"Polygon","coordinates":[[[30.5187374,50.4534095],[30.5189057,50.4534698],[30.5188493,50.4535338],[30.5189835,50.4535817],[30.5189018,50.4536745],[30.5187666,50.4536262],[30.5187311,50.4536666],[30.5185636,50.4536068],[30.5187374,50.4534095]]]}},{"type":"Feature","id":"way/156325107","properties":{"@id":"way/156325107","abandoned_building":"yes","addr:housenumber":"6б","addr:street":"Алли Тарасової вулиця","building":"yes","building:levels":"2","note":"У непридатному для проживання стані. На цьому місці заплановано побудувати готельно-офісний комплекс з вбудовано-прибудованими приміщеннями соціально-побутового призначення","source:abandoned":"rda","height":8},"geometry":{"type":"Polygon","coordinates":[[[30.518888,50.453239],[30.519055,50.4533007],[30.5189057,50.4534698],[30.5187374,50.4534095],[30.518888,50.453239]]]}},{"type":"Feature","id":"way/156330165","properties":{"@id":"way/156330165","abandoned_building":"yes","addr:housenumber":"10","addr:street":"Михайлівська вулиця","building":"yes","note":"Адміністративна будівля інституту хімії поверхні ім О.О. Чуйка НАН України (в аварійному стані)","ruins":"yes","source:abandoned":"rda","height":5},"geometry":{"type":"Polygon","coordinates":[[[30.5224609,50.452255],[30.5226446,50.452276],[30.5225677,50.452528],[30.5223861,50.452506],[30.5224609,50.452255]]]}},{"type":"Feature","id":"way/156330739","properties":{"@id":"way/156330739","abandoned_building":"yes","addr:housenumber":"14а","addr:street":"Мала Житомирська вулиця","building":"yes","building:levels":"1","note":"Особняк у садибі Мурашка","source:abandoned":"rda","height":4},"geometry":{"type":"Polygon","coordinates":[[[30.5206836,50.4528323],[30.5208365,50.4528973],[30.520671,50.4530553],[30.520513,50.4529905],[30.5206836,50.4528323]]]}},{"type":"Feature","id":"way/157058581","properties":{"@id":"way/157058581","abandoned_building":"yes","addr:housenumber":"36/7","addr:street":"Шовковична вулиця","building":"yes","note":"Будівля в напівзруйнованому стані, довгий час не використовується","source:abandoned":"rda","height":5},"geometry":{"type":"Polygon","coordinates":[[[30.527906,50.4418642],[30.5280477,50.4417854],[30.5281562,50.4418645],[30.5280146,50.4419433],[30.527906,50.4418642]]]}},{"type":"Feature","id":"way/159159753","properties":{"@id":"way/159159753","abandoned_building":"yes","addr:housenumber":"9Б","addr:street":"Різницька вулиця","building":"yes","building:levels":"3","note":"У незадовільному стані. Будівельні роботи не проводяться","source:abandoned":"rda","height":12},"geometry":{"type":"Polygon","coordinates":[[[30.542709,50.4347757],[30.5427934,50.4347648],[30.5427836,50.4347338],[30.5429417,50.4347135],[30.5429519,50.434746],[30.5430718,50.4347306],[30.5431066,50.4348409],[30.5427442,50.4348873],[30.542709,50.4347757]]]}},{"type":"Feature","id":"way/159185633","properties":{"@id":"way/159185633","abandoned_building":"construction","addr:housenumber":"15","addr:street":"Івана Кудрі вулиця","building":"yes","note":"Незадовільний стан","source:abandoned":"rda","height":5},"geometry":{"type":"Polygon","coordinates":[[[30.5347231,50.4157648],[30.5347848,50.4156393],[30.5351227,50.4157068],[30.5351463,50.415659],[30.5353663,50.415703],[30.5353051,50.4158274],[30.5351507,50.4157966],[30.5351267,50.4158454],[30.5347231,50.4157648]]]}},{"type":"Feature","id":"way/160235748","properties":{"@id":"way/160235748","abandoned_building":"yes","addr:city":"Київ","addr:housenumber":"4","addr:street":"Ярославська вулиця","building":"yes","note":"Аварійно-небезпечний стан","source:abandoned":"rda","height":5},"geometry":{"type":"Polygon","coordinates":[[[30.5097899,50.4664725],[30.5103732,50.4661098],[30.5104546,50.4661629],[30.5100962,50.4663857],[30.5098712,50.4665255],[30.5097899,50.4664725]]]}},{"type":"Feature","id":"way/160316079","properties":{"@id":"way/160316079","abandoned_building":"construction","addr:housenumber":"26/14","addr:street":"Спаська вулиця","building":"yes","building:levels":"7","description":"Офісно-торгівельний центр з підземним паркінгом","source:abandoned":"rda","height":28},"geometry":{"type":"Polygon","coordinates":[[[30.5216608,50.4684305],[30.5214072,50.4682621],[30.5218947,50.4679647],[30.52216,50.4681408],[30.5218982,50.4683006],[30.5219665,50.4683459],[30.5218409,50.4684225],[30.5217609,50.4683694],[30.5216608,50.4684305]]]}},{"type":"Feature","id":"way/160729775","properties":{"@id":"way/160729775","abandoned_building":"yes","addr:housenumber":"14а","addr:street":"Деревлянська вулиця","building":"yes","building:levels":"2","description":"Дитячий дошкільний заклад (колишній дитсадок ВАТ «Мотозавод»)","note":"Будівля в аварійному стані","source:abandoned":"rda","height":8},"geometry":{"type":"Polygon","coordinates":[[[30.4673331,50.4657891],[30.4678948,50.4657425],[30.4679244,50.4658873],[30.4673628,50.4659339],[30.4673331,50.4657891]]]}},{"type":"Feature","id":"way/160733955","properties":{"@id":"way/160733955","abandoned_building":"construction","addr:housenumber":"43","addr:street":"Глибочицька вулиця","landuse":"construction","name":"Недобудований хмарочос «Міракс-Плаза»","note":"Недобудований хмарочос «Міракс-Плаза»","source:abandoned":"rda","wikipedia":"uk:Хмарочос Міракс-Плаза (Київ)","wikipedia:en":"Mirax-Plaza Ukraine","wikipedia:ru":"Миракс Плаза","height":5},"geometry":{"type":"Polygon","coordinates":[[[30.4956254,50.4625705],[30.4956625,50.4625461],[30.4956944,50.4625624],[30.4957162,50.4625486],[30.4958005,50.462516],[30.4958913,50.4624957],[30.4959718,50.4624843],[30.4960767,50.46249],[30.4961649,50.4625006],[30.4962684,50.4625364],[30.4963387,50.4625795],[30.4963988,50.4626234],[30.4964384,50.462695],[30.4964742,50.462695],[30.4964717,50.4627553],[30.4964397,50.4628016],[30.4964039,50.4627919],[30.4963732,50.4628138],[30.4962595,50.4628545],[30.4961534,50.4628822],[30.495991,50.4628855],[30.4958824,50.46287],[30.4957673,50.4628236],[30.4956944,50.4627748],[30.495619,50.4627072],[30.4955845,50.4626226],[30.4956254,50.4625705]]]}},{"type":"Feature","id":"way/160908526","properties":{"@id":"way/160908526","abandoned_building":"yes","addr:housenumber":"130/1","addr:street":"Перемоги проспект","building":"yes","building:levels":"2","description":"Києво-Святошинське міжміське бюро технічної інвентаризації КмП","name":"Києво-Святошинське міжміське бюро технічної інвентаризації КмП","name:ru":"Киево-Святошинское междугородное бюро технической инвентаризации КмП","note":"Архітектурна пам’ятка, в аварійному стані","source:abandoned":"rda","height":8},"geometry":{"type":"Polygon","coordinates":[[[30.371504,50.4571041],[30.3715335,50.4569767],[30.3718336,50.4570048],[30.3718042,50.4571322],[30.371504,50.4571041]]]}},{"type":"Feature","id":"way/160937487","properties":{"@id":"way/160937487","abandoned_building":"yes","addr:housenumber":"23Б","addr:street":"Дмитрівська вулиця","building":"yes","building:levels":"3","note":"Будівля в аварійному стані. Непридатний для проживання","source:abandoned":"rda","height":12},"geometry":{"type":"Polygon","coordinates":[[[30.489931,50.4504212],[30.4897621,50.450567],[30.4896092,50.4504951],[30.489778,50.4503494],[30.489931,50.4504212]]]}},{"type":"Feature","id":"way/161202313","properties":{"@id":"way/161202313","abandoned_building":"yes","addr:housenumber":"10","addr:street":"Антоновича вулиця","building":"yes","note":"Підпірна стінка будинку в аварійному стані","source:abandoned":"rda","height":5},"geometry":{"type":"Polygon","coordinates":[[[30.5132287,50.4382378],[30.5134254,50.4382372],[30.5134269,50.4384316],[30.5132259,50.4384322],[30.5132255,50.4383775],[30.513067,50.4383779],[30.5130676,50.4384565],[30.5128213,50.4384572],[30.5128203,50.4383209],[30.5128199,50.4382571],[30.5130435,50.4382564],[30.5130438,50.4382905],[30.513229,50.43829],[30.5132287,50.4382378]]]}},{"type":"Feature","id":"way/161956923","properties":{"@id":"way/161956923","abandoned_building":"construction","addr:housenumber":"2","addr:street":"Митрополита Андрея Шептицького вулиця","building":"commercial","description":"Будівництво адміністративного будинку. Змонтовано каркас. Влаштовано покрівлю. Будівництво не здійснюється тривалий час. Будівельні роботи призупинені","source:abandoned":"rda","height":5},"geometry":{"type":"Polygon","coordinates":[[[30.5948167,50.4537027],[30.5948818,50.4536131],[30.5949306,50.4536274],[30.5949612,50.4535853],[30.5951007,50.4536263],[30.5953455,50.4535703],[30.5954447,50.4534337],[30.5953876,50.4534169],[30.5954298,50.4533588],[30.5954933,50.4533775],[30.5955673,50.4532757],[30.5954532,50.4531109],[30.5953167,50.4530707],[30.5953554,50.4530174],[30.595292,50.4529988],[30.5953511,50.4529175],[30.5954032,50.4529328],[30.5953835,50.4529599],[30.5956069,50.4530257],[30.5957838,50.4532769],[30.595667,50.4534378],[30.5956758,50.4534404],[30.5957049,50.4534002],[30.5958392,50.4534397],[30.5957355,50.4535826],[30.5956038,50.4535438],[30.5956351,50.4535008],[30.5956325,50.4535],[30.59551,50.4536686],[30.5951082,50.4537584],[30.594908,50.4536995],[30.59489,50.4537243],[30.5948167,50.4537027]]]}},{"type":"Feature","id":"way/161965750","properties":{"@id":"way/161965750","abandoned_landuse":"yes","amenity":"parking","description":"Територія для будівництва дитячого садка на 190 місць по вул. Лісківська-Радунська","landuse":"construction","source:abandoned":"rda","height":5},"geometry":{"type":"Polygon","coordinates":[[[30.5982811,50.5283781],[30.5988504,50.5283625],[30.5989979,50.5283547],[30.5991248,50.5282792],[30.5993174,50.5281646],[30.599559,50.5280865],[30.5997966,50.5281047],[30.599813,50.5289483],[30.5994976,50.5289457],[30.5992846,50.5289718],[30.5988668,50.5291306],[30.5985883,50.5291983],[30.598277,50.5291905],[30.5982811,50.5283781]]]}},{"type":"Feature","id":"way/163404414","properties":{"@id":"way/163404414","abandoned_building":"yes","addr:housenumber":"21/20","addr:street":"Володимирська вулиця","building":"yes","building:levels":"2","note":"Будівля в аварійному стані. Реконструкція будинку під офісні та житлові приміщення","source:abandoned":"rda","height":8},"geometry":{"type":"Polygon","coordinates":[[[30.5169979,50.4527841],[30.5169103,50.4528822],[30.5165562,50.4527376],[30.5165602,50.4526693],[30.5169125,50.4525775],[30.5169586,50.4526577],[30.5167897,50.4527005],[30.5169979,50.4527841]]]}},{"type":"Feature","id":"way/186547266","properties":{"@id":"way/186547266","abandoned_building":"yes","addr:city":"Київ","addr:housenumber":"46/2","addr:street":"Попудренка вулиця","building":"yes","note":"У незадовільному санітарно-технічному стані, підлягає знесенню, а мешканці — відселенню","source:abandoned":"rda","height":5},"geometry":{"type":"Polygon","coordinates":[[[30.6302948,50.4588167],[30.6304664,50.4588635],[30.6302636,50.459164],[30.6298139,50.4590411],[30.6298961,50.4589194],[30.6301741,50.4589954],[30.6302948,50.4588167]]]}},{"type":"Feature","id":"way/186547267","properties":{"@id":"way/186547267","abandoned_building":"yes","addr:housenumber":"44","addr:street":"Попудренка вулиця","building":"yes","building:levels":"2","note":"У незадовільному санітарно-технічному стані, підлягає знесенню, а мешканці — відселенню","source:abandoned":"rda","height":8},"geometry":{"type":"Polygon","coordinates":[[[30.6291458,50.458451],[30.6293394,50.4585056],[30.6291205,50.4588205],[30.6289269,50.4587659],[30.6291458,50.458451]]]}},{"type":"Feature","id":"way/186547268","properties":{"@id":"way/186547268","abandoned_building":"yes","addr:housenumber":"40","addr:street":"Попудренка вулиця","building":"yes","building:levels":"2","note":"У незадовільному санітарно-технічному стані, підлягає знесенню, а мешканці — відселенню","source:abandoned":"rda","height":8},"geometry":{"type":"Polygon","coordinates":[[[30.6278645,50.45849],[30.6280902,50.4581641],[30.6282765,50.4582165],[30.6280508,50.4585423],[30.6278645,50.45849]]]}},{"type":"Feature","id":"way/195750586","properties":{"@id":"way/195750586","abandoned_building":"yes","addr:housenumber":"21а","addr:street":"Федора Максименка вулиця","building":"office","note":"Непридатний для проживання. Мешкають 11 осіб. Підлягає відселенню","source:abandoned":"rda","height":5},"geometry":{"type":"Polygon","coordinates":[[[30.352515,50.5335194],[30.3523338,50.5336638],[30.3520067,50.5334978],[30.3520378,50.5334731],[30.3519946,50.5334512],[30.3521055,50.5333629],[30.3521479,50.5333844],[30.3521872,50.5333531],[30.352515,50.5335194]]]}},{"type":"Feature","id":"way/201525224","properties":{"@id":"way/201525224","abandoned_building":"yes","addr:housenumber":"26","addr:street":"Вознесенський узвіз","building":"collapsed","description":"Стіни згорілого будинку кінця XIX — початку XX століття","source:abandoned":"rda","height":5},"geometry":{"type":"Polygon","coordinates":[[[30.5050333,50.4616042],[30.5049126,50.4614778],[30.5049697,50.4614508],[30.5050333,50.461506],[30.505099,50.4615768],[30.5050333,50.4616042]]]}},{"type":"Feature","id":"way/239974328","properties":{"@id":"way/239974328","abandoned_building":"construction","addr:housenumber":"28","addr:street":"Вознесенський узвіз","building":"yes","description":"Залишки старої будівлі","source:abandoned":"rda","height":5},"geometry":{"type":"Polygon","coordinates":[[[30.5053181,50.4618375],[30.5051316,50.461615],[30.5053947,50.461522],[30.505795,50.4614661],[30.5058742,50.4615626],[30.5053181,50.4618375]]]}},{"type":"Feature","id":"way/283675453","properties":{"@id":"way/283675453","abandoned_building":"yes","building":"yes","note":"Незадовільний стан","source:abandoned":"rda","height":5},"geometry":{"type":"Polygon","coordinates":[[[30.5295518,50.4295614],[30.5294399,50.4293712],[30.5294601,50.4293142],[30.529518,50.4292672],[30.5296018,50.429256],[30.529706,50.4292666],[30.5299186,50.4294153],[30.5297477,50.4295109],[30.5295518,50.4295614]]]}},{"type":"Feature","id":"way/302507565","properties":{"@id":"way/302507565","abandoned_building":"construction","addr:housenumber":"7-9","addr:street":"Василя Порика вулиця","building":"yes","description":"Культурно-концертний центр «Виноградар» (недобудований)","source:abandoned":"rda","height":5},"geometry":{"type":"Polygon","coordinates":[[[30.4145333,50.5109072],[30.4146728,50.5110659],[30.4148096,50.5110232],[30.4146675,50.510781],[30.4146675,50.5107349],[30.4146889,50.5107008],[30.4147479,50.5106872],[30.4148096,50.5106923],[30.4148418,50.5107264],[30.4149062,50.5108356],[30.41511,50.5108066],[30.415338,50.5111341],[30.4153005,50.5112347],[30.4154051,50.5112722],[30.4153514,50.51132],[30.4154051,50.5113644],[30.4153702,50.5113916],[30.415279,50.5113644],[30.4152334,50.5113644],[30.4152039,50.5113831],[30.4150591,50.5113405],[30.4149705,50.5114155],[30.4148203,50.5114053],[30.4147747,50.5114309],[30.414697,50.5114445],[30.4146299,50.5114258],[30.4145897,50.5113831],[30.4145816,50.5113439],[30.4146594,50.511291],[30.4147291,50.5112415],[30.4146353,50.5111801],[30.4145441,50.5111955],[30.4144636,50.5111904],[30.4143429,50.5111563],[30.4142812,50.5110846],[30.4143322,50.5110079],[30.4143751,50.5109448],[30.4145333,50.5109072]]]}},{"type":"Feature","id":"way/309177004","properties":{"@id":"way/309177004","abandoned_building":"yes","addr:housenumber":"10","addr:postcode":"03115","addr:street":"Івана Крамського вулиця","building":"yes","description":"Довгобуд. 30% будівельної готовності","source:abandoned":"rda","height":5},"geometry":{"type":"Polygon","coordinates":[[[30.3719331,50.4531245],[30.3720604,50.4531308],[30.3720553,50.4531722],[30.3720297,50.4533825],[30.3721152,50.4533867],[30.3721114,50.4534179],[30.3721066,50.4534575],[30.3719651,50.4534505],[30.3719622,50.4534742],[30.3717661,50.4534645],[30.371776,50.4533835],[30.3718216,50.4533858],[30.3718294,50.4533219],[30.3716496,50.4533131],[30.3716614,50.4532166],[30.3718262,50.4532248],[30.3718347,50.4531553],[30.3719287,50.4531599],[30.3719331,50.4531245]]]}},{"type":"Feature","id":"way/310341769","properties":{"@id":"way/310341769","abandoned_building":"yes","addr:housenumber":"27","addr:street":"Краківська вулиця","building":"yes","building:levels":"2","note":"У незадовільному санітарно-технічному стані, підлягає знесенню, а мешканці — відселенню","source:abandoned":"rda","height":8},"geometry":{"type":"Polygon","coordinates":[[[30.6303686,50.457265],[30.6304637,50.4571319],[30.6307494,50.4572147],[30.6306542,50.4573478],[30.6303686,50.457265]]]}},{"type":"Feature","id":"way/310341770","properties":{"@id":"way/310341770","abandoned_building":"yes","addr:housenumber":"25Б","addr:street":"Краківська вулиця","building":"yes","building:levels":"2","note":"У незадовільному санітарно-технічному стані, підлягає знесенню, а мешканці — відселенню","source:abandoned":"rda","height":8},"geometry":{"type":"Polygon","coordinates":[[[30.6295846,50.4576493],[30.6296711,50.4575266],[30.6299382,50.457603],[30.6298517,50.4577257],[30.6295846,50.4576493]]]}},{"type":"Feature","id":"way/310341771","properties":{"@id":"way/310341771","abandoned_building":"yes","addr:housenumber":"44а","addr:street":"Попудренка вулиця","building":"yes","building:levels":"2","note":"У незадовільному санітарно-технічному стані, підлягає знесенню, а мешканці — відселенню","source:abandoned":"rda","height":8},"geometry":{"type":"Polygon","coordinates":[[[30.6291672,50.458251],[30.6292624,50.4581157],[30.6295231,50.45819],[30.6294279,50.4583254],[30.6291672,50.458251]]]}},{"type":"Feature","id":"way/311487356","properties":{"@id":"way/311487356","abandoned_building":"yes","addr:housenumber":"24","addr:street":"Далека вулиця","building":"yes","building:levels":"1","description":"Житловий будинок в аварійному стані","source:abandoned":"rda","height":4},"geometry":{"type":"Polygon","coordinates":[[[30.4181597,50.4244646],[30.418053,50.4243982],[30.4182686,50.4242575],[30.4183753,50.4243238],[30.4181597,50.4244646]]]}},{"type":"Feature","id":"way/311487363","properties":{"@id":"way/311487363","abandoned_building":"yes","addr:housenumber":"5","addr:street":"Яна Райніса вулиця","building":"yes","building:levels":"1","description":"Житловий будинок в аварійному стані","source:abandoned":"rda","height":4},"geometry":{"type":"Polygon","coordinates":[[[30.4176986,50.4253616],[30.4178005,50.4252956],[30.4179635,50.4253978],[30.4178617,50.4254638],[30.4176986,50.4253616]]]}},{"type":"Feature","id":"way/311487365","properties":{"@id":"way/311487365","abandoned_building":"yes","addr:housenumber":"22","addr:street":"Далека вулиця","building":"yes","building:levels":"1","description":"Житловий будинок в аварійному стані","source:abandoned":"rda","height":4},"geometry":{"type":"Polygon","coordinates":[[[30.4177968,50.4247075],[30.4177061,50.4246497],[30.4178454,50.4245609],[30.4179362,50.4246187],[30.4177968,50.4247075]]]}},{"type":"Feature","id":"way/311487371","properties":{"@id":"way/311487371","abandoned_building":"yes","addr:housenumber":"18","addr:street":"Академіка Потебні вулиця","building":"yes","building:levels":"1","note":"Будівля в аварійному стані","source:abandoned":"rda","height":4},"geometry":{"type":"Polygon","coordinates":[[[30.4187405,50.4255032],[30.4186459,50.4254366],[30.4188141,50.4253395],[30.4189087,50.425406],[30.4187405,50.4255032]]]}},{"type":"Feature","id":"way/311487375","properties":{"@id":"way/311487375","abandoned_building":"yes","addr:housenumber":"20","addr:street":"Академіка Потебні вулиця","building":"yes","building:levels":"1","note":"Будівля в аварійному стані","source:abandoned":"rda","height":4},"geometry":{"type":"Polygon","coordinates":[[[30.418591,50.4250895],[30.4186725,50.4250376],[30.4187908,50.4251129],[30.4187093,50.4251649],[30.418591,50.4250895]]]}},{"type":"Feature","id":"way/311487380","properties":{"@id":"way/311487380","abandoned_building":"yes","addr:housenumber":"23","addr:street":"Далека вулиця","building":"yes","building:levels":"1","description":"Житловий будинок в аварійному стані","source:abandoned":"rda","height":4},"geometry":{"type":"Polygon","coordinates":[[[30.4183411,50.4249387],[30.4184342,50.4248815],[30.4185815,50.4249786],[30.4184884,50.4250359],[30.4183411,50.4249387]]]}},{"type":"Feature","id":"way/311487382","properties":{"@id":"way/311487382","abandoned_building":"yes","addr:housenumber":"22","addr:street":"Академіка Потебні вулиця","building":"yes","building:levels":"1","note":"Будівля в аварійному стані","source:abandoned":"rda","height":4},"geometry":{"type":"Polygon","coordinates":[[[30.4192563,50.4251331],[30.4191603,50.4250719],[30.4193759,50.4249345],[30.4194719,50.4249957],[30.4192563,50.4251331]]]}},{"type":"Feature","id":"way/311487390","properties":{"@id":"way/311487390","abandoned_building":"yes","addr:housenumber":"4","addr:street":"Яна Райніса вулиця","building":"yes","building:levels":"1","description":"Житловий будинок в аварійному стані","source:abandoned":"rda","height":4},"geometry":{"type":"Polygon","coordinates":[[[30.4176388,50.4257087],[30.4177329,50.4256478],[30.4178933,50.4257483],[30.4177992,50.4258092],[30.4176388,50.4257087]]]}},{"type":"Feature","id":"way/311487396","properties":{"@id":"way/311487396","abandoned_building":"yes","addr:housenumber":"24","addr:street":"Академіка Потебні вулиця","building":"yes","building:levels":"1","note":"Будівля в аварійному стані","source:abandoned":"rda","height":4},"geometry":{"type":"Polygon","coordinates":[[[30.4188487,50.4248901],[30.4187442,50.4248227],[30.4189388,50.4247004],[30.4190433,50.4247678],[30.4188487,50.4248901]]]}},{"type":"Feature","id":"way/313187241","properties":{"@id":"way/313187241","abandoned_building":"construction","addr:housenumber":"28/1","addr:street":"В’ячеслава Чорновола вулиця","building":"construction","construction":"hospital","description":"Сучасний лікувально-діагностичний комплекс Національної дитячої спеціалізованої лікарні \"Охматдит\"","name":"Багатофункціональний корпус","name:ru":"Многофункциональный корпус","source:abandoned":"rda","height":5},"geometry":{"type":"Polygon","coordinates":[[[30.4810767,50.4516232],[30.4809054,50.4517926],[30.4805891,50.451663],[30.4807353,50.4515184],[30.4806059,50.4514653],[30.4807038,50.4513685],[30.4804526,50.4512656],[30.4806913,50.4510294],[30.4805849,50.4507169],[30.4810625,50.450651],[30.4811463,50.4508971],[30.4814472,50.4510204],[30.481465,50.4510027],[30.4816419,50.4510752],[30.4815405,50.4511754],[30.4815188,50.4511665],[30.4814709,50.4512139],[30.4816588,50.4512909],[30.4815766,50.4513722],[30.4818301,50.4514761],[30.4816307,50.4516734],[30.4813994,50.4515787],[30.4810767,50.4516232]]]}},{"type":"Feature","id":"way/316564128","properties":{"@id":"way/316564128","abandoned_building":"construction","addr:housenumber":"34","addr:street":"Перемоги проспект","building":"construction","building:levels":"6","description":"Навчально-лабораторний комплекс Національного медичного унівеситету ім. О.О. Богомольця. Довгобуд","source:abandoned":"rda","height":24},"geometry":{"type":"Polygon","coordinates":[[[30.4551293,50.4538714],[30.4551805,50.4538619],[30.4551686,50.4538359],[30.4552796,50.4538153],[30.4552915,50.4538414],[30.4555396,50.4537955],[30.4556601,50.4540594],[30.4556762,50.4540945],[30.4557306,50.4542137],[30.4553919,50.4542764],[30.4553621,50.4542111],[30.4552905,50.4542244],[30.4551293,50.4538714]]]}},{"type":"Feature","id":"way/316564134","properties":{"@id":"way/316564134","abandoned_building":"construction","addr:housenumber":"34","addr:street":"Перемоги проспект","building":"construction","building:levels":"22","description":"Навчально-лабораторний комплекс Національного медичного унівеситету ім. О.О. Богомольця. Довгобуд","name:en":"Educational Laboratory building","source:abandoned":"rda","height":88},"geometry":{"type":"Polygon","coordinates":[[[30.4560312,50.4539008],[30.4560596,50.4539619],[30.4561149,50.4540851],[30.4561355,50.4541293],[30.4557623,50.4541984],[30.4557119,50.4540879],[30.4556958,50.4540527],[30.455658,50.4539699],[30.4560312,50.4539008]]]}},{"type":"Feature","id":"way/317634879","properties":{"@id":"way/317634879","abandoned_building":"yes","addr:city":"Київ","addr:housenumber":"8","addr:street":"Михайла Котельникова вулиця","building":"yes","building:levels":"1","note":"Нежитлове приміщення (Гурток авіамоделювання)","source:abandoned":"rda","height":4},"geometry":{"type":"Polygon","coordinates":[[[30.3842518,50.4528563],[30.3842349,50.4529492],[30.3844091,50.452962],[30.3844034,50.4529932],[30.3841445,50.4529742],[30.3841723,50.4528207],[30.3841913,50.4527163],[30.3841988,50.4526748],[30.3844277,50.4526916],[30.3843959,50.4528668],[30.3842518,50.4528563]]]}},{"type":"Feature","id":"way/323475380","properties":{"@id":"way/323475380","abandoned_building":"construction","addr:housenumber":"22","addr:street":"Сім’ї Кульженків вулиця","building":"apartments","building:levels":"9","note":"Закинутий будинок ЖК «Family Town»","source:abandoned":"rda","height":36},"geometry":{"type":"Polygon","coordinates":[[[30.4671923,50.5150594],[30.4669397,50.5150499],[30.4669831,50.5145825],[30.4672357,50.514592],[30.4671923,50.5150594]]]}},{"type":"Feature","id":"way/341265755","properties":{"@id":"way/341265755","abandoned_building":"construction","addr:housenumber":"26а","addr:street":"Перемоги проспект","building":"construction","building:levels":"25","description":"Будівля недобудованого житлового комплексу «Smart Plaza». Навесні 2016 року було відновлено будівництво оновленої концепції проекту","source:abandoned":"rda","height":100},"geometry":{"type":"Polygon","coordinates":[[[30.4677769,50.4518934],[30.4677921,50.4519317],[30.4675722,50.451967],[30.4675572,50.4519289],[30.4674769,50.4519418],[30.4674215,50.4518025],[30.4675021,50.4517895],[30.4674807,50.4517352],[30.4677005,50.4517],[30.4677219,50.4517541],[30.4677972,50.4517419],[30.4678526,50.4518813],[30.4677769,50.4518934]]]}},{"type":"Feature","id":"way/343439740","properties":{"@id":"way/343439740","abandoned_building":"construction","building":"yes","note":"Недобудований опіковий центр","source:abandoned":"rda","height":5},"geometry":{"type":"Polygon","coordinates":[[[30.5874227,50.5318283],[30.587213,50.5316986],[30.5870696,50.5317541],[30.5869425,50.5316522],[30.5870371,50.5316096],[30.5869598,50.531569],[30.5864926,50.5315512],[30.5864305,50.531588],[30.5865048,50.5316206],[30.5863529,50.53172],[30.5862745,50.5316767],[30.5859674,50.5318696],[30.5857556,50.5317542],[30.5862653,50.531421],[30.5856629,50.5310893],[30.5858761,50.5309522],[30.5861709,50.531148],[30.586271,50.5310823],[30.5864183,50.5311707],[30.5865258,50.5310994],[30.5866434,50.5310912],[30.5867483,50.5311161],[30.5867875,50.5311711],[30.5868578,50.5311776],[30.586917,50.5314079],[30.5871251,50.5314038],[30.5872601,50.5314489],[30.5876379,50.5316694],[30.5876785,50.5316413],[30.5877286,50.5316706],[30.5876467,50.5317273],[30.5876758,50.5317443],[30.5875781,50.5318066],[30.587533,50.5317839],[30.5874227,50.5318283]]]}},{"type":"Feature","id":"way/343439742","properties":{"@id":"way/343439742","abandoned_building":"construction","building":"yes","note":"Недобудований опіковий центр","source:abandoned":"rda","height":5},"geometry":{"type":"Polygon","coordinates":[[[30.5822313,50.5319851],[30.5823394,50.5320401],[30.582387,50.5320099],[30.5824281,50.532036],[30.5823892,50.5320703],[30.5824432,50.5321047],[30.5823264,50.532183],[30.5824627,50.5322435],[30.5830508,50.5322229],[30.583161,50.5321418],[30.5830378,50.5320717],[30.5831178,50.5320195],[30.5830767,50.5320002],[30.5831135,50.5319741],[30.5831502,50.531992],[30.5832259,50.531937],[30.5834854,50.5320882],[30.5832281,50.5322737],[30.5832605,50.5322944],[30.5832172,50.532326],[30.5831891,50.5323095],[30.5830443,50.532407],[30.5824951,50.5324304],[30.5823243,50.5323328],[30.5822919,50.5323603],[30.5822464,50.5323315],[30.5822832,50.5323108],[30.5820021,50.5321555],[30.5822313,50.5319851]]]}},{"type":"Feature","id":"way/362615903","properties":{"@id":"way/362615903","abandoned_building":"construction","building":"yes","building:levels":"1","description":"Реконструкція з прибудовою середньої школи №42 на 1100 учнів. Земельна ділянка огороджена. Розроблено котлован під прибудову до школи. Будівельні роботи не здійснюються","source:abandoned":"rda","height":4},"geometry":{"type":"Polygon","coordinates":[[[30.6367249,50.4359393],[30.6367386,50.4358288],[30.6368205,50.435833],[30.6368217,50.4358239],[30.6368627,50.435826],[30.6368479,50.4359455],[30.6367249,50.4359393]]]}},{"type":"Feature","id":"way/362756677","properties":{"@id":"way/362756677","abandoned_building":"construction","addr:housenumber":"9-17","addr:street":"Астраханська вулиця","building":"yes","description":"Будівництво центру зайнятості (призупинене)","note":"Довгобуд. Змонтовано частину каркасу. Будівельні роботи призупинені","source:abandoned":"rda","height":5},"geometry":{"type":"Polygon","coordinates":[[[30.6407123,50.437155],[30.6406395,50.4371015],[30.6406101,50.4371177],[30.6403113,50.4368978],[30.6403452,50.4368791],[30.6402754,50.4368277],[30.6404829,50.4367134],[30.6406025,50.4368013],[30.6406519,50.4367741],[30.6406401,50.4367654],[30.6409044,50.4366197],[30.6409188,50.4366303],[30.6411408,50.4365078],[30.6410311,50.4364272],[30.6412834,50.436288],[30.6413584,50.4363432],[30.6414272,50.4363052],[30.6417081,50.4365118],[30.6416374,50.4365508],[30.6416932,50.4365919],[30.6414393,50.4367319],[30.6413212,50.4366451],[30.6407736,50.4369472],[30.6409088,50.4370466],[30.6407123,50.437155]]]}},{"type":"Feature","id":"way/367764966","properties":{"@id":"way/367764966","abandoned_building":"yes","addr:city":"Київ","addr:housenumber":"58/2в","addr:postcode":"04050","addr:street":"Січових Стрільців вулиця","building":"yes","note":"Аварійна будівля. Проведено реконструкцію, але розпорядження не скасовано","source:abandoned":"rda","height":5},"geometry":{"type":"Polygon","coordinates":[[[30.490708,50.4570308],[30.490599,50.4568398],[30.4908119,50.4567905],[30.4909209,50.4569816],[30.490708,50.4570308]]]}},{"type":"Feature","id":"way/369873168","properties":{"@id":"way/369873168","abandoned_landuse":"construction","landuse":"construction","note":"Є залишки старої будівлі. Заплановано побудувати офісно-житловий центр","source:abandoned":"rda","height":5},"geometry":{"type":"Polygon","coordinates":[[[30.4895625,50.458945],[30.4893586,50.458846],[30.4895847,50.4586859],[30.4898025,50.4588083],[30.4895625,50.458945]]]}},{"type":"Feature","id":"way/371753314","properties":{"@id":"way/371753314","abandoned_building":"yes","addr:housenumber":"14а","addr:street":"Новикова-Прибоя вулиця","building":"yes","note":"Непридатний для проживання. Проживають 6 осіб. Підлягає відселенню","source:abandoned":"rda","height":5},"geometry":{"type":"Polygon","coordinates":[[[30.3610363,50.5289782],[30.3611615,50.5290312],[30.3611375,50.5290541],[30.3611484,50.5290587],[30.3611995,50.52901],[30.3612687,50.5290393],[30.3612512,50.529056],[30.3612686,50.5290634],[30.3612284,50.5291017],[30.3612077,50.5290929],[30.3611418,50.5291557],[30.3609399,50.5290702],[30.3610363,50.5289782]]]}},{"type":"Feature","id":"way/372153458","properties":{"@id":"way/372153458","abandoned_building":"yes","addr:housenumber":"86","addr:street":"Федора Максименка вулиця","building":"yes","note":"Будівля в аварійному стані, непридатний для проживання. Мешканців відселено","source:abandoned":"rda","height":5},"geometry":{"type":"Polygon","coordinates":[[[30.334997,50.5508241],[30.3351772,50.5509043],[30.3350264,50.5510411],[30.3348462,50.5509609],[30.334997,50.5508241]]]}},{"type":"Feature","id":"way/372158646","properties":{"@id":"way/372158646","abandoned_building":"yes","addr:housenumber":"67а","addr:street":"Квітки Цісик вулиця","building":"yes","description":"Житловий будинок, непридатний для проживання. Мешканців відселено","source:abandoned":"rda","height":5},"geometry":{"type":"Polygon","coordinates":[[[30.3394783,50.5508841],[30.3393734,50.5508216],[30.3394059,50.5507996],[30.3395108,50.550862],[30.3394783,50.5508841]]]}},{"type":"Feature","id":"way/372781499","properties":{"@id":"way/372781499","abandoned_building":"yes","addr:housenumber":"27","addr:street":"Ясногірська вулиця","building":"yes","building:levels":"2","note":"Будівля в аварійному стані. Непридатний для проживання","source:abandoned":"rda","height":8},"geometry":{"type":"Polygon","coordinates":[[[30.4389303,50.4825307],[30.4387921,50.4826061],[30.4385409,50.4824196],[30.4386791,50.4823443],[30.4389303,50.4825307]]]}},{"type":"Feature","id":"way/380011019","properties":{"@id":"way/380011019","abandoned_building":"construction","addr:housenumber":"115а","addr:street":"Перемоги проспект","building":"construction","building:levels":"13","note":"Будівництво житлового комплексу, 50% будівельної готовності","source:abandoned":"rda","height":52},"geometry":{"type":"Polygon","coordinates":[[[30.3652021,50.455255],[30.3656862,50.4552875],[30.3656724,50.4553708],[30.3660191,50.455394],[30.3660631,50.4551276],[30.3663326,50.4551456],[30.366257,50.455603],[30.3659876,50.455585],[30.3659904,50.4555678],[30.3651596,50.4555122],[30.3652021,50.455255]]]}},{"type":"Feature","id":"way/380011021","properties":{"@id":"way/380011021","abandoned_building":"construction","addr:housenumber":"115а","addr:street":"Перемоги проспект","building":"construction","building:levels":"7","note":"Будівництво житлового комплексу, 50% будівельної готовності","source:abandoned":"rda","height":28},"geometry":{"type":"Polygon","coordinates":[[[30.3648587,50.4554956],[30.3645874,50.4554831],[30.3646399,50.455023],[30.3649112,50.4550355],[30.3648587,50.4554956]]]}},{"type":"Feature","id":"way/419449730","properties":{"@id":"way/419449730","abandoned_building":"construction","description":"Недобудований дитячий садок","landuse":"construction","source:abandoned":"rda","height":5},"geometry":{"type":"Polygon","coordinates":[[[30.6489047,50.3965339],[30.6489001,50.3959712],[30.6490869,50.3955693],[30.6501983,50.3955276],[30.6502824,50.3956169],[30.6505252,50.396135],[30.6505299,50.3965309],[30.6489047,50.3965339]]]}},{"type":"Feature","id":"way/419683961","properties":{"@id":"way/419683961","abandoned_building":"construction","addr:housenumber":"26","addr:street":"Генерала Жмаченка вулиця","building":"yes","note":"Будівництво не відбувається, є тільки фундамент","source:abandoned":"rda","height":5},"geometry":{"type":"Polygon","coordinates":[[[30.6107483,50.4685817],[30.6104648,50.4686758],[30.6102707,50.4682542],[30.6106528,50.4682561],[30.6110225,50.46826],[30.611081,50.4684856],[30.6107483,50.4685817]]]}},{"type":"Feature","id":"way/419698163","properties":{"@id":"way/419698163","abandoned_building":"yes","addr:housenumber":"16","addr:street":"Академіка Потебні вулиця","building":"yes","building:levels":"1","note":"Будівля в аварійному стані","source:abandoned":"rda","height":4},"geometry":{"type":"Polygon","coordinates":[[[30.418526,50.4256284],[30.4184321,50.4255625],[30.4186137,50.4254574],[30.4187076,50.4255233],[30.418526,50.4256284]]]}},{"type":"Feature","id":"way/419698164","properties":{"@id":"way/419698164","abandoned_building":"yes","addr:housenumber":"3","addr:street":"Яна Райніса вулиця","building":"house","building:levels":"1","description":"Житловий будинок в аварійному стані","source:abandoned":"rda","height":4},"geometry":{"type":"Polygon","coordinates":[[[30.4180433,50.4255625],[30.4179305,50.4254915],[30.4179966,50.4254489],[30.4181094,50.4255198],[30.4180433,50.4255625]]]}},{"type":"Feature","id":"way/419853043","properties":{"@id":"way/419853043","abandoned_building":"yes","addr:housenumber":"25Б","addr:street":"Саксаганського вулиця","building":"house","note":"Будинок в аварійному стані","source:abandoned":"rda","height":5},"geometry":{"type":"Polygon","coordinates":[[[30.5151601,50.4351601],[30.5151592,50.4352459],[30.5149257,50.4352449],[30.5149265,50.4351591],[30.5151601,50.4351601]]]}},{"type":"Feature","id":"way/419944137","properties":{"@id":"way/419944137","abandoned_landuse":"construction","landuse":"construction","note":"Довгобуд. Більше 5 років ділянка огороджена металевою сіткою","source:abandoned":"rda","height":5},"geometry":{"type":"Polygon","coordinates":[[[30.5236117,50.4437025],[30.5232943,50.4437986],[30.523091,50.4434494],[30.5232512,50.4434219],[30.5234545,50.4433964],[30.5235131,50.4435435],[30.5236117,50.4437025]]]}},{"type":"Feature","id":"way/420019511","properties":{"@id":"way/420019511","abandoned_building":"yes","addr:housenumber":"6","addr:street":"Вікентія Хвойки вулиця","building":"yes","building:levels":"2","note":"Аварійно-небезпечний стан","source:abandoned":"rda","height":8},"geometry":{"type":"Polygon","coordinates":[[[30.4802647,50.4809258],[30.4800839,50.4807679],[30.4802325,50.480699],[30.4804133,50.4808569],[30.4802647,50.4809258]]]}},{"type":"Feature","id":"way/420036654","properties":{"@id":"way/420036654","abandoned":"yes","description":"Будівництво офісно-торгівельного центру ","landuse":"construction","source:abandoned":"rda","height":5},"geometry":{"type":"Polygon","coordinates":[[[30.464033,50.4709774],[30.4639409,50.4705066],[30.4644754,50.4705201],[30.4647337,50.4705269],[30.4648045,50.4705787],[30.464798,50.4708033],[30.4641213,50.4710226],[30.464033,50.4709774]]]}},{"type":"Feature","id":"way/420038618","properties":{"@id":"way/420038618","abandoned_building":"construction","building":"yes","note":"Недобудований опіковий центр","source:abandoned":"rda","height":5},"geometry":{"type":"Polygon","coordinates":[[[30.5852522,50.5316063],[30.5849465,50.531429],[30.5852415,50.531221],[30.5853541,50.5311869],[30.585676,50.5313676],[30.5857028,50.5315006],[30.5855902,50.5315893],[30.5852522,50.5316063]]]}},{"type":"Feature","id":"way/420038619","properties":{"@id":"way/420038619","abandoned_building":"construction","building":"yes","note":"Недобудований опіковий центр","source:abandoned":"rda","height":5},"geometry":{"type":"Polygon","coordinates":[[[30.5848153,50.5320195],[30.5842341,50.5317121],[30.5837416,50.5320883],[30.5835016,50.5319613],[30.5838682,50.5316814],[30.583836,50.5313438],[30.5833685,50.5310872],[30.5836203,50.5309019],[30.5841594,50.5311977],[30.5846124,50.5308642],[30.584883,50.5310127],[30.5844797,50.5313097],[30.5844958,50.53162],[30.5849936,50.5318833],[30.5848153,50.5320195]]]}},{"type":"Feature","id":"way/420038621","properties":{"@id":"way/420038621","abandoned_building":"construction","building":"yes","note":"Недобудований опіковий центр","source:abandoned":"rda","height":5},"geometry":{"type":"Polygon","coordinates":[[[30.5822151,50.5318726],[30.582021,50.5317621],[30.5823125,50.5315552],[30.5829831,50.5315075],[30.5833353,50.5317186],[30.5831238,50.5318611],[30.5829386,50.53175],[30.582747,50.5318791],[30.5825271,50.5318825],[30.5823462,50.5317796],[30.5822151,50.5318726]]]}},{"type":"Feature","id":"way/420038623","properties":{"@id":"way/420038623","abandoned_building":"construction","building":"yes","note":"Недобудований опіковий центр","source:abandoned":"rda","height":5},"geometry":{"type":"Polygon","coordinates":[[[30.583253,50.5307676],[30.5828651,50.5310778],[30.5825539,50.5311255],[30.5821999,50.5310403],[30.5817761,50.5308289],[30.5821891,50.5306345],[30.5824949,50.5307777],[30.5826451,50.5307641],[30.5828791,50.5305778],[30.583253,50.5307676]]]}},{"type":"Feature","id":"way/420038625","properties":{"@id":"way/420038625","abandoned_building":"construction","building":"yes","note":"Недобудований опіковий центр","source:abandoned":"rda","height":5},"geometry":{"type":"Polygon","coordinates":[[[30.5853735,50.5324117],[30.5852815,50.5323577],[30.5837455,50.5324297],[30.5835897,50.5323667],[30.5837313,50.5323217],[30.5852815,50.5322452],[30.5853735,50.5322002],[30.5866171,50.5321511],[30.5866378,50.5323617],[30.5853735,50.5324117]]]}},{"type":"Feature","id":"way/420038626","properties":{"@id":"way/420038626","abandoned_building":"construction","building":"yes","note":"Недобудований опіковий центр","source:abandoned":"rda","height":5},"geometry":{"type":"Polygon","coordinates":[[[30.5868014,50.5323466],[30.5867864,50.5321884],[30.5872898,50.5321691],[30.5874236,50.5322411],[30.5873091,50.5323271],[30.5868014,50.5323466]]]}},{"type":"Feature","id":"way/420048756","properties":{"@id":"way/420048756","abandoned_building":"construction","addr:housenumber":"35","addr:street":"Драгоманова вулиця","building":"yes","description":"Будівництво житлового будинку","source:abandoned":"rda","height":5},"geometry":{"type":"Polygon","coordinates":[[[30.6375414,50.4069913],[30.6377549,50.4066138],[30.6380852,50.4066897],[30.6378716,50.4070672],[30.6375414,50.4069913]]]}},{"type":"Feature","id":"way/420245955","properties":{"@id":"way/420245955","abandoned_building":"construction","addr:housenumber":"21","addr:street":"Братиславська вулиця","building":"yes","description":"Незавершене будівництво кінно-спортивної бази","source:abandoned":"rda","height":5},"geometry":{"type":"Polygon","coordinates":[[[30.6149471,50.4773715],[30.6152217,50.4774438],[30.6150397,50.4777157],[30.6147774,50.4776435],[30.6149471,50.4773715]]]}},{"type":"Feature","id":"way/420247071","properties":{"@id":"way/420247071","abandoned_landuse":"construction","description":"Будівництво торговельно-складських приміщень на вул. Братиславській, 48-А","landuse":"construction","source:abandoned":"rda","height":5},"geometry":{"type":"Polygon","coordinates":[[[30.6128812,50.4881811],[30.6126795,50.4881743],[30.6125946,50.4882216],[30.6125486,50.4882667],[30.6124849,50.4882892],[30.612184,50.4882036],[30.6121345,50.4881676],[30.6120991,50.4881608],[30.612046,50.4881653],[30.6116992,50.4880708],[30.6121416,50.4874132],[30.6122088,50.4873615],[30.6123256,50.4873367],[30.6124424,50.4873434],[30.6134298,50.4879447],[30.6131892,50.4881316],[30.6128812,50.4881811]]]}},{"type":"Feature","id":"way/420253679","properties":{"@id":"way/420253679","abandoned_building":"construction","addr:housenumber":"30","addr:street":"Будівельників вулиця","building":"yes","description":"Прибудова будинку з вбудованими офісними приміщеннями, магазином непродовольчих товарів на 1-му поверсі та підземним паркінгом до реконструйованого будинку на вул. Будівельників 30","source:abandoned":"rda","height":5},"geometry":{"type":"Polygon","coordinates":[[[30.6146911,50.4512571],[30.6143113,50.4518161],[30.6140287,50.4517383],[30.6144085,50.4511793],[30.6146911,50.4512571]]]}},{"type":"Feature","id":"way/420292674","properties":{"@id":"way/420292674","abandoned_building":"yes","addr:housenumber":"14/2","addr:street":"Академіка Потебні вулиця","building":"yes","building:levels":"1","note":"Будівля в аварійному стані ","source:abandoned":"rda","height":4},"geometry":{"type":"Polygon","coordinates":[[[30.4179895,50.4259993],[30.4179181,50.4259542],[30.4180809,50.4258495],[30.4181524,50.4258947],[30.4179895,50.4259993]]]}},{"type":"Feature","id":"way/420302221","properties":{"@id":"way/420302221","abandoned_building":"yes","addr:housenumber":"33а","addr:street":"Пушкінська вулиця","building":"yes","building:levels":"2","note":"Дитячий дошкільний заклад № 183 (в аварійному стані)","source:abandoned":"rda","height":8},"geometry":{"type":"Polygon","coordinates":[[[30.5176706,50.4416977],[30.5176108,50.4415601],[30.5181028,50.4414734],[30.5181625,50.441611],[30.5176706,50.4416977]]]}},{"type":"Feature","id":"way/420318696","properties":{"@id":"way/420318696","abandoned_building":"yes","addr:housenumber":"4б","addr:street":"Саксаганського вулиця","building":"house","note":"Будинок тривалий час зачинений","source:abandoned":"rda","height":5},"geometry":{"type":"Polygon","coordinates":[[[30.519903,50.4364794],[30.5199032,50.4364231],[30.5201395,50.4364235],[30.5201396,50.4363704],[30.5202243,50.4363705],[30.5202239,50.4364798],[30.519903,50.4364794]]]}},{"type":"Feature","id":"way/420367198","properties":{"@id":"way/420367198","abandoned_building":"construction","addr:housenumber":"5","addr:street":"Академіка Єфремова вулиця","building":"yes","note":"Довгобуд. 15% будівельної готовності","source:abandoned":"rda","height":5},"geometry":{"type":"Polygon","coordinates":[[[30.3510421,50.4643064],[30.3510944,50.4640076],[30.3518173,50.4640589],[30.351765,50.4643577],[30.3510421,50.4643064]]]}},{"type":"Feature","id":"way/420390878","properties":{"@id":"way/420390878","abandoned_building":"yes","addr:housenumber":"24","addr:street":"Андріївський узвіз","building":"house","building:levels":"3","note":"Аварійно-небезпечний стан. Балансоутримувач — невідомий","source:abandoned":"rda","height":12},"geometry":{"type":"Polygon","coordinates":[[[30.5156502,50.4597513],[30.5154267,50.4597473],[30.5154318,50.4596194],[30.515655,50.4596223],[30.5156502,50.4597513]]]}},{"type":"Feature","id":"way/420483412","properties":{"@id":"way/420483412","abandoned_building":"construction","description":"Незавершене будівництво за адресою Флоренції, 9","landuse":"construction","note":"Земельна ділянка не огороджена. Розроблено котлован. Будівельні роботи не здійснюються","source:abandoned":"rda","height":5},"geometry":{"type":"Polygon","coordinates":[[[30.596049,50.4463532],[30.5962751,50.4460088],[30.5964172,50.4459131],[30.5965237,50.4459415],[30.5963929,50.4461408],[30.5965262,50.4461763],[30.5963564,50.446435],[30.596049,50.4463532]]]}},{"type":"Feature","id":"way/420495454","properties":{"@id":"way/420495454","abandoned_landuse":"construction","description":"Довгобуд, незадовільний стан","landuse":"construction","source:abandoned":"rda","height":5},"geometry":{"type":"Polygon","coordinates":[[[30.5030198,50.4706501],[30.5027784,50.4705169],[30.5031727,50.4702421],[30.5032934,50.4702284],[30.5037413,50.4704008],[30.5034892,50.4705613],[30.503288,50.4705306],[30.5030198,50.4706501]]]}},{"type":"Feature","id":"way/420497484","properties":{"@id":"way/420497484","abandoned_building":"yes","addr:housenumber":"8","addr:street":"Ярославська вулиця","building":"yes","note":"Аварійно-небезпечний стан","source:abandoned":"rda","height":5},"geometry":{"type":"Polygon","coordinates":[[[30.5105815,50.4669365],[30.5103545,50.4667872],[30.5104905,50.4667033],[30.5107176,50.4668526],[30.5105815,50.4669365]]]}},{"type":"Feature","id":"way/420573969","properties":{"@id":"way/420573969","abandoned_building":"construction","addr:housenumber":"28","addr:street":"Льва Толстого вулиця","building":"yes","description":"Будівництво багаторівневого паркінгу. Довгобуд, будівельна готовність — 35%","source:abandoned":"rda","height":5},"geometry":{"type":"Polygon","coordinates":[[[30.4926253,50.4383577],[30.4929217,50.4385361],[30.4915962,50.4395048],[30.491352,50.439345],[30.4917102,50.4391148],[30.4917884,50.438897],[30.4926253,50.4383577]]]}},{"type":"Feature","id":"way/420583403","properties":{"@id":"way/420583403","abandoned_building":"yes","addr:housenumber":"6а","addr:street":"Введенська вулиця","building":"yes","building:levels":"4","note":"Визнаний непридатним для проживання. Загальна площа 943 м2. Проживає 20 осіб","source:abandoned":"rda","height":16},"geometry":{"type":"Polygon","coordinates":[[[30.5085661,50.4687113],[30.5084447,50.4687874],[30.5082905,50.4687567],[30.5082617,50.4688152],[30.5081355,50.46879],[30.5082091,50.4686402],[30.5085661,50.4687113]]]}},{"type":"Feature","id":"way/420622907","properties":{"@id":"way/420622907","abandoned_building":"yes","addr:housenumber":"23/3","addr:street":"Боричів Тік вулиця","building":"residential","building:levels":"1","note":"Аварійно-небезпечний стан. Балансоутримувач невідомий","source:abandoned":"rda","height":4},"geometry":{"type":"Polygon","coordinates":[[[30.5178726,50.4607474],[30.517743,50.460617],[30.517962,50.4605288],[30.5180916,50.4606591],[30.5178726,50.4607474]]]}},{"type":"Feature","id":"way/420625433","properties":{"@id":"way/420625433","abandoned_building":"yes","addr:housenumber":"104","addr:street":"Дмитрівська вулиця","building":"house","building:levels":"1","note":"Об'єкт культурної спадщини під загрозою знищення","source:abandoned":"rda","height":4},"geometry":{"type":"Polygon","coordinates":[[[30.486933,50.4569388],[30.4870054,50.4567862],[30.4872184,50.4568272],[30.487146,50.4569798],[30.486933,50.4569388]]]}},{"type":"Feature","id":"way/420755985","properties":{"@id":"way/420755985","abandoned_building":"construction","addr:housenumber":"4а","addr:street":"Валерія Лобановського проспект","building":"yes","description":"Будівництво дитячого навчального закладу. Будівельна готовність — 35%","source:abandoned":"rda","height":5},"geometry":{"type":"Polygon","coordinates":[[[30.4647272,50.4221711],[30.464732,50.4220306],[30.46485,50.4220323],[30.4648581,50.4217934],[30.4650076,50.4217955],[30.4650016,50.4219734],[30.4650635,50.4219743],[30.4650613,50.4220384],[30.4649302,50.4220366],[30.4649256,50.4221738],[30.4647272,50.4221711]]]}},{"type":"Feature","id":"way/420755986","properties":{"@id":"way/420755986","abandoned_building":"construction","addr:housenumber":"4а","addr:street":"Валерія Лобановського проспект","building":"yes","description":"Будівництво дитячого навчального закладу. Будівельна готовність — 35%","source:abandoned":"rda","height":5},"geometry":{"type":"Polygon","coordinates":[[[30.4645508,50.4219612],[30.4644849,50.4218843],[30.4645285,50.4218691],[30.4644487,50.421776],[30.4643986,50.4217935],[30.4643139,50.4216946],[30.4644211,50.4216574],[30.4644302,50.421668],[30.4645472,50.4216273],[30.4647565,50.4218715],[30.4646392,50.4219124],[30.4646512,50.4219263],[30.4645508,50.4219612]]]}},{"type":"Feature","id":"way/420765013","properties":{"@id":"way/420765013","abandoned_building":"construction","addr:housenumber":"8","addr:street":"Георгія Гонгадзе проспект","building":"yes","description":"Недобудований шкільний комбінат харчування","source:abandoned":"rda","height":5},"geometry":{"type":"Polygon","coordinates":[[[30.4106053,50.5095873],[30.4106288,50.5096396],[30.4102383,50.5097106],[30.4100738,50.5093447],[30.4104096,50.5092837],[30.4104295,50.5093278],[30.4105261,50.5093103],[30.4106471,50.5095797],[30.4106053,50.5095873]]]}},{"type":"Feature","id":"way/420769861","properties":{"@id":"way/420769861","abandoned_building":"construction","addr:housenumber":"1","addr:street":"Святошинська площа","building":"yes","note":"Недобудовані секції Г і Д будинку на Святошинській площі, 1","source:abandoned":"rda","height":5},"geometry":{"type":"Polygon","coordinates":[[[30.3632462,50.4584669],[30.3631757,50.4590522],[30.3629055,50.4590379],[30.3629907,50.4584515],[30.3632462,50.4584669]]]}},{"type":"Feature","id":"way/420772546","properties":{"@id":"way/420772546","abandoned_building":"construction","building":"yes","note":"Довгобуд, будівельна готовність 15%","source:abandoned":"rda","height":5},"geometry":{"type":"Polygon","coordinates":[[[30.4426423,50.4437304],[30.4429566,50.4430907],[30.4439215,50.4433249],[30.4435162,50.4439419],[30.4426423,50.4437304]]]}},{"type":"Feature","id":"way/420845573","properties":{"@id":"way/420845573","abandoned_building":"construction","building":"yes","description":"Прибудова до СШ № 320, «Центр розвитку дитячої та юнацької творчості»","note":"Довгобуд, будівельна готовність 6%, Будівництво припинене у 2006 році","source:abandoned":"rda","height":5},"geometry":{"type":"Polygon","coordinates":[[[30.6034757,50.5311532],[30.6034642,50.5310094],[30.6042943,50.5309826],[30.6043058,50.5311264],[30.6034757,50.5311532]]]}},{"type":"Feature","id":"way/420845574","properties":{"@id":"way/420845574","abandoned_building":"construction","building":"yes","description":"Прибудова до СШ № 320, «Центр розвитку дитячої та юнацької творчості»","note":"Довгобуд, будівельна готовність 6%, Будівництво припинене у 2006 році","source:abandoned":"rda","height":5},"geometry":{"type":"Polygon","coordinates":[[[30.6035024,50.5315656],[30.6034899,50.5314154],[30.6043053,50.5313882],[30.6043177,50.5315383],[30.6035024,50.5315656]]]}},{"type":"Feature","id":"way/420845576","properties":{"@id":"way/420845576","abandoned_landuse":"construction","landuse":"construction","name":"Дитяча поліклініка (недобудована)","note":"Будівництво дитячої поліклініки","source:abandoned":"rda","height":5},"geometry":{"type":"Polygon","coordinates":[[[30.6032299,50.5318751],[30.6024093,50.5319227],[30.6022953,50.5318565],[30.6022347,50.5310031],[30.6032527,50.530979],[30.6032299,50.5318751]]]}},{"type":"Feature","id":"way/421028398","properties":{"@id":"way/421028398","abandoned_building":"yes","addr:housenumber":"33б","addr:street":"Велика Васильківська вулиця","building":"yes","note":"Будівля в аварійному стані","source:abandoned":"rda","height":5},"geometry":{"type":"Polygon","coordinates":[[[30.516662,50.4378906],[30.5166632,50.4378034],[30.5169848,50.4378053],[30.5169835,50.4378924],[30.516662,50.4378906]]]}},{"type":"Feature","id":"way/421043493","properties":{"@id":"way/421043493","abandoned_building":"yes","addr:housenumber":"5а","addr:street":"Лісківська вулиця","building":"apartments","building:levels":"10","note":"Потребує капремонту. Ремонт запланований на другий квартал 2016 року","source:abandoned":"rda","height":40},"geometry":{"type":"Polygon","coordinates":[[[30.6050624,50.5229937],[30.6050121,50.5225086],[30.6052189,50.5224889],[30.6052593,50.5230458],[30.6050624,50.5229937]]]}},{"type":"Feature","id":"way/421044750","properties":{"@id":"way/421044750","abandoned_building":"construction","construction":"school","landuse":"construction","note":"Будівництво школи","source:abandoned":"rda","height":5},"geometry":{"type":"Polygon","coordinates":[[[30.5957262,50.5293366],[30.5957408,50.5291007],[30.5953915,50.5289156],[30.5953915,50.5287861],[30.5952605,50.5287769],[30.5952605,50.5284021],[30.5953987,50.5282911],[30.595748,50.5282032],[30.5960391,50.5281801],[30.5960173,50.527699],[30.5969051,50.5276851],[30.5969197,50.5283235],[30.5982151,50.5283559],[30.5982224,50.529184],[30.596665,50.5292071],[30.5961556,50.5293412],[30.5957262,50.5293366]]]}},{"type":"Feature","id":"way/421050904","properties":{"@id":"way/421050904","abandoned_building":"construction","barrier":"fence","landuse":"construction","note":"Довгобуд. Незавершене будівництво. Земельна ділянка огороджена парканом. Змонтовано частину каркасу. Розроблено котлован. Будівельні роботи не здійснюються","source:abandoned":"rda","height":5},"geometry":{"type":"Polygon","coordinates":[[[30.575029,50.4928444],[30.5745838,50.4927455],[30.5742083,50.4927147],[30.5742029,50.4925339],[30.5741868,50.4906568],[30.5750397,50.4906364],[30.5750612,50.4908309],[30.5750129,50.4915646],[30.575029,50.4928444]]]}},{"type":"Feature","id":"way/421096485","properties":{"@id":"way/421096485","abandoned_building":"construction","construction":"fire_station","landuse":"construction","note":"Будівництво пожежного депо","source:abandoned":"rda","height":5},"geometry":{"type":"Polygon","coordinates":[[[30.6307646,50.5223376],[30.630601,50.5219697],[30.6312713,50.5219109],[30.6342199,50.5207528],[30.6342827,50.5211507],[30.6332784,50.5218078],[30.6336495,50.5222722],[30.631983,50.5225203],[30.6308928,50.5225412],[30.6307646,50.5223376]]]}},{"type":"Feature","id":"way/421263109","properties":{"@id":"way/421263109","abandoned_building":"construction","addr:housenumber":"34-42","addr:street":"Отто Шмідта вулиця","building":"yes","description":"Довгобуд «Еліта-центр». Адміністративно-торгівельний комплекс","source:abandoned":"rda","height":5},"geometry":{"type":"Polygon","coordinates":[[[30.4863813,50.4704723],[30.4862,50.4704813],[30.4860069,50.4703601],[30.4857387,50.4703755],[30.4856448,50.4703447],[30.4853766,50.4703482],[30.4852281,50.4704279],[30.4852311,50.4705253],[30.4850012,50.4705333],[30.4849383,50.4702316],[30.4863706,50.4701701],[30.4863813,50.4704723]]]}},{"type":"Feature","id":"way/421268496","properties":{"@id":"way/421268496","abandoned_building":"construction","addr:housenumber":"17-23","addr:street":"Олеся Гончара вулиця","building":"yes","building:levels":"9","description":"ЖК «Fresco Sofia»","name":"ЖК «Fresco Sofia»","source:abandoned":"rda","height":36},"geometry":{"type":"Polygon","coordinates":[[[30.5102765,50.4532252],[30.5104351,50.4531391],[30.5105259,50.4530962],[30.5113231,50.4537116],[30.5112555,50.453744],[30.511087,50.453832],[30.5102765,50.4532252]]]}},{"type":"Feature","id":"way/421284174","properties":{"@id":"way/421284174","abandoned_building":"construction","addr:housenumber":"69","addr:street":"Олеся Гончара вулиця","building":"yes","note":"Недобудований готель","source:abandoned":"rda","height":5},"geometry":{"type":"Polygon","coordinates":[[[30.4964794,50.447842],[30.4965617,50.4477576],[30.4964868,50.447728],[30.4965677,50.4476545],[30.4966721,50.4475533],[30.4966649,50.4474378],[30.4967358,50.4474271],[30.4967664,50.4474287],[30.4968204,50.4474738],[30.4968294,50.4475212],[30.4967676,50.4475846],[30.496851,50.4476221],[30.4968012,50.447684],[30.4969524,50.4477428],[30.4967566,50.4479518],[30.4964794,50.447842]]]}},{"type":"Feature","id":"way/421287911","properties":{"@id":"way/421287911","abandoned_building":"yes","addr:housenumber":"17б","addr:street":"Терещенківська вулиця","building":"yes","building:levels":"3","description":"Будівля в аварійному стані. Непридатний для проживання","fixme":"Неточно нанесені контури межі цього будинку, а також сусідніх будівель","source:abandoned":"rda","height":12},"geometry":{"type":"Polygon","coordinates":[[[30.5151268,50.440943],[30.5150086,50.4406396],[30.5151428,50.4406184],[30.515261,50.4409218],[30.5151268,50.440943]]]}},{"type":"Feature","id":"way/421300542","properties":{"@id":"way/421300542","abandoned_landuse":"construction","description":"Будівництво багатоповерхового паркінгу","landuse":"construction","name":"Будівництво багатоповерхового паркінгу","source:abandoned":"rda","height":5},"geometry":{"type":"Polygon","coordinates":[[[30.5993809,50.5348343],[30.5993675,50.5347473],[30.6009286,50.5346723],[30.6009446,50.5347627],[30.5993809,50.5348343]]]}},{"type":"Feature","id":"way/421305203","properties":{"@id":"way/421305203","abandoned_building":"construction","addr:street":"Перемоги проспект","building":"yes","note":"Адміністративно-технічний корпус з підземним паркінгом ","source:abandoned":"rda","height":5},"geometry":{"type":"Polygon","coordinates":[[[30.2935044,50.4471221],[30.2942523,50.4471169],[30.2942547,50.4472578],[30.2937727,50.4472612],[30.2937796,50.4476635],[30.2935137,50.4476654],[30.2935044,50.4471221]]]}},{"type":"Feature","id":"way/421338258","properties":{"@id":"way/421338258","abandoned_building":"yes","addr:housenumber":"1а","addr:street":"Міста Шалетт вулиця","building":"yes","note":"Довгобуд. Змонтовано перший поверх каркасу, розпочато роботи з монтажу другого поверху. Будівельні роботи не здійснюються","source:abandoned":"rda","height":5},"geometry":{"type":"Polygon","coordinates":[[[30.6123436,50.4665438],[30.6121687,50.4663084],[30.6122862,50.466273],[30.612461,50.4665084],[30.6123436,50.4665438]]]}},{"type":"Feature","id":"way/421375552","properties":{"@id":"way/421375552","abandoned_landuse":"construction","addr:housenumber":"27","addr:street":"Вадима Гетьмана вулиця","description":"Будівництво ділового центру. Довгобуд, будівельна готовність 0%","landuse":"construction","source:abandoned":"rda","height":5},"geometry":{"type":"Polygon","coordinates":[[[30.4445669,50.4406972],[30.4451255,50.440156],[30.4457585,50.4396606],[30.4465041,50.4393326],[30.4465792,50.4398861],[30.4456619,50.4410181],[30.4445669,50.4406972]]]}},{"type":"Feature","id":"way/421796634","properties":{"@id":"way/421796634","abandoned_building":"yes","addr:housenumber":"23в","addr:street":"Нижній Вал вулиця","building":"yes","description":"Визнаний непридатним для проживання. Загальна площа 965 м2. Проживає 29 осіб","fixme":"уточнити контури будинка","source:abandoned":"rda","height":5},"geometry":{"type":"Polygon","coordinates":[[[30.5112252,50.4663014],[30.5111503,50.4662523],[30.5114269,50.4660813],[30.5115018,50.4661304],[30.5112252,50.4663014]]]}},{"type":"Feature","id":"way/421852382","properties":{"@id":"way/421852382","abandoned_landuse":"construction","description":"Система артезіанського водопостачання «Троєщина-2» (недобудована)","landuse":"construction","source:abandoned":"rda","height":5},"geometry":{"type":"Polygon","coordinates":[[[30.5931594,50.5338141],[30.5948416,50.5318831],[30.5980767,50.5328741],[30.5978364,50.5331678],[30.5979597,50.5333362],[30.5975037,50.5338885],[30.5950881,50.5339473],[30.5931594,50.5338141]]]}},{"type":"Feature","id":"way/421858932","properties":{"@id":"way/421858932","abandoned_landuse":"yes","addr:housenumber":"4","addr:street":"Алли Тарасової вулиця","description":"Об’єкт культурної спадщини","landuse":"construction","source:abandoned":"rda","height":5},"geometry":{"type":"Polygon","coordinates":[[[30.5188927,50.4532343],[30.5190619,50.4530522],[30.5193531,50.4531618],[30.5191838,50.453344],[30.5188927,50.4532343]]]}},{"type":"Feature","id":"way/140102523","properties":{"@id":"way/140102523","abandoned_building":"construction","addr:housenumber":"17","addr:street":"Січових Стрільців вулиця","description":"Будівництво банку","source:abandoned":"rda","height":5},"geometry":{"type":"LineString","coordinates":[[30.5022153,50.4556137],[30.5021738,50.4556239],[30.5021438,50.4556533],[30.5021392,50.4556847],[30.5021576,50.4557376],[30.5021703,50.4557802],[30.5021922,50.4558302],[30.5022072,50.4558831],[30.5022246,50.4559375],[30.5022326,50.4559852],[30.50225,50.456044],[30.5022661,50.4561087],[30.50228,50.4561564],[30.5022897,50.4561693],[30.502314,50.4561823],[30.5023313,50.4561854],[30.5023523,50.4561891],[30.5023819,50.4561896],[30.5024119,50.4561835],[30.5024386,50.4561776],[30.5024681,50.4561653],[30.5024849,50.456151],[30.5024881,50.456126],[30.5024851,50.4561153],[30.5024773,50.456107],[30.5024756,50.4560962],[30.5024982,50.4560875],[30.5025535,50.4560874],[30.5025835,50.456091],[30.5026158,50.4560991],[30.5026378,50.4560999],[30.5026654,50.456099],[30.5027075,50.4560875],[30.5027259,50.4560706],[30.5027464,50.4560484],[30.5027381,50.4560989],[30.5028713,50.4560624],[30.5028475,50.4560477],[30.5028243,50.4560014],[30.5027606,50.4560173],[30.5027566,50.4560036],[30.502752,50.455983],[30.5027324,50.4559426],[30.502288,50.4556369],[30.5022465,50.4556193],[30.5022153,50.4556137]]}},{"type":"Feature","id":"way/325782448","properties":{"@id":"way/325782448","abandoned_building":"yes","abandoned_building:levels":"2","addr:housenumber":"7","addr:street":"Нагірна вулиця","note":"Будинок, поч. ХХ ст. — в аварійному стані. Стиль: раціональний модерн","source:abandoned":"rda","height":5},"geometry":{"type":"LineString","coordinates":[[30.4778472,50.4753115],[30.477856,50.4753776],[30.4776128,50.4753907],[30.4776047,50.4753274],[30.4778472,50.4753115]]}},{"type":"Feature","id":"way/421265926","properties":{"@id":"way/421265926","abandoned_landuse":"construction","description":"Довгобуд. Колишній кінотеатр ім. О. Довженка. Демонтовано будівлю кінотеатру. Роботи не ведуться","fixme":"перевірити, як там зараз із будівництвом","source:abandoned":"rda","height":5},"geometry":{"type":"LineString","coordinates":[[30.4685784,50.4515956],[30.468786,50.4516922],[30.4691696,50.4514975],[30.4693869,50.4513984],[30.4692302,50.4509246],[30.4692302,50.4509246],[30.4683393,50.4510733],[30.4685784,50.4515956]]}}]}}